"First Name","Last Name","Address Line 1","Address Line 2","City","State","ZIP Code","IM Barcode","Sort Position","Tray Number"
"Stephen","Hight","105 Thurman St","","Carrollton","GA","30117-1955","ADADFTFATTTDADADDFFTAFFFTDDTADDFTFDAFAATDFAAATFATDTFTAAFFAADAFFDT",1,1
"Kimberly","Kendall","104 Thurman St","","Carrollton","GA","30117-1956","DAAFATDATAFTADDDTTTTADTFATFFDDFTAFDDATDDAADFTATADADFDTFDAFDDATFDA",2,1
"James","Boles","108 Thurman St","","Carrollton","GA","30117-1956","DADFDDTFDAFADTFTATADTTDTFATAAFADTATDFTTFAAFTDDFDAFATDTTDTFTFDTTTT",3,1
"Douglas","Kelley","110 Thurman St","","Carrollton","GA","30117-1956","TFTTTAATDFDAFTDFADFDAFFTTFATATDAAFAATTAFDTDATFAAFDFAFFTTDTDFFAADD",4,1
"Debora","Wallace","115 Thurman St","","Carrollton","GA","30117-1963","DFAAFTAAAFDFATTDDDFDAAAFFDTATTDFADAADAFFFADATDTFTTTFDADTDTAFAAAFF",5,1
"Sadie","Muse","116 Thurman St","","Carrollton","GA","30117-1964","TAADTTDTDFFDATTDFATTADATDTTTATTDFDFFDATDATDFTDFFDADFATADAAFFDTATT",6,1
"Jerrell","Dabney","116 Thurman St","","Carrollton","GA","30117-1964","AADTDFTFFFAADTAADTADTTFDATAFDAFDDAATTFTFTTATDAATFAATTTFTTTAFTTFAA",7,1
"Letisha","Lamar","116 Thurman St","","Carrollton","GA","30117-1964","DTFADFDAADATDFTAATFTDTFATAFFAAFTTTFTFDTTADTDFFADTFTDFTDAAATAFDTFA",8,1
"Eddie","Ector","1022 Alabama St","","Carrollton","GA","30117-2004","DTTFDFTDDTAFTDDTFATDTTTTDATDTFDTDTATTADATATFDFFDDFFTFDTFAFDFTDADT",9,1
"Frederick","Ector","1028 Alabama St","","Carrollton","GA","30117-2004","DAFAATDADAFDFTDFTAATADFDAATFATDDDFDATFTDTFFATDDAAFDFDTTDTAFADTDFA",10,1
"Alton","Jones","107 Westview Way","","Carrollton","GA","30117-2009","AFTTDAFDAADFATDDTFFAAATATDAFTTFADDAFAFFFFDFFAFTFTTTATAADFTADFATDD",11,1
"Julia","White","111 Westview Way","","Carrollton","GA","30117-2009","ATTATFDAAFFADAATDTTTTTTTDTFDTFADDATTFTTAAFADFFADTADTTTDFAAFTFDAFD",12,1
"Enrique","Lopez","113 Westview Way","","Carrollton","GA","30117-2009","ADFFTAAFAADDFDTFFFTAAFAFTFDAFTFAADFDDAFTFFATTFTFATFFTADFDATTTFDFA",13,1
"Wanda","Prather","120 Westview Way","","Carrollton","GA","30117-2010","TFFFTFAADTDADAATDFTTDFFADFDDAADFTTDDDDAFFADAFFFDTDATDFATDTTFAAADA",14,1
"Ronnie","Strickland","112 Crestline Way","","Carrollton","GA","30117-2011","FAFDFFDFADATTATTAAAFDTADDTTFFFFTTTFTAFDDATFADTADDATDADADTTTFATDDF",15,1
"McAuthur","Bonner","114 Crestline Way","","Carrollton","GA","30117-2011","ADFAFFFTFTTDDTATADADTADDDDDAAAFATTDTADATFTFTDATDTTFDAFFADTFTTFDDT",16,1
"Andrea","Dunson","116 Crestline Way","","Carrollton","GA","30117-2011","ATDAAATFATAAFADFDADTADDTATTTATTDFDFFATDATFTATDTATFFAFTTFTDTDADDDA",17,1
"Janice","Morrow","1137 Alabama St","","Carrollton","GA","30117-2014","AAAAFADDTAATAFAFFAFAADDFDATTATATAFATDTTDAFTATADFFFTAADFDAAADFTDFT",18,1
"James","Allen Jr","121 Crestline Way","","Carrollton","GA","30117-2015","DDFDDTFATDTDFAFFFDTAFFAFAFAFADDFFFADTTFTDFAAADTFADTAAFTFFTFADFDDF",19,1
"Bryanna","Henry","318 Columbia Dr","","Carrollton","GA","30117-2022","AFDTFAFAFADDFTDFFFDDFFFTAFTTADFFTFDAAFFDDDDDTFFADTAFAADDFATFDAFDF",20,1
"Terrance","Windom","318 Columbia Dr","","Carrollton","GA","30117-2022","TFADADADDATATTFTDDFTDAADDFAFDFTFATTDFAFFFDAADTADFTDTAATTDTDFTATFD",21,1
"Christopher","Lovett","1065 Alabama St","","Carrollton","GA","30117-2041","TDFDFFFFATTATTTAFFFFTFDFAFDTFAFFAAFFADATDDDFFDTTTDFDAAAFFAFAAFFTD",22,1
"Angela","Jones","1065 Alabama St","","Carrollton","GA","30117-2041","ADTTATATTTDDFTADDDDAAATADFFFTTTFTDATFTAAFDATAADFADTAAAFADTAAFFTAF",23,1
"Juan","Landa","1065 Alabama St","","Carrollton","GA","30117-2041","DFAAATFDDADFFFTDADTFFATDFDAFFTTADFFTTFADDTTDTFDADTAFDADTFFTFTAFFF",24,1
"Theresa","Foster","1065 Alabama St","","Carrollton","GA","30117-2041","FFDFFFAAFATTTFAATFAADFDTTDTTTAFAFTAFDAAFFTFADTTDFTDTDATDDDDFDATDD",25,1
"Linda","Frisby","1065 Alabama St","","Carrollton","GA","30117-2041","FTTTDDTTAFFTDDFADTTTTDATDATFTFDTTTTAFFDAAFDTDTFTAATTADTATDFDDDTAT",26,1
"Latasah","Montgomery","204 Billingsley Cir","","Carrollton","GA","30117-2104","TAFDTFATFATADATAAADTDDATAATDFADTDTTDAADDAFDADAFTTTFTTTADDDDDDTFDF",27,1
"Robert","Pierson","101 Calhoun Dr","","Carrollton","GA","30117-2105","AAAADFADFDTTDTFAFATDTTFAFADTAADTDTATTTTDTAADFTTTDTATTDTTDAFFFTFDD",28,1
"Kendall","Bailey","105 Calhoun Dr","","Carrollton","GA","30117-2105","AFAAAATTFFFDADFDADFFFADAFFFFFTDFTFAFDTFDDDADTAFADATAAADDTFAFAADDA",29,1
"Kimberly","Cheeks","221 N Fourth St","","Carrollton","GA","30117-2108","TDDDTFTDAAATTFTADDDDDFAFTFFTDAAFTADDFFAADFDTDDTDFATTAATFAATTFFADT",30,1
"Donny","North","120 House Cir","","Carrollton","GA","30117-2109","ATTFTAAFFTTDATDFDAFFFTTFATDTDTTDDFDAFDTAAFDAAFAAADAFATFADTFFDDAAT",31,1
"Sonya","Patterson","605 Martin Luther King Jr St","","Carrollton","GA","30117-2112","TFADFTTAFFAAAFDFTFDFAFFDDDAAADTFTFADTTADFTDATDDADFTADAFTTTTDFAFDF",32,1
"Nella","Jackson","210 N Fourth St","","Carrollton","GA","30117-2113","TAATFDFDFDTFDTDAATDFDDDADTATAFADAATAAADFTATFFDTTDTATATDDDDATTTDAD",33,1
"Tiffany","Rowe","103 Magnolia St","","Carrollton","GA","30117-2120","ADDTAFTDADATDADAAFTDTAADDDFAFADFATADDDATFDTFFDATDADTFADATATFAFFDD",34,1
"Carrie","Kelley","103 Seventh St","","Carrollton","GA","30117-2134","FAAADAFTAATFAFADDTTTATTFTAFDFDFDADAAADDDADAFTAAFDDFATTDTFDADTTDTD",35,1
"Angela","Walker","131 Valley Cir","","Carrollton","GA","30117-2138","ADFTTADTTAFTADAFTDFDAFTAFFDFFTDATFAFDAFTDFTDTTDADAFAAFAATDAFTFFDA",36,1
"Warnetta","Key","128 Valley Cir","","Carrollton","GA","30117-2139","TAADTFADTDDFDFAADTATTTDDATDAFAFDTAADFTTDADDFDTATATTDDDFDDFTAATFTT",37,1
"Veta","Crowder","130 Valley Cir","","Carrollton","GA","30117-2139","TFADTTTAFTFFATFDTFDFAATDDDFFFDDATDTFTTFDDFADTFFAAAFFDFFTTTFFAAFFT",38,1
"Linda","Poythress","310 Willie North St","","Carrollton","GA","30117-2146","FDTFTTTFDAFDATDDTDDAFFDDDDFFFTDATFDFDAAADDTAAADAFFFFFFFAAFFADFDDD",39,1
"Timothy","Stegall","318 Willie North St","","Carrollton","GA","30117-2146","TTADFTFFTFDAFATFATADFTAAAAATTDTDTFADTDTTATTFADDFTTFADDTFDAFFTDATF",40,1
"Conza","Hill","411 Willie North St","","Carrollton","GA","30117-2147","DFTTDDDFAFFDDAAAFFTDTADTAFFDTADFATTDFDFFDFAAFTFTFFATAADTAAFFFATDT",41,1
"Glenda","Farmer","419 Willie North St","","Carrollton","GA","30117-2147","FTTTFTFFFTTDATAFFAFTFTAAAATFTDADFFTAFDDATFFATTAFADAAFDFAFTDDFDTAD",42,1
"Terry","McClure","145 Carter St","","Carrollton","GA","30117-2153","FTADDFFATFDDTTFAATFATTATTAFDTFFDDAATDDDTTDFDFAFTDDFTADTADDDFTDDDD",43,1
"Shelia","Geter","147 Carter St","","Carrollton","GA","30117-2153","FAFFDTFDDTDTAFADATDDFTTAAADADDATTDTFTATDADADTATADTTAFDATDADDTTFAA",44,1
"Willie","Dallas","124 Carter St","","Carrollton","GA","30117-2154","TDATATTFDFAFFDFFDDAFAATFTFTTADAFTDDFDDFADTTDAATADFDADFAATFDFTFFAT",45,1
"Walter","Barker","650 Martin Luther King Jr St","","Carrollton","GA","30117-2155","ADFTFTDTFAFAATDDTDFAAAFAAFFFFTDAADTATDFTDFADTAAAFFDFAAFATFTFFFDFA",46,1
"Kim","Heath","120 Robert Hendrix Dr","","Carrollton","GA","30117-2160","TAFADFFFTDDATAATTADTDTFTFATAFFTTDAAFTADFTFFDFATDFDATTDTTDAFDDTFAD",47,1
"David","Paris","100 Chalfont Cir","","Carrollton","GA","30117-2163","DDAFTDDTADAATTAADFAFTATFFFAATATFATTDDTFTDTDFFAFTTADTTADATFFDTFAFF",48,1
"B","McClure","203 Beall St","","Carrollton","GA","30117-2165","TTDAFTAAFFTDFFDDATDTATDDAAAFDDADTFFADDDTATDATTFAFTDATTDAFDDAADATT",49,1
"Sparkel","King","130 House Cir","","Carrollton","GA","30117-2199","ATTADFAADATFDFFAATFFTDFDFTFFAFATAADFTTDTTTFDFDATADATADFFDDAAFDDFT",50,1
"Odelle","McGukin","509 N White St","","Carrollton","GA","30117-2330","AFDTAATAATFTFTTDTFFTAFTFDDATTDDFTFTDDDAFDAAATTDATATFAFTTAAFFFAFFT",51,1
"Lisa","Duffey","534 N White St","","Carrollton","GA","30117-2331","FFATTTDDDAAAFFDFAFDDFFAAADTAFDFFDFTTFTAFFFTFADTAFAFADATDTFDDTAAAF",52,1
"Orval","Lane","536 N White St","","Carrollton","GA","30117-2331","TDDTFATDFTFTADDDTFFTFFAFAFFATDAFAFFFFTATDFFAAAFFDAFFFAFAADTAAFDDT",53,1
"Anthony","Stallings","538 N White St","","Carrollton","GA","30117-2331","TTAFDAFTFTDFAFADATDFADFTAAFDATTTADTTTDDAAADDAFAAATAAFDTFDADFDDATD",54,1
"J","Phillips","543 N White St","","Carrollton","GA","30117-2356","DTADTAATTFTFADFFAATTFDFTATFAFDTDDFDFTADATFDDTFDATTFFFTAADFAAFDTTF",55,1
"Luke","Wojcik","545 N White St","","Carrollton","GA","30117-2356","TAATDAAFDFTFADTFATDFATTTAAADATATDDFAFADFAFFDATAFDDDFFTFTDDAAATTAF",56,1
"Elizabeth","McDill","547 N White St","","Carrollton","GA","30117-2356","ADAAFATFTAFFFDFDAFAFAAFTAFDAFDDFTFDTTTAAFFADAFTFTFFFDAAATDFFDFTAD",57,1
"Terry","Phillips","544 N White St","","Carrollton","GA","30117-2357","TATTATFTFTTFFDDFDTAAFDDAFAFDDTTTFFFDDTDFTTFDADTAFTAADDTDFFDAFTDDF",58,1
"Bonnie","Cooper","548 N White St","","Carrollton","GA","30117-2357","FTAFFAADAATDAADDATDTFTTDDTFAFTTDFFAFDATTATDAAATFTTFFADDFDFTDTDTFD",59,1
"Shirley","Oxford","550 N White St","","Carrollton","GA","30117-2357","FTDADTFFAATAFATDTTDTFDTTFTAATTADFFDAATTATDDDAFDAATFAFDFFFFTFFDFDT",60,1
"Clarence","Stegall","552 N White St","","Carrollton","GA","30117-2357","TADFAFFAADDATTFATTDDDTATTTAATFFTFADDTDDFAFAFFTADFTTTTDDDFATATTFAD",61,1
"Michael","Mellick","554 N White St","","Carrollton","GA","30117-2357","ADATTTTATFFFFDTFFFAFFAFTTFFFFDTAADDADDAAFADFADTADAAAAFTFATTAFFTDD",62,1
"Christy","Lock","541 N White St","","Carrollton","GA","30117-2361","ADADFFTTTDFTDFFAAFDFTATFAFADAFDFTADTFAFADDAAFDATFAFTFATFADFDAFTFD",63,1
"Laura","Camper","541 N White St","","Carrollton","GA","30117-2361","DFTFFFDDDFFADTDADFTADATTTDFDDFDADTTTTTFDFTAFDTADTFDDTAADTADTDAFAD",64,1
"Sherry","Richie","541 N White St","","Carrollton","GA","30117-2361","FFFAATTAFFADATFDFDAFFFDDFDDAADAAFFDFDDFFDTDTTFFAAFAAAAFTATTTTAATF",65,1
"Judy","Pyron","541 N White St","","Carrollton","GA","30117-2361","FTADTAATAADDFAADAATDADADAADDATTTTFFAFTTATFFATFTFFDFAFDFFFTAATDTFA",66,1
"Roy","Young","115 N White Cir","","Carrollton","GA","30117-2416","FFTTDDTADTFFDTTTDFAATAFTTDDTTADAATTADFFDFFTFFFDDFFDDAAFTTADDAADDF",67,1
"Bonnelle","Hendrix","102 Sheffield Dr","","Carrollton","GA","30117-2417","AAAATAATTATTADDDDTTDFTFTAATFDDTDFDTAFTDFADTTAFAATTTFADTTFTAFDTFTD",68,1
"Heather","Comer","108 Sheffield Dr","","Carrollton","GA","30117-2417","TFTDADDAFTAATTDTAFDTDAFDDFFTFFFFAADTFFFDFFAFDFADFADTAFTTTTATAATDA",69,1
"Lesley","Bishop","110 Sheffield Dr","","Carrollton","GA","30117-2417","DDTFFDDDDDAATFATFFAATAAFFDTFFAAADTFAFTFTDDADDFDTAFFTAFTATDFFDFTAA",70,1
"Cynthia","Brown","112 Sheffield Dr","","Carrollton","GA","30117-2417","TFTADTDTTFFFFADDFDAAAAFDFFTAADFADFFTAAADDDFFAAFAFFFADFTTTAADDAAFT",71,1
"Reynaldo","Madrigal","113 Sheffield Dr","","Carrollton","GA","30117-2417","TDDADTDATAFAFDFDAFADFATDFFTDFTDAFFDTTAFTDTTDADAFFAAAAATATATFTFAAD",72,1
"Victoria","Griffin","119 Sheffield Dr","","Carrollton","GA","30117-2417","AATDFFFADDTFTTTTFAFDTTDDFADFAAADATDDDDDDATDDFFADFTTTDTDDDFTTFTTTD",73,1
"Hossein","Noori","123 Sheffield Dr","","Carrollton","GA","30117-2417","FAATADATFTDTDFFADTAATDFADADFDFDDDTAAAADFTTTADFDTTTTDFDFDFAFTATFAT",74,1
"Harold","Frey","127 Peachtree St","","Carrollton","GA","30117-2418","TFAADTDTAAFDFDTFAFADFAAFFFFATDDFTDFDTTFFFTDFADFFDATADAFDAATTAAAAT",75,1
"Janice","Wilczak","112 Peachtree St","","Carrollton","GA","30117-2419","TTFAFDAAFADTTATTDTATTTFTTATTDADDFTDTTDTTAFFTDFADDTADATTAFTTADDDTT",76,1
"Samantha","Hardy","122 1/2 Peachtree St","","Carrollton","GA","30117-2419","DATDDAFATTDAFDTDAAATADTFTTFFFTADFDTAAATFTDAFATFFADAATTFTDDAFATTDT",77,1
"Mark","Schoon","132 Peachtree St","","Carrollton","GA","30117-2419","FTDDTFAFTDTTDDFTDTDTTTFAFTFDFAFDTTATDDDTTDTDFFTDFDDDFDFFDDAFFDDAF",78,1
"Jeannetta","Luke","127 Perry St","","Carrollton","GA","30117-2420","TADDDTFTAATAFFTFFAFDFDFDTAAFFTATFDTAATDDTADFTTDFTDFFTDTDFAFAFTADT",79,1
"Ruthie","Daniel","205 Perry St","","Carrollton","GA","30117-2422","TTAATDAAADTTTDDTTTTADTFTAADDTAFTDTADTTTATFDAFAADFDATFDAFFTATTDFTA",80,1
"Christopher","Bray","215 Perry St","","Carrollton","GA","30117-2422","TDFATDTFTTADDFTTTFTFDFFTTFDDTFTFTATTADFADFTADAFDFFTTTFFFAFTADFDFA",81,1
"Phil","Dappy","235 Perry St","","Carrollton","GA","30117-2422","AFDTTTDTTAFFFTFFADDDAFDFFFFAFTDAFDFFFAADDTADAFFFDFAFAFTTTTADTATAF",82,1
"John","Corn","226 Perry St","","Carrollton","GA","30117-2423","TTTTATFTFDTDFDDDAATAADTFATDTDTFDAFFATADATDDDTFDFTTTADTTAFFFATDDDD",83,1
"Charles","Shackleford","230 Perry St","","Carrollton","GA","30117-2423","ADTDDDDDTTADTTDAFDATDAFDFFFTDAAFFAFTTTAAFTADFFATTADTAAAAAATTAFFDD",84,1
"Virgilynn","Crowder","234 Perry St","","Carrollton","GA","30117-2423","TFAADATFDAAAAAAFTDTTAFATAFTDADDAAFTDADADDTDAATTAAFTFFAADTDADDATDT",85,1
"Jerral","Howard","215 E Reese St","","Carrollton","GA","30117-2426","AATDTTFDTDTDAFDFATFTADDFFTTAFTTDDFFFTDTFTDTDTDDADTFAATTDFTDFDTAFD",86,1
"Melissa","Johnson","124 Sheffield Dr","","Carrollton","GA","30117-2427","AFFFFFTATAADTATATFATDFDTADFFTADFDTDAADFDDTFTFTDDAAFDDFTDTAAFDADFD",87,1
"Marvin","Miranda","125 Sheffield Dr","","Carrollton","GA","30117-2427","TFTFDFDTTFFFTAAAFDDDTATFTFDFFFDFTTATATAFDFADDTADDFTTFFFDAATFDAATD",88,1
"Kimberly","Wynn","126 Sheffield Dr","","Carrollton","GA","30117-2427","DTDDTAFTFATFFDDDAADTADFDFTDTFDFTFDATTFDATAFFAFTADTAADTFAFADATDADD",89,1
"Cheryl","Foss","127 Sheffield Dr","","Carrollton","GA","30117-2427","ADFTFTTAAAFDFFADTDATAFATFDDFTTTFAFFDFDATDTTTTFDFFADFDFTATFTDDFDFD",90,1
"Keisha","Jeffries","128 Sheffield Dr","","Carrollton","GA","30117-2427","AADATDFDAFDFTTDAATDFTTDFAAAFAFFTDTTTFTDFTADDDFATDDFTDTTTFDFDDTAFD",91,1
"Vedgren","Glenn","129 Sheffield Dr","","Carrollton","GA","30117-2427","DADADDFAFATFTTDAATTDTDDDFATTFADDAATFDFTFTFFFFDADTDTTFDADFATTFTTAD",92,1
"Becca","Switzer","101 Sims St","","Carrollton","GA","30117-2428","TATAFDFDTADATADTAADATDDDDADTFADDDADAADTFAADADTTTDDDTADDTFFFTTTTFA",93,1
"Dagnah","Thompson","119 Sims St","","Carrollton","GA","30117-2428","FDTTDDDFDTAATATAFFDATFAFDFTTFADADTDAFTFADFDTDAADTATTTATAAFADAFAAA",94,1
"Erica","Abbott","133 Sims St","","Carrollton","GA","30117-2428","DFTDDFDATTFFTDATFDTFTAADFFDDAAAFAADADAAFFAADDADTDFFTAADTTTAFFAADD",95,1
"Susan","Weldon","145 Sims St","","Carrollton","GA","30117-2428","DFATDATDDAADAADFTFFAFFAATDTADDTFTDAFFFADFDFTTTDAAFTFTFFDATDADAFTD",96,1
"Lamar","Chism","102 Sims St","","Carrollton","GA","30117-2429","TDATFTTTDFFDFTDFTDFDAADAFFATDDDATDTFDAFTFFFATDTAFFFFAFDFATTTDFFFD",97,1
"Amdanda","Evans","120 Sims St","","Carrollton","GA","30117-2429","FFADDTTAAFATFFADDFDAAFDTTFTTFDDFTFTTDFADFDFAATDFAAFFFADTTTDAFADAF",98,1
"Terry","Cook","136 Sims St","","Carrollton","GA","30117-2429","DFFAFDTATDFDDAFATFTFDFDATDADFAAFTAATDTADDATTDAATAAFDAAFDTFFDDAFDD",99,1
"Dylan","Wood","142 Sims St","","Carrollton","GA","30117-2429","TADFFDFTAADATAAAATDDTDTDTATDTFFDFTDDTFDFTFDFFDDTDTATDTFTFFDDATAFD",100,1
"Christopher","Smith","319 Sims St","","Carrollton","GA","30117-2432","TTTTTAAAFDTFFDFFFTFAFDDFAADTADTTDDFFADTTTTTFADFAATDFDDAFDATFFDAFT",101,1
"Jessica","Holloman","306 N White St","","Carrollton","GA","30117-2439","DFDTAATATTFTFTDDFDTDAADTADADFTFAFDADDDFDDFFAADAAAADFTFFTTDAFAADFA",102,1
"R","Holcomb","322 N White St","","Carrollton","GA","30117-2439","TAFDTTFATADAATFDTAFDFDDFDTDFDTTDTDDAAADFAAADAATFDTAADTDTFTTFTTADF",103,1
"Roy","Detweiler","322 N White St","","Carrollton","GA","30117-2439","FTDFTTAFDTDTAFDDFAATADDTFATFATTTDFTADTDTTFATTFTAADTFATFADFAAFDDTF",104,1
"Sandra","Adamson","415 N White St","","Carrollton","GA","30117-2440","DAFDTTFATFDTADAFDAAFATATFATFDTFTFDAFDTTFTAFTTDDAATDAATTDDFFDFTDFT",105,1
"Mittie","Barker","206 Sheffield Dr","","Carrollton","GA","30117-2450","TATDDTFDDFDFAATDATTFFTAAFTDDADFTTDATTFTFATFDTTDAFTDFFTTDDFTTATATA",106,1
"Balanda","Johnson","210 Sheffield Dr","","Carrollton","GA","30117-2450","AAADATATADDDFDTFTATTADTDDTTTDTDDTFFTFATDTDTATTAFDDFAFTTTFTTTATFDD",107,1
"Sandra","Standish","212 Sheffield Dr","","Carrollton","GA","30117-2450","FTADAAAAAFTDFTFDDTDDADTDDAATDDDTTDDDTATTAFTATTAFDTAAADFAFFFTDDDTF",108,1
"Lori","Bogue","215 Sheffield Dr","","Carrollton","GA","30117-2450","DFTFFFDFDTAATFDAADFFTADTFDTDAAFFDATAFFAFDFDDFFATFADDAFADTFDFDATDF",109,1
"Maribel","Cruz-Rivera","217 Sheffield Dr","","Carrollton","GA","30117-2450","FAATDFATTADTDTTATAFTDDDFATFFTADDFTFTAFDDAATAFFFDDTTTADFDFTADFTDAA",110,1
"Katherine","Hardy","218 Sheffield Dr","","Carrollton","GA","30117-2450","TDFDFFTTFAADDTDADFADTFDDDFFFTAFAATDFATFTDTAAFAATDFTTDFDAAFADTFDDA",111,1
"David","McDonald","102 Oxford Sq","","Carrollton","GA","30117-2455","FFTTDFDDFTFATAFTFDDFDATTTDTAAATAFADFFDAFDAFDDFFTAFATDAADTTTDTAADD",112,1
"Keith","Driskell","110 Oxford Sq","","Carrollton","GA","30117-2455","TTDFDFFFDFDFDADAAADDDDTAATDTFFDTATFFDADAAFADDTATFTATFTFADATFADAFA",113,1
"Milton","Burson","105 Oxford Sq","","Carrollton","GA","30117-2456","DATADTADDDDTFTTFDTFTADDDATDTFTDDFDAAAATDADTTAAFFADAFDDDDDTDFTTFFT",114,1
"Vicky","Spruell","107 Oxford Sq","","Carrollton","GA","30117-2456","FDTTDATFATFDADDFTFTFAFTDDFDTFDTFFDTDDAFTDFDAAFAFAAAFDFAATADFTFFDT",115,1
"Mary","Agan","109 Oxford Sq","","Carrollton","GA","30117-2456","FDAADADTTAAAAATFADADAATTFFTFTTDAFDFDDTAAFTTFATFADFTAFFDFADAFTFADF",116,1
"Maria","Flores","117 Oxford Sq","","Carrollton","GA","30117-2456","TDFFAFDFFAAADAAAAFFADATADDAADAAFTTFDDAFADADFFFTDDATTDFFFADFAAFADF",117,1
"Elizabeth","Davis","106 Comly Rich Dr","","Carrollton","GA","30117-2457","DTAFFAAFDFTDAAADDTFAFTAFFADADDDDDFAADTDATFAAAATAFDDADDDFDFDADDFFF",118,1
"Anthony","Carollo Jr","117 Comly Rich Dr","","Carrollton","GA","30117-2458","ATTFTTFTDFDFATFFFTTFFDDTATTAATATAFAAAATAADADATAATDDFFTAFFAATDDTTA",119,1
"Melissa","Calas","119 Comly Rich Dr","","Carrollton","GA","30117-2458","TFTADDDDDFFADFTAFDDTTATAFFFFFFDATTTAAFFFFFAFDTTTDADDAAATAATTAATTD",120,1
"Randi","Miley","121 Comly Rich Dr","","Carrollton","GA","30117-2458","DFADDFTFTAATTATTTDFDDADFADTDTATFTTFDFFFDDFFADAATFADTTADDTFDDAADTD",121,1
"Alice","Macharg","102 Comly Rich Dr","","Carrollton","GA","30117-2459","TDFDATTFDDFDFFDFDFDFAAADTDTDTTAFDFATDDATFDDDTTFFAADFFFFFTTATAFAFA",122,1
"Patricia","Turner","207 Comly Rich Dr","","Carrollton","GA","30117-2460","AFDDAFDTTAAFTDDAFDFTDFTTDDADAFTFTTDFDDAFFAFFFFTTTADDDFATTDFDFAADT",123,1
"Allison","Cramer","103 Orchard St","","Carrollton","GA","30117-2462","TTTATFATTDDADDTTFTFATTAFATADDADTTTTFFDTTADDTDFDDFDFDFDAFDFAADDTDT",124,1
"Betty","Harris","119 Orchard St","","Carrollton","GA","30117-2462","FDFDDFDATAFTTDDATDDATFFADFFFFAAFATDFADFAFDDDDAATDFTTAFAAAAFFFFFAD",125,1
"Beverly","Noles","104 Frankford Way","","Carrollton","GA","30117-2481","FDTADDTFTDFADTATDFFTTAADFFAAAADFDTFFDDFTDAAFDDDTFFDDFFDAAFAFDFTFD",126,1
"Jennifer","Williams","220 Sheffield Dr","","Carrollton","GA","30117-2482","TFDATFDTDDFADAATAFDADADAFDFFTAFFAAADATFDFTFTFTTTAFADTADDTDDDAATAD",127,1
"Lashamba","Almon","101 Ashgate Way","","Carrollton","GA","30117-2483","AATAFDADTATATTDTTTFFTTDFTTTDFATTDTTTFATFATTDDADDFTFDFTATFFTATTAAD",128,1
"Sandra","Zelaya","105 Ashgate Way","","Carrollton","GA","30117-2483","DAADDDFFTDTTTAATATDDTTTAFAATTFDTTTDFDFTDTDTTDDFTTDATFTATDDTFFTFFF",129,1
"Andrea","Sherman","106 Ashgate Way","","Carrollton","GA","30117-2483","DFTFTATDFAFFATADDFTTAATFTFFFFDFFDFAATFFFDDTDTDTAFFTFTFDTADFDTAATF",130,1
"Keydy","Medrano","109 Ashgate Way","","Carrollton","GA","30117-2483","FDFTFFDATAFDDTDTFFTTDAATDDTTTADADADFADATFTFADFTDTFATAFAATTDTAFDDF",131,1
"Amanda","Akin","110 Ashgate Way","","Carrollton","GA","30117-2483","AAAATFFFDADTTTAAFATTDDFTAAAATFFTTTFFTADDAFDTDTFTTTFTTTFDDAAFFTFFF",132,1
"Marie","Johnson","112 Ashgate Way","","Carrollton","GA","30117-2483","DTFAFFFAFTDDDFTAFAFDTDDTDAFTTATTDADFTATTAATAFFADTTDTFDDADADFADFFA",133,1
"Tasha","Tolbert","117 Ashgate Way","","Carrollton","GA","30117-2483","DFDDFATFTDAAFAAFDDTTFAFFFDDTFDTAFFTAFDAFDFTDAATFAFAFTADDATATDAAFT",134,1
"Tonya","Brown","118 Ashgate Way","","Carrollton","GA","30117-2483","DTADFTFAFFTDFTADFATTFTDTATTFTDDDDDDTTDTTTTTAADFADTAAADTADFDTADDAT",135,1
"Wesley","Blythe","123 Ashgate Way","","Carrollton","GA","30117-2484","FTDFADFAAADTTDFAATDFDDFATTTDDFADAAATFADTTFFFFADDADDDADAADATAFDAFD",136,1
"Anna","League","131 Ashgate Way","","Carrollton","GA","30117-2484","FAFFAFFTAFDTDDDAAADDDTDTDTFDDAATFTADTDDDAADADFFTTDFTFTADFFAFDTDTT",137,1
"Marcia","Mullins","139 Ashgate Way","","Carrollton","GA","30117-2484","DFATFADAFFFTATAFFFTFFAAAADATDTDADDATFTFDDDFATAFATFTAFFADATTTTAFDA",138,1
"Rebecca","Brimer","141 Ashgate Way","","Carrollton","GA","30117-2484","AAAFDTFTFTDDATTFFTDAATAAATTFTDDTTDTAAADDTAATAADFTTTATDTDFDFAATFTD",139,1
"Tanya","McCall","102 Deese Ct","","Carrollton","GA","30117-2488","FFFDFDTAATFTDAATADFDTATFAFDATFTFDADTDTADDAATFTADDADTTFATTFATFAFAT",140,1
"Patricia","Caldwell","1130 Cedar St","","Carrollton","GA","30117-2500","ATAAFAADDTTAADFDAAATFTTFDAFTDDDDAFTTFTDTTAAFTFFFFTDAADTFFAFFTDDFT",141,1
"Shirley","Granville","1130 Cedar St","","Carrollton","GA","30117-2500","AFFDDTTFTDFAFFADFDTAAAFFTDFFDTFFDFADDTADDDADTFTFAATAFATTAADDTADTD",142,1
"Elma","Haredegree","1130 Cedar St","","Carrollton","GA","30117-2500","TFTTTFDTADADTFTADFAFTFAAFDDTAATFFTFATDAFFDDADTDTTAFDFADDTTTDDAAAF",143,1
"Margie","Poe","1130 Cedar St","","Carrollton","GA","30117-2500","FDAATFTDFFAFTTAAAFFADFADDFTTDATAAAAAFFATDTDFFDDTFFDTAAFFAFATAFDFF",144,1
"Doris","Willis","1130 Cedar St","","Carrollton","GA","30117-2500","DDDFDTDADFFTFTTDTDDFFAFTAFAFATFATDFDAAAAFTATAATADFAFAAAATDFTFFTDD",145,1
"Trudy","Miles","1130 Cedar St","","Carrollton","GA","30117-2500","DATTFAFTTATTAADDDAFDATTTFTATADDTFDDTTFDFAFTAAAFFTDFFDDADDDDAFTTAT",146,1
"L","Carroll","1130 Cedar St","","Carrollton","GA","30117-2500","FAFDADAFAADFDAFAFTDTTDDDTTTFDFATDATFDADDTFFDFDATADTTDDFTFFTAATFTA",147,1
"Evin","Barron","1130 Cedar St","","Carrollton","GA","30117-2500","FADAAAFFFATDFTFFTTFTFDDTDATAFDTTTFDAFADFTADAADFFDDDFADFDDFAAATTFA",148,1
"Evelyn","Morgan","1130 Cedar St","","Carrollton","GA","30117-2500","DAAFFDATDADATTDTAADDDTTDAAADTFFTATTDAFDDAAADFAATFDATTDATFDFAFTDDT",149,1
"Deanna","Premo","1130 Cedar St","","Carrollton","GA","30117-2500","DDFTDFTATFAADATTFDFFTAFDFDAATADADTATTAATFDTFFADDAFFTDAAFADDTFFFAD",150,1
"Betty","Todd","1130 Cedar St","","Carrollton","GA","30117-2500","FDTDTTDDAFFDAAAFDFDAAFATTDTDFTAAFFFFDFAADDFTADTFTFTFDAFATATTAFTTF",151,1
"Joe","Deloach Sr","1130 Cedar St","","Carrollton","GA","30117-2500","TFAFTTTTFDFFADTFAFTFFFAFAFDFTTAFTDAFATADFTDDTTTAFAAAAADTADADDAFDF",152,1
"Jason","Smith","402 Newnan Rd","","Carrollton","GA","30117-2504","TDATDATFFDAFAFFFFDFFFFFFTFFDTDTATFATTFAAFDTFTFDAAFAAAFTATFADAFDDF",153,1
"Sabrina","Hartley","204 Burns Rd","","Carrollton","GA","30117-2508","TDDFADDFTDADDADATFDADFDTFFDDAFDADATTATAADFTAFDTDAFDTDATAAFDAAFATD",154,1
"James","Rose","301 Burns Rd","","Carrollton","GA","30117-2509","DAFTAFADATDADDDTFAAADDDDFTFTTAADTTAFAFTFADTDFTADDDADFTDDDFATATDFT",155,1
"Roger","Johnson","503 Burns Rd","","Carrollton","GA","30117-2513","AATFFDFTATTTTTDTDTFFDTAATTTAAFDTFTDDFADDTFFADFATATDDDDDTDFDFATADF",156,1
"Archie","Mallory","601 Burns Rd","","Carrollton","GA","30117-2515","ADTAFDDFFAAFDTAADDAFTAAFFDTTDFAFAADATTFADFADDAATFAFDDFTFTTFDAFADA",157,1
"Aletha","Edmondson","603 Burns Rd","","Carrollton","GA","30117-2515","DFFFATTFTDADFAFDAFFFFAATFDDAFDAAAFATFAADFDDATATATFAATFDTAFDTDAFTT",158,1
"Debbi","Carroll","607 Burns Rd","","Carrollton","GA","30117-2515","AFATDFTFAAFTTAATFDAADAATDDATAFFFFAATTTADDTFAFATTTFFTFATTATDAAAFAA",159,1
"Marcus","Brown","703 Burns Rd","","Carrollton","GA","30117-2517","FAAFDDFDDTDDTAAAFTDDDDFTFTTFDFDDDADFDADFATFADFADFTTDATTDDTTAFTDFT",160,1
"Subrina","Blue","721 Burns Rd","","Carrollton","GA","30117-2517","ADFADTDFFFFFAFADADFFAAFTDDFDDDAAFDTDAFFTDTTDADAFFAFAAFAFAFFTAFDDD",161,1
"Kathy","Molden","720 Burns Rd","","Carrollton","GA","30117-2518","TADDTAAFATTAAAADTAFAATAFATAATTADAFADFFDDAFAFTAFATDDADDFTFFTDFTDDF",162,1
"Donna","Grizzard","724 Burns Rd","","Carrollton","GA","30117-2518","DADFDTAFTADFFDTFTAADADFDATTFDTFDDDAFATDDAADFATAFDDDAADFTFTTAATDDD",163,1
"Connie","Parker","127 Carroll Cir","","Carrollton","GA","30117-2519","FDATDADDFDFAFTFDADFAAFTAAFFFTTAFDDDTDDATDTTDAFFFAAFADAFATFDDTFDFF",164,1
"Genia","Glass","135 Carroll Cir","","Carrollton","GA","30117-2519","ATTFTDADFDDDDDFADTTTDDFFFTAAFAFTDTAAFDTATFDTDFFTTDFDTTFFFTFFTDAAD",165,1
"Jeffery","Maner","145 Carroll Cir","","Carrollton","GA","30117-2519","AFTATTTFADFTFAFFDFFDFFFDADFAFDDADFATTFFFDFAAAATFTATFTADDATAAFATFA",166,1
"Anna","League","153 Carroll Cir","","Carrollton","GA","30117-2519","FFAFAFDFDAAADADAADFATATTTDTFDFFAAAFDFDADDFFDDTTDFAFTAAADTAFFDADDF",167,1
"Rod","Barron","103 Kristy Ln","","Carrollton","GA","30117-2527","FTFADDFAFTTFTTATAAFDDTDATTDFDFFTATFTAADTAFFFFFATTTFTTTFAFADDTDFTT",168,1
"Deborah","Moore","113 Kristy Ln","","Carrollton","GA","30117-2527","ATFFTTFDFADAFADDAADFADTADADTTDATFDDAAFTTAAAFADAFDTDAATFFFTFTADDAT",169,1
"Charlene","Shelnutt","112 Kristy Ln","","Carrollton","GA","30117-2528","TAFFDFADTATADAAATADDTDFDTADFDFFDAATFFADDTAAADDTTTTDTADADFATDATDDT",170,1
"Nancy","Hurston","103 Leigh Ln","","Carrollton","GA","30117-2529","FFDDDATADTFTAADFTFDDFADFFFFDATFFAFFDDDFDFDTTTDDFAAAFDAATTDFFAATDD",171,1
"Bonita","Dix","105 Leigh Ln","","Carrollton","GA","30117-2529","ADDFFDTDAFADDAFATFTADATDTFFFAAAFFTDFFFFTDFFTFTFTAATDDAAATDDDFFTTD",172,1
"Caballero","Burgos","107 Leigh Ln","","Carrollton","GA","30117-2529","FFAADADADTFFAFFDAFTFFFDTADAATTAAFDTTTFAFFFTDTAFFDFAATAFDAFFTDADTF",173,1
"Jody","Windom","115 Leigh Ln","","Carrollton","GA","30117-2529","FAAADAFDTFTAAFDFFTATATTTFAAATDADAFAFFADFTFAFATAATTFAATADFFFAFTDDT",174,1
"Louise","Yates","108 Leigh Ln","","Carrollton","GA","30117-2530","AAAFDTADTDDDADDFTTDDFDDFDAAFTDFDTFAFTATDTATDAFAATDDAFDTDFDTAATFDT",175,1
"Vinod","Grover","112 Leigh Ln","","Carrollton","GA","30117-2530","DTAFAAAFFFTTAFAFDTATATAFDADFDTATDDADFFTTTTDDADDATDAAATDAFATTDDFDF",176,1
"Tijuana","Cooley","103 Shannon Dr","","Carrollton","GA","30117-2531","FFAATTDDDAFFFTAFADFAFFFAFFADDTFATDFAFAFFDTFDADFFTFTAFADDTAADTADFT",177,1
"Roseanna","Stephens","106 Shannon Dr","","Carrollton","GA","30117-2532","DDTDADDAFAATDADADFDFDADFDFADAAAADTDFDFAAFFFTDAADTATTAADATATTDFTDA",178,1
"Freda","Harris","110 Shannon Dr","","Carrollton","GA","30117-2532","TAFAATAFATDFATADFADAATDADATDTTTTDFAATDDDATAFADFFFTDFTDFDFTDAATFAD",179,1
"Ramuro","Ortega","203 Belva St","","Carrollton","GA","30117-2533","FTDDFTAAFFTAAAFDAAFFFDTFAAATTTADTDADDDTTTAAFTDFFDDFAATAFFATDTDATF",180,1
"Kendall","Pope","219 Belva St","","Carrollton","GA","30117-2533","AATFTDAFAATFTFATATFATTTDAADATADDFATTADDDATDFFTATDTDTTTATFAAFDTAFF",181,1
"Tracy","George","221 Belva St","","Carrollton","GA","30117-2533","ADATTADADDATATTFDFAFAAFAFDAFATAFAFFAFDFADTATTTTAFADFAADFTTTTTFDFA",182,1
"William","Rodriquez","225 Belva St","","Carrollton","GA","30117-2533","FTFDAAFAAADTAADDDAADADATTTFAFDTDTFFDDTTAAAFATDDFFTTFFDTFDFFAADDTT",183,1
"J","Morris","216 Belva St","","Carrollton","GA","30117-2534","TFFFFFTFDTAADDTTADTFDATADFFATFAFATDAATFDDDADDTDTFFFDDFFDTFDDFAFAT",184,1
"Renee","Marable","218 Belva St","","Carrollton","GA","30117-2534","ADFDDDTFTFAATADAFDFDDAFTTDDTDFAADTDDTDFTFAFDDFFDFFTDFADATFATFFDDD",185,1
"Larry","Williamson","421 Belva St","","Carrollton","GA","30117-2537","FATTDAFDDDTTAFAFTTDAADAFDAAAFDTDAFTAADTFAADAADAADDTFDDADDDFADTAFA",186,1
"John","Hansen","420 Belva St","","Carrollton","GA","30117-2538","ATDAAAATATDAAATFFAFTFTTDFATTDDTDTDAFDATTTTFATTAFDDFATDTAFTATADFFA",187,1
"Pamela","Horvath","422 Belva St","","Carrollton","GA","30117-2538","TFDDFTTFADAFFDFFFDATFFDDDFTATTDATDTDDDADDDTTTDTATATAFFDDAADDTAFTD",188,1
"Caroline","Jordan","105 Morningside Dr","","Carrollton","GA","30117-2539","TFATFTTFAAAFFFDFADTTFFFTAFTFTTTFFDTFADAFDDTDTFDFFFAAAFTDATFAFADAT",189,1
"Jennifer","Braden","109 Morningside Dr","","Carrollton","GA","30117-2539","DFTTTDDDTAADDDDTDDFFDADDFDDTAADFDTFTDDFDDFDAFAFDDFDDTFTTTDTADATTA",190,1
"Joel","Whitten","113 Morningside Dr","","Carrollton","GA","30117-2539","DTADFAADAATFAFDFATDAADATDTFFTTADDDTADFDATFDFTTTFFTFATTFAFFFADDFAF",191,1
"Cindy","Brewer","115 Morningside Dr","","Carrollton","GA","30117-2539","TTFFAFAAFADADFATFTADDTAATATATATTAATTFDDAAFDDFFTTFTATFDTFFFFTADDTA",192,1
"Wei-Chu","Hsiao","129 Morningside Dr","","Carrollton","GA","30117-2539","TAAATFADDADATDAAFAFTTDATFTDTDADDTATTADDFAFTDFTFDADTTATTTFFDDDTDTF",193,1
"Angela","Dumas","135 Morningside Dr","","Carrollton","GA","30117-2539","FFDDATDAFFATFTFFDFFFAFFFDDDFATTADDFDFTFDFAAATFFADFAFDFTTTAADAAAFF",194,1
"Katherine","Gutierrez","104 Morningside Dr","","Carrollton","GA","30117-2540","TFDADATDADADATDDAFFFFFTDDFFATTTFADAFTDADDAAFTDDADATAAFDDAFFFFADAD",195,1
"Kathleen","Wartham","114 Morningside Dr","","Carrollton","GA","30117-2540","DDFTFFDATFAFDDTADDTDTAFAADDFFATAFADTDTFADAATFFFTFFFDTFFATDAADFTFT",196,1
"Bobby","Reaves","116 Morningside Dr","","Carrollton","GA","30117-2540","AATDTTADFTDTFFAFATDTFDDFFAADDDADDFTDTTTDTFTDTDTFDDAATTADFDFDATFAT",197,1
"Cary","Hardegree","122 Morningside Dr","","Carrollton","GA","30117-2540","FTADDDATADTFTTFTFATFDDAATATADAFTFTDTFTTAAFADDTATATFTDDTFDATTTDFFD",198,1
"Perry","Hardegree","124 Morningside Dr","","Carrollton","GA","30117-2540","DDTDTADTDTFDFTFFDFTAFFAFDDFTFTFADDTDTFATFATAATDFTFAFDAFAAFDTAFTTF",199,1
"Paris","Strickland","119 Sunrise Strip","","Carrollton","GA","30117-2541","ADDAADTTTTADTATTFDFADAADADFAAAFFTAAADAATFFFTDTDTDFTTAFDFATFATFFFF",200,1
"Lawrence","Smith","120 Sunrise Strip","","Carrollton","GA","30117-2542","FATTFAFTADTTADAFTTTFADTFDAAAFDFDFFTATADFTDFATAAFADDAADTTDTFDATTDF",201,1
"Anjanette","Davis","136 Sunrise Strip","","Carrollton","GA","30117-2542","DDFTDATFADAFFTFDADFAFAFADDDFDDFFDFFFTAFTDTFDTFTFTAFFFADAAAADFFDFD",202,1
"Nellie","Popphan","138 Sunrise Strip","","Carrollton","GA","30117-2542","TDDTFTDFAFADAFTFTFFTFAAFFDDAFDTFTFTFAFAADDAATDTFFADAAFTATTTDTFTTT",203,1
"Cynthia","Winters","126 Carroll Cir","","Carrollton","GA","30117-2547","DFAFTDDTDAFADTDADDFFTAFDFDDTTFDADTAATFFDDFTDFDATAATDAAADTFDTFADTA",204,1
"Amy","Gels","146 Carroll Cir","","Carrollton","GA","30117-2547","AFFATFDAFTAADDDADDDATFFDAFTATADFFTTADFADFDTDDTATAATDDATDTTATFAFTD",205,1
"Walter","Robles","148 Carroll Cir","","Carrollton","GA","30117-2547","DDFTTADADAAFAFFDTFTDFFFDTDDTDTAFDDADTTATDDFFADFFFATFFAAATFDAAFDDA",206,1
"Chris","Folds","150 Carroll Cir","","Carrollton","GA","30117-2547","AAFDFAFTFDDFFFDDTAADADTDTATDDDTTAFTFTDDDAFFDTDDFADAFTDFTDTFDFTFAD",207,1
"Reven","Embry","154 Carroll Cir","","Carrollton","GA","30117-2547","DFFDDFDATFFFDDDATDDTDFFDTDTTDADADTTDAFFDDDFDDFATFFADFAADTAFTFAFDT",208,1
"Dondra","Craig","205 Burns Rd","","Carrollton","GA","30117-2548","AFDTDFDTATAFDTTTDFDATFFTTFFDAAFFFAAFFTFDFFFDDDDDDAFTDAFDAAFDDAAAA",209,1
"Leola","Bagley","207 Burns Rd","","Carrollton","GA","30117-2548","ATDFDAFDDFTAADTFDATAFDTTFAADFTDDDFTAAATTATAFTTAATTTAATDAFADFDDADD",210,1
"Mary","Dedrick","1125 Cedar St","","Carrollton","GA","30117-2552","FFATDADDAAAFFFFFTDFDAFDFTFTDTTAFDFTADAAFDFDFTTFFAADAAFATTFTADADFA",211,1
"Cynthia","King","717 Burns Rd","","Carrollton","GA","30117-2589","DDFTTDDDFFAADFTTDDDDTFTTDDFFDAAAFTADFDFAFTADFATTDAFDFFDAAFTFFFDDT",212,1
"Antonio","Vaughn","717 Burns Rd","","Carrollton","GA","30117-2589","FDTDDATADFFDAFAFFFFTAADDADDTATDADFFAATFTDTFAADDAFATADFTFTTDFAFAFA",213,1
"Sheila","Taylor","717 Burns Rd","","Carrollton","GA","30117-2589","FADAFTATTATDFDFFATDAFTADFADFADFTAFDFTTTDTFFTADAFATDAATTTDDFDATTTF",214,1
"Anita","Moore","717 Burns Rd","","Carrollton","GA","30117-2589","DAAFAFFFAADATDDTTAFFDDFTTAFTDFTTATTTDTTFAFTFFAFTTTADTTDDFAADFTFAD",215,1
"Sheila","Johnson","717 Burns Rd","","Carrollton","GA","30117-2589","ATTDAFAAFTDTTAFTFAAATDFFATAAAFTDDADTAATTTATADFFTFDTTDTFFDTTTTDAFD",216,1
"Joseph","Nutter","717 Burns Rd","","Carrollton","GA","30117-2589","TTFTFTFDDTTFAADFDATFATFADTTFDDFDFDTFFFTAAAFDTTAFDDFFDTAAFADTDDDDF",217,1
"Dayone","Moore","717 Burns Rd","","Carrollton","GA","30117-2589","TFAFDADFTDFFFTTFTDADFATATFTTDTDFTDAADAFFFDDFTTDFTFAFTFADAFFADAFAA",218,1
"Miranda","White","717 Burns Rd","","Carrollton","GA","30117-2589","AFDATDTTADATTTATAFTTDFDFFFAFAAAFAAFDTFFDDDATDFTTAFDTTFFTTDAATATTT",219,1
"Kelly","Hansen","717 Burns Rd","","Carrollton","GA","30117-2589","FFDFFFTTTAFDTDFAAFFADAFDAFDAAFDAAADATDADDFFAFDFTAATTTATDTTFDAAAAF",220,1
"Elizabeth","Welker","717 Burns Rd","","Carrollton","GA","30117-2589","DFAAATDFAAAAFDDDTDDFFFATDFFDDDAATDTDDTAFFFADAAAATAFFTADTAFADFAFTD",221,1
"Darion","Smith","717 Burns Rd","","Carrollton","GA","30117-2589","DTFDTAFDFFDAAFTDDAFDADDTTTFADTTTFDATFDDAATTFAADFDTAFDDDFFFTFFDDFT",222,1
"Glennette","Roberts","717 Burns Rd","","Carrollton","GA","30117-2589","FTTTDDAADFTDDFAAFTDTTTTDFTDDAAFTDAFFATDTTTFTFDTTFTDTFDTADDDFADTDA",223,1
"Robert","Reed","717 Burns Rd","","Carrollton","GA","30117-2589","TAAADDFFTDTFDTTATTTDDTTADATDDAFDTTAFDADFADFDDTTDTDFDTDATFAFADTFTA",224,1
"Sid","McLendon","717 Burns Rd","","Carrollton","GA","30117-2589","AADFTAATADDTATADAAATFDDFAAAAATTDAFFTTADDTDAATFDFADTAADFDDTAATTTAT",225,1
"Tamarsha","Barnes","717 Burns Rd","","Carrollton","GA","30117-2589","ADTTATTAFTATFAFDFDTAAFAFFDADADAFDFDDAFATDATTTFAAFFDAFAFATTTTTFADD",226,1
"Ernie","Carter","717 Burns Rd","","Carrollton","GA","30117-2589","TDFDFFDDDTFFTADADFAFTAFATDTADFDFFTTAFAAAFAFFDTFDDFADDAAFAADTDFFFF",227,1
"David","Clark","717 Burns Rd","","Carrollton","GA","30117-2589","DTFFDFFDTFDFTDTATAFDDTDTTADADADTATAADTDAADFFFTDTTTADADTFFFFFFDDAA",228,1
"Dallas","Smith","717 Burns Rd","","Carrollton","GA","30117-2589","FTTATTAAAFTTFDADATDTFDTDFAFDATATTFFDTDDTTDATAFTAATDATDDADTAFADATT",229,1
"Deangelo","Lane","717 Burns Rd","","Carrollton","GA","30117-2589","FFDDAATTFAFTAFFDFFFAAFFDADFAADTADFDTADADDAAAAFFFFATAFADDTTTDAATFD",230,1
"Ashley","Dangar","717 Burns Rd","","Carrollton","GA","30117-2589","DFATFDDFDAAFDFDADDDFTAATDDDDDFFAFTTFFTAFFADDFTATDAFDFATTAADDFAFDF",231,1
"Keila","Carter","717 Burns Rd","","Carrollton","GA","30117-2589","ADTAFDTATTADDTFAADTADAAFFFTDAFFFAADFTAATDFDTDDADAFDTTAAATTFTTFATF",232,1
"Bryan","Wood","717 Burns Rd","","Carrollton","GA","30117-2589","TDFFAADDATFAATDDTFAFFFFATFAADDTFTDTTDFAAFFTFTAFFTFAFAAFFAFATDFDAD",233,1
"Kimberly","Cook","717 Burns Rd","","Carrollton","GA","30117-2589","TAATTTFFFDTAFATDDTTDADTADTADDTADFDADFFDFATTDTATADDFFDDFTFATADTFDT",234,1
"Leia","Davis","717 Burns Rd","","Carrollton","GA","30117-2589","AADDDFATDDDDTAAAFAATTTDFATTTAADDFAFAAFDDTTFADDDDFDTTFDADDTDATTTFA",235,1
"Chadrick","Thomasson","717 Burns Rd","","Carrollton","GA","30117-2589","FADTADATFATTTFFTFADATDFDFTFDAFATFADDADTDTAATFFADFTDTDTDTDDTDATTDD",236,1
"Krystal","Chambless","717 Burns Rd","","Carrollton","GA","30117-2589","DAADFAFFDADFFFDFDTFFATATTTDADDDTDDTAFTTFAADFATFFDTAFDTTDFADDFTFFF",237,1
"Jamie","Guay","717 Burns Rd","","Carrollton","GA","30117-2589","DDFADTDDTFAFADTFTFDDFADTDFDDDTFAADAFDDFAFDDDATTFTAFFAFTAAFFFFFDTA",238,1
"Sonya","Shell","717 Burns Rd","","Carrollton","GA","30117-2589","FDTFTFTAAFFTDDATADFTDFTDAFFAAATATAFTTDFTDDTAFFDTAATTTFDFTTAFAFAAT",239,1
"Nancy","Newman","717 Burns Rd","","Carrollton","GA","30117-2589","TFADTFDFFDFADATTDDADTFTATDAADATFFTATFAFFFTTFDADTDFADDFFDAATADAFFT",240,1
"Felton","Denney","717 Burns Rd","","Carrollton","GA","30117-2589","AFDTDTTTDDADAAAFFFTTAATFFDTFATFFFFFFAFFDDTFTTDTFFFDAFFATTTDATATDA",241,1
"Cindy","Stansbery","717 Burns Rd","","Carrollton","GA","30117-2589","ATTFFAAATTDDFTFFATAAFTFFAATTADDDTFDATATTTFDATDFAADTAATAFDTFTTDAAF",242,1
"Contona","Wyatt","717 Burns Rd","","Carrollton","GA","30117-2589","TTFAADFDATTATTDTTATFDDAADAAFDFADATTDDFTAAFADDAATTDFDATFAFFATDDDTD",243,1
"Zanna","Hosein","717 Burns Rd","","Carrollton","GA","30117-2589","TTDDAAADFTDTAADDFAAFADAFTTAAFDTDFDDTFFTTAATATAFFFDAAFTFFDFTTDDTFD",244,1
"Tammy","Reese","717 Burns Rd","","Carrollton","GA","30117-2589","ATATFDFADTTFDAFADTTATTFAFTTDTFFDDATFAFTATADDDDATDDDDDTAAFTDTTDFDF",245,1
"Elizabeth","Bernal","717 Burns Rd","","Carrollton","GA","30117-2589","AFFFDFDTTDFFTTAATFATDATAAFTATADFTAAATFFFDDFFDDDDTFTDAFADADFATADAA",246,1
"Ashley","Nalley","717 Burns Rd","","Carrollton","GA","30117-2589","TFTATTTFADATFTTDADTDFFDFDFAFFTAFTDFDDAFDFDTTTATAAFFATFFTTAAADAATT",247,1
"Scotty","Folds","717 Burns Rd","","Carrollton","GA","30117-2589","FDATTTDAFFAAFFADDFDTAFTTFDFDTTAADFADATFADTTDAFTADADFDFDAADTFAFFDT",248,1
"William","Holman","717 Burns Rd","","Carrollton","GA","30117-2589","DDDDDFTDDFFDTFTAFDFDTADDTDDAFADAFTFAFDFTFTFAFTDDFAATDFTFTFDFFFTFA",249,1
"Debbie","Weaver","717 Burns Rd","","Carrollton","GA","30117-2589","DATAFDAFTATDDDDAAADFDTADDADDFFFTTTDFDTTDAFDTFTADATFTTTTTDAFDFTATF",250,1
"Robert","Vaughn","717 Burns Rd","","Carrollton","GA","30117-2589","FAFFAAFTAADAADFDTTFAFDFTAAFATDTTAFTTTDTFTFTFAFFFTTTFATDDFDADATDAD",251,1
"Jason","White","717 Burns Rd","","Carrollton","GA","30117-2589","AAFADTFTTDTFATAFTTTTFTDAFATFTTFDAFAFTADFTDFDTDTFTDDFADATFDFATTDTA",252,1
"Stephanie","Williams","717 Burns Rd","","Carrollton","GA","30117-2589","TATFTFAFADDTDTTTAAADDDTFTAATFATDATFTDADDADTADADTADATTDFDDAAADTAAT",253,1
"Gary","Potter","717 Burns Rd","","Carrollton","GA","30117-2589","TDDTADTDFTATTADTFDTFTFFFDDADFFAFFTDDFFATFAATDAADFFFTFAFATFTTDFTDD",254,1
"Harry","Richardson","717 Burns Rd","","Carrollton","GA","30117-2589","ADADFADADTFFFAFFDFAAAAFAADTTTDDFDFTAAAAADADFTDFADFTFDAAFATDTTFFFF",255,1
"Matthew","Brooks","717 Burns Rd","","Carrollton","GA","30117-2589","DFDFFATDTAFDADDFADFFFAADTFDTFDDATDDADTADFFDAATFFAAAAAATDTFFDFAAAF",256,1
"Tracey","Brown","717 Burns Rd","","Carrollton","GA","30117-2589","FFAAADDAAAAADDFTTFDADFFTFFFFTFAAAATDTDAFDFTDFFADTADDTADTATADAADTD",257,1
"Sandra","Porter","717 Burns Rd","","Carrollton","GA","30117-2589","FTFDTFFTFFDATFATDTFTTDTTATFTTATTDAATATDATTAFFFDDDTTDDDDFFDTFADFFT",258,1
"Marcus","Hardy","717 Burns Rd","","Carrollton","GA","30117-2589","DTTTDTAFDFTDFFTFFADDATDDDTDFFTFTFDFFFDDTATDTATTAFTFADDTADFDFFDTDA",259,1
"Terri","Richardson","717 Burns Rd","","Carrollton","GA","30117-2589","TTFTDTFDDDTFAATFDTTDATTADTTDDTFDDDAFFFDAATDDTTTADDFFFDAAFFDADDFDA",260,1
"Akila","Shackleford","717 Burns Rd","","Carrollton","GA","30117-2589","ATTDTFAAFDDTDAATFAATTDDFATAAAATDFAFTAADTTTAADFDTFDTTFDFFDTTATDTFT",261,1
"Okaris","Gomez","717 Burns Rd","","Carrollton","GA","30117-2589","AFDAADTTATATTTFTADTADFAFFFADAFAFTADDTFADDFTTDFADAFDTAAFTTTATTAATD",262,1
"Berice","Elder","717 Burns Rd","","Carrollton","GA","30117-2589","TFAFFADFTTFFFTDFTFAFFAFATFTADDDFADTADAAFFFDFTTFFTFAFAAADAAFTDADAF",263,1
"Tammy","Cloud","717 Burns Rd","","Carrollton","GA","30117-2589","FDTDFATADAFDFFFFFFFAAAFDADDAADDAFFDAATATDADAADFFFATADATFTDDDAFTFF",264,1
"Jessica","Butler","717 Burns Rd","","Carrollton","GA","30117-2589","DDFTADDDFAAATFDTDDDFTFATDDFDDFAADTTDFDAAFAADFAADDAFDDADAAATDFFFDD",265,1
"Ellen","Crane","717 Burns Rd","","Carrollton","GA","30117-2589","DAAFTFFFAFDADDTTTAFDDDDTTAFADATTTTATDDDFADAFFADDTTADTDDDFAAFFTDAT",266,1
"Malissa","Lowe","717 Burns Rd","","Carrollton","GA","30117-2589","FADADTATTFTDADAFATDTFTTDFADDATFTAFFFTTDDTDDTADTFATDATDTTDDFFATATA",267,1
"Kenneth","Goodwin","717 Burns Rd","","Carrollton","GA","30117-2589","AADFAAATATDTATFDATAAFDAFAAATADTDAFDTTATDTFTATFFFADTAATFDDTATTTAAD",268,1
"Celia","Ruiz","717 Burns Rd","","Carrollton","GA","30117-2589","TAAAFDFFTTTFDTDATATFDTFADATFDFFDTTTFDFTFAFDDDTADTDFDATATFAFTDTDTF",269,1
"April","Simmons","717 Burns Rd","","Carrollton","GA","30117-2589","TDFDDFDDDDFFTATADDADTATATDTTDADFFTAAFAFAFTFFDTDTDFADFFAFAADADFFFA",270,1
"Carlos","Ackles","717 Burns Rd","","Carrollton","GA","30117-2589","ADTTTTTAFDATFAADFFTTAFDFFDAFATAFDFFDAFFTDTTTTFTAFFDAFFFATDTATFTDT",271,1
"Alfonso","Lovelace","717 Burns Rd","","Carrollton","GA","30117-2589","DFAATTDFAFAAFDTDTFDDFFDTDFFFDTAATDADDTFFFDADAATFTAFFAFDTAAAFFADTT",272,1
"Martha","Lacy","717 Burns Rd","","Carrollton","GA","30117-2589","FFDFDFTTTFFDTDAAADFTDATDAFDTAADAAAFATDFDDDDAFDDTAATTAFTDTTFFAAAAA",273,1
"Donna","Collins","107 Chappell Rd","","Carrollton","GA","30117-2601","ADADTADAATADAFTFFDDDAADDFFFTDTDFDDFFTDAADDTFTDTFDFTFDFFATTTDAFADA",274,1
"Shandra","Woods","140 Chappell Rd","","Carrollton","GA","30117-2602","DTTFAAADAATTAADFDATDFDTTDAFDFDFTTDAAADTTTTAFTADAFTTAADAAFADDDDFFT",275,1
"Jobeth","Black","915 Lovvorn Rd","","Carrollton","GA","30117-2610","FTFATFAAATDDTFFTTAFTTTTADAAADFADTTADTDDTAFADDDDDFDTTDTAAFDFTADDFA",276,1
"Cierra","Belton","915 Lovvorn Rd","","Carrollton","GA","30117-2610","DTTFDTFDTTTAFFDFATDDADDFAATDADDDAFFADTDATFDATATADDFFFTFFDFATFDTDT",277,1
"Whitney","Miller","915 Lovvorn Rd","","Carrollton","GA","30117-2610","DFDTFADFDDFAADTFFFFFFFAFFDTAATFFDFDFFDAFDTFTTAFATFAFAFFTTFTAFATAD",278,1
"Duanne","Jones","915 Lovvorn Rd","","Carrollton","GA","30117-2610","FFADADTTFDADDDATDDDADAFATDADDATFFTTTATADFTTFDDADAFDTTFADADDAAADTF",279,1
"Sandra","Hinson","915 Lovvorn Rd","","Carrollton","GA","30117-2610","TDTFADDDAFAFDATTADTFTAFDAFFDAATAAADTDAAADDTAFTADDAFDFFTFTAFFDFTDF",280,1
"Sara","James","917 Lovvorn Rd","","Carrollton","GA","30117-2610","DFDDTFDTTAFADADTFDDDTAFFADFAFATADTDFAAAFDFATFFDDDAFDFFTDTDDDTATFF",281,1
"Jose","Chavarria","1085 Lovvorn Rd","","Carrollton","GA","30117-2629","ATFTFAFDFFDDFTDDATTDFTFADTFTTTADFDFTAFDAATDFTDFFTTFFATFADFFFFDDAA",282,1
"Buena","Martinez","1085 Lovvorn Rd","","Carrollton","GA","30117-2629","TTTDADAADFTATTFATAATDDAFATDFFADDDAAFFFDTTTTTDAATATTTTTAFFTAFADATT",283,1
"Tiffany","Tennant","912 Lovvorn Rd","","Carrollton","GA","30117-2635","TFFAATTTDTFDAADFTDFDAFDDDFADATDFDFTFAAFDFDDAADDFTAAFAATDATTFTAADF",284,1
"Kirsten","Pitcock","912 Lovvorn Rd","","Carrollton","GA","30117-2635","AFTFFFDFFTAADAFTAFDTTATTAFTADAAFFTDTFFFFDDTDFATDAADTAADTTADFDADFD",285,1
"Morgan","Foster","912 Lovvorn Rd","","Carrollton","GA","30117-2635","ATDTDDFDADDATTATFTFADTFTFTTDDFTDTTFDDATATAAFFAFTFTTTFDDFDAFDDDFTT",286,1
"Deborah","Smith","912 Lovvorn Rd","","Carrollton","GA","30117-2635","TTADTAAATDTDFTTFDADFFDADTTAAADFDAFAATFTTAADTADAADTFFFDTAFDADTDTAA",287,1
"Sparkle","King","227 Brumbelow Rd","","Carrollton","GA","30117-2746","ADATFTTATDAFFFDDFFTAAFDDFFDFATTFAFFTTTAAFTAAATFFDAFADFFATTTTTFDTF",288,1
"Pauline","Satterwhite","101 Avenue A","","Carrollton","GA","30117-2801","FTTFAAADTFDDATDFFAAAADFTFTTDDDDDADADDADATDDDAAAFDDTFTDAFFDDTADTDF",289,1
"Barbara","Woodard","119 Avenue C","","Carrollton","GA","30117-2807","FTADFDFFTATFDTDTDATFTTFFFTTDAFDTFTTFTFTAAFFADFATTDADTTFADDAFFDDDA",290,1
"June","Selby","312 Broad St","","Carrollton","GA","30117-2812","DATAAFFTDFTTTTDTATTATDAATTAATATDFTDADFDFTTDFDAFTDTTTATTDDATTTTAFD",291,1
"Charles","Burson","423 Broad St","","Carrollton","GA","30117-2813","TDAATTTDTAATFTADTFTTAAADTDTAFDDFTDTFDAFADDTTADFAFFAFDAFAAFFFFFFTA",292,1
"Desiree","Howell","408 Broad St","","Carrollton","GA","30117-2814","ATTTTDFTAATDDDATAAFTDDATATADTFDTAATATTTAAFFDFAATDTFTDDTFFFADDDTAT",293,1
"Gregory","Johnson","416 Broad St","","Carrollton","GA","30117-2814","AADFAAFDFDDTFADFFAFAFTDAATDFDTDDDDATTADFTAFFATFADTTAADFTFDAFDTTAD",294,1
"P","Jones","230 First St","","Carrollton","GA","30117-2816","TFDAFADAFTFTAFTFADTFAAATTDFFFTAAADDFDFADDDFFADTFDAAAFFDDTTFTAATFD",295,1
"Latasha","Harrison","210 Foster St","","Carrollton","GA","30117-2820","TAFTATATDTDFFTFFTTDFATADDTTDFTTTFDFFTTTDTDTTAATADDAFTDFDFFTFTTFDD",296,1
"Luis","Oxlaj","222 Foster St","","Carrollton","GA","30117-2820","TFTATFDTAAATDFTAAFATDADATDATTFTADTTDDTFFDAAFFATTAFDTTATTTFTATATDF",297,1
"Juan","Rosales","302 Foster St","","Carrollton","GA","30117-2822","DDDFDDDDATFDTDTTFFDATFATFDTTDFDATTDDDAFTDFTFFTATFFFTAFAFTDTAAFAFT",298,1
"Efrain","Martinez","328 Foster St","","Carrollton","GA","30117-2822","ATATFFATTFTADTFADTFTTTTDATTFAFTTATAATTDATDFTFDTTDTDDDDFAFATAADFFT",299,1
"Myra","Moreland","124 Jersey St","","Carrollton","GA","30117-2824","FFDAFADTATAFAAADDFTFFAFDFDTDTTTFTDFDAAADFDTFADFADATAAFDDTAAAFAAAF",300,1
"Brian","Fisher","361 Lovvorn Rd","","Carrollton","GA","30117-2825","ATTDADATTTDTTADTFTDADTTFTTATDFTDDTTDAFDAADTFDFDDTDFTFDAFFDTFADAFD",301,1
"Jacques","Slayton","361 Lovvorn Rd","","Carrollton","GA","30117-2825","AFDATFTADDATDTTTAFFTTAFFDFAFDAAFATATTAAFFATDDFADDFATTAATATADAATTT",302,1
"Valeria","King","361 Lovvorn Rd","","Carrollton","GA","30117-2825","TFAFDTDDFDFFATAFTDDDAFAAAFTTATDFTFFFDFADDAFATTFFFFDFTAFDTFFDFAFAA",303,1
"Wanda","Moon","361 Lovvorn Rd","","Carrollton","GA","30117-2825","FDTDDTTTAFFDAFTFFDTTFFADTDDTDTDADDAFADAAFFFFADFFTAFAFADFATDTTFAFA",304,1
"Joanyliz","Berrios","361 Lovvorn Rd","","Carrollton","GA","30117-2825","DDFTTFDFTFAADFATDFADDAFTFDFFAAAAFAFTFTATDFTTFAATAATDDATATATTDFFDT",305,1
"Maria","Hull","361 Lovvorn Rd","","Carrollton","GA","30117-2825","DAAFADFDDADATDFTTTTFTTTTAAFTAFTTAADDDTDDTTTAFADDFTDDADTDDFAADTFAD",306,1
"Rodney","Ridley","502 Lovvorn Rd","","Carrollton","GA","30117-2830","FDDAADTFFTFDDFDTAFAADFADFFATTATFAAFDFDFTFTFDFADDTAADDFDATAATAFTTF",307,1
"Albert","Kight","606 Lovvorn Rd","","Carrollton","GA","30117-2832","TTTDAFAATATDTDDAATAADDFDTAFTDFADTTTFDFDAAFFDDDDTADDTDTFFDTADDDATF",308,1
"Nora","Lindsey","116 Pike St","","Carrollton","GA","30117-2838","DTFTTAAADDDTFTFDDTDTFDFTDTDFTDDTADDFDTDAADTFTAAATDFFFDFADFTTTDTAD",309,1
"Victoria","Farmer","115 Pine St","","Carrollton","GA","30117-2839","FFATFFDDAAATTATTFDDDDFDDTDTTAFTADTTDTDFFDTAAFAFTDFFDFAFTATADFAADD",310,1
"Terri","Dejohn","159 Cunningham Dr","","Carrollton","GA","30117-2843","AADTTDFFDTTADTDTAAFFTTTFFAFTAADTATATDFTDAAFADDFDTDTDDDDTFTAADTDFF",311,1
"David","Dejohn","159A Cunningham Dr","","Carrollton","GA","30117-2843","DTFATDAATATTDFFTDAAADTTTDTATDADDFAFTADTATFFFFTFTFTATADFADATFADTAF",312,1
"Sergio","Martinez","160 Cunningham Dr","","Carrollton","GA","30117-2844","FDTDDTDTATATADADAFFDAADDFFTDFTDADDTDAAFADTTAAFTATFAFFATFADAFFFFAA",313,1
"Heather","Moxley","611 South St","","Carrollton","GA","30117-2851","TTADTTAAFFDDFAAFTTDTFTATFAFDTTTDFFDDDADTADDFAFFAADAADDDADDDTFDFFT",314,1
"Bernard","Phillips","613 South St","","Carrollton","GA","30117-2851","AFTDDDDDDTAATAAAFDAFTAFDDDADAAAFTAAFTDAFFTAAFFATDFADAFADADTTAATDT",315,1
"Heather","Cox","627 South St","","Carrollton","GA","30117-2851","DTDDFAAFFATAFAADAADFFDDDAADFADFTAFTADFDTADTTAFAAFDTFTTFFFTATTDDDA",316,1
"Kyle","Keithley","763 South St","","Carrollton","GA","30117-2854","FTDAFTAADADAAFDDAAAAATDDDAFTFTADADTAFDDATTFTTFTAADFFDTDADTFFADFDA",317,1
"Ben","Amatucci","765 South St","","Carrollton","GA","30117-2854","DFDAATTDFAFFFDDDFFFFFFTFADAFFDDAAFATDFAFDFATTDAFFADFTAFTTTFTFADFF",318,1
"Victoria","Martin","333 Foster St","","Carrollton","GA","30117-2861","ATAFFFAAAFTDDFAAFTADDDFAFATFTATDFTFDTDDTTATFFAATATTTFTDADFFATDTAT",319,1
"Heather","Hunt","333 Foster St","","Carrollton","GA","30117-2861","DATDFFFFFDTFDTTATTFTTDFDDTDFFATTAAADFADFAFAADFADDDADATFTFTDFFTDFT",320,1
"Sarah","Littlejohn","333 Foster St","","Carrollton","GA","30117-2861","FAFTATATDDDTATADAADDATATATFTTTFTTDFAAFDDTFDDTTFAFDDAATADDATFATADA",321,1
"Sarah","Becker","333 Foster St","","Carrollton","GA","30117-2861","FDAFTATATTATFAFDFDFFFADTFFFFTDDAFDDFTAATDTFFTTTAAFTAFFAATFADAFTAF",322,1
"Christopher","Rivera","333 Foster St","","Carrollton","GA","30117-2861","DDDADDDDATFFTADADFDADFTDTFDTFFAAFATTDAAAFTTTDFDTTFFDDFFFADFDFFFTD",323,1
"Lauren","Clark","333 Foster St","","Carrollton","GA","30117-2861","TDTFDADFAAAFFFDFDDAAFFDFDFTFFDTFDFTDDDAAFTAAAFTFTAAFDFDAADFTDFDAD",324,1
"Daphne","Swint","401 Park Ln","","Carrollton","GA","30117-2882","ADTTFTDFFFADADFDTDDAFATAAFDFDTTATDDDTAFTDAAFATAFAADATADATTFAAFFFT",325,1
"Sherrie","Bragg","401A Park Ln","","Carrollton","GA","30117-2882","AADFDAFDAADDFFADDAFTATFAFTDTDDATFDFTAFTDTDTDATDAFTTAFDDDDTDTATFTD",326,1
"Amber","McPherson","406 Park Ln","","Carrollton","GA","30117-2883","DTDFFTFAFTDAADFDDAFFFTFFDTTAADATFFFTAFTTADDTTDDATDTFDTAFFDDFTDDAF",327,1
"Robert","Farmer","414 Park Ln","","Carrollton","GA","30117-2884","DDDFADTTFDFFDDDATDTFDFAFDFDDFAFFFTDFATATFADAFFTTAAADTFFAADFTAFFFF",328,1
"Colleen","Macdonald","404 Park Ln","","Carrollton","GA","30117-2885","DFDFDFDFTDAADTTTAFADDAATTDTDDATAAAFFTAFDDDFTFTFDAFATFFDDTTAAAATAF",329,1
"Donna","Maxwell","409 Park Ln","","Carrollton","GA","30117-2886","FFTTFDDAFAAFDFDTTDTFDADTDDDDAFFAFADATAFDFTTADAATAAADTFDTATDATAFFT",330,1
"Shirley","Payton","413 Park Ln","","Carrollton","GA","30117-2887","DTDDAAFDAADAAATFDTTAADTFFTFATDTDADDFDATTTTDTTDDAATDAFDFFDTADDDADF",331,1
"Bernard","Moore","301 Lovvorn Rd","","Carrollton","GA","30117-2891","DTTFTTAAFADFAFADTTTDADATDATDFDDTDDFFAFDTAAAATAAFDDDFDDDFDTTADDFTA",332,1
"Isaiah","Amos","740 Lovvorn Rd","","Carrollton","GA","30117-2893","FTDTFDATFADTDFDTDAFTTTDAAAFDDFATATFDFTDATAADFDADATATDDDADAADDDFDA",333,1
"Antonio","Wilson","740 Lovvorn Rd","","Carrollton","GA","30117-2893","FFTFDFTAAFATTDTTTDDADAAAFDFADATADTDTDDAFDDTFFDDDFAFTTADDTATFDAFAF",334,1
"Elizabeth","Bounds","740 Lovvorn Rd","","Carrollton","GA","30117-2893","DFFATTDDTFFFFDAFAFFFFFFFTDDDATFAFFTFTTADFDFTAATADATFAATTATDFTAATD",335,1
"Lasherica","Evans","740 Lovvorn Rd","","Carrollton","GA","30117-2893","ADDTTTTTDDFDFATFDFAAAFFTAFTDDTFFADDFFAAADTDDTFTFAFAAFAAATFFAFFDDD",336,1
"Tommy","Moon","128 Mount Zion Blvd","","Carrollton","GA","30117-2901","FADTDFATADTTDTAATTDDTDFAFTAADFTTAADFADTDADTFFAATFDDDADTTDTATDTFDA",337,1
"Perry","Walker","560 Spring St","","Carrollton","GA","30117-2903","FDFAFFDFAAFDDFFTTFADTATDADTFAFFADTTAFTAAFTTTDATTAAATFFAAADDDTFFTF",338,1
"Marquita","Body","804 Alabama St","","Carrollton","GA","30117-2912","TFDTFFDFDDADDTDTDDDATFFDFDADAFTAFTTATTFFDAAFFDDDFATTTFTTAFTADADDD",339,1
"Bill","Adams","106 N Alma St","","Carrollton","GA","30117-2916","DFTTTFTFAAADTDDATDATDFADDFDDDADADTDDAAADFTFFFTFDDFDTFFDTAFFTFADDD",340,1
"Mary","Allen","109 S Alma St","","Carrollton","GA","30117-2917","DTDAAAAAAATDFFTFDATFFTDFATDDDTADTFAAADDATTFDAFFATDDFFTDADTATTDDDA",341,1
"Patricia","Griggs","206 S Alma St","","Carrollton","GA","30117-2920","DFTDDDDFTAADTFFTADFFTADTFDFTFAAFTTTADTAFDAFDDFADAATTTFFTADDTFADFT",342,1
"Ralph","Johnson","553 Alabama Cir","","Carrollton","GA","30117-2921","TFADTTDTFFAAAFAFDFDFAFDDADTTFTFFDFTDTDADDFTTTFDAAFAFTFTTAFTTTAAAD",343,1
"Darrell","Ackey","510 N Aycock St","","Carrollton","GA","30117-2928","DADDDFFFATDATATTTAFDDTDAFTFDDFADATFTDFTDADTADFTDTTADDDDTDTTFATFDD",344,1
"German","Riofrio","601 N Aycock St","","Carrollton","GA","30117-2929","TTATFTFTDFDAADFDTAFDATTDDTTDFTDTFDDAAFTTTFATAFFADDTFTDDAFFTFADTTD",345,1
"Grady","Satterwhite","614 N Aycock St","","Carrollton","GA","30117-2930","FDFTDFDFTFFFDFDADFDFDAFADFAADFFFTTFFTAFTDADTDDTTTAFDAFDFTFAFDFTAD",346,1
"Gloria","Crowder","618 N Aycock St","","Carrollton","GA","30117-2930","AFDFAFTAADFTTADTFDTFTAFDDFTFAFFFTTAATDFFDAAFFATDFADTFFFTATAFAADDT",347,1
"Ryvonne","Brown","815 N Aycock St","","Carrollton","GA","30117-2933","DDATDFTDAFATTDATAFAADATTDDADFFFAATATAAFAFAFDFFFDFFTTDADFADFFAFDAT",348,1
"Shane","Warren","112 Hay St","","Carrollton","GA","30117-2942","TTATADFTDDTDTAAATTTFTTTAATADTAFDATTTAFDATTFDDTFTTTFTFDTFDDTFFDDDD",349,1
"Leanne","Nicholson","120 Hay St","","Carrollton","GA","30117-2942","AADFAFAAFTTFDFDAFATTDDTFAADFFADTAAFDTTTDTDDTFTFTFTFDTDDDFDDDTTAAT",350,1
"Camilla","Echols","220 Willie North St","","Carrollton","GA","30117-2948","TFFFTDDAFTATDAATFDFFTAFDTFTATATATATFDTFFFTFTFFATFADDDFTDTFTTDAFDA",351,1
"Donald","Holland","113 Molette St","","Carrollton","GA","30117-2953","TFTAAATDDFFDFFFDTDTDFFTTTDADADTFAFDAFTFDFAADTDDADATAFFATAAADTAFAF",352,1
"M","Almon","149 Molette St","","Carrollton","GA","30117-2953","DDTDDDTDFTFDTFTATFADTAAADDTAFATATAFDDDFADAFFDDFTFFTTDFTATFTFDFTFD",353,1
"Justin","McCord","155 Watson St","","Carrollton","GA","30117-2963","AAFDDFAADDDADFTTATTTDTTDATAFTATDFTTAFFDFTTTADAFDATDDTTFDDFTAFTDTD",354,1
"Jessica","Barnes","136 Watson St","","Carrollton","GA","30117-2964","FTAFATFFFTTFATAFDADAADAFDTFDDDTTDFTDDADAAFFTADTAFTFFFDDADFAFFDDTA",355,1
"Peggy","Pitts","710 Alabama St","","Carrollton","GA","30117-2971","AAFAATFTAATDAADDFTTAFDATTAAADTFTDDADTTDFADTFTATAADDFATFTDFDFFTFFD",356,1
"Mary","Pate","620 Alabama St","","Carrollton","GA","30117-2975","DFFDTTTAFAFFFTDFFDTAAFTATDAFDDAADFFADDADFATTAFAFFATFTFFDADTATAFDT",357,1
"Bobby","Harris","415 N Cliff St","","Carrollton","GA","30117-3003","AFTTDTDDAAATAADDADTFAFFDFDTAATAATFATFAFFDDTFTFAFAATAAATDTDAADADFF",358,1
"Calvin","Lampkin","301 N Cliff St","","Carrollton","GA","30117-3008","DFFDADDFTDFFTFAADFDADAAFAFDFTAFFDTDFDFADFTFTDFDDFAFDAADTATFTFATFD",359,1
"Serprenia","Shell","305 N Cliff St","","Carrollton","GA","30117-3008","ATDDAFAAFFTDDADAFADADTFAAATDAATTAAAAAATATADDDTTDTTFTDTDFDADDTDFDF",360,1
"Loretta","Hunt","405 N Cliff St","","Carrollton","GA","30117-3010","TTDAADAFAADFDDAATATDTTAADTFATFDDFAFDATDTATAAFFADFTDDTTAAFAFFDDTTF",361,1
"Susan","Weegar","402 N Cliff St","","Carrollton","GA","30117-3011","TTTDDTAFDATFAATFTTFFADDADTFDDTTDTFDADADATFATTATATDAFDDTAFFFDDDAAD",362,1
"Elijah","Holley","406 N Cliff St","","Carrollton","GA","30117-3011","FATADFATFTDATAAADAAATDTAFTDFDFADTTDTFADFADTTFTTDTDFDFDATFDATDTTAF",363,1
"Charlsie","Ackey","5 Henry St","","Carrollton","GA","30117-3012","FFFTDTDFTFADFTTFAFTTFFTDFDADTDTFFFFDFFADDFAATADAAATFAADTATTTAATDF",364,1
"Tracey","Ditto","105 Barnes Ave","","Carrollton","GA","30117-3101","AFDFFFDADTATTATAFDAADFADADTADFFAFTDTADADDDFDDFTDFFFTTFDTATADTAFDA",365,1
"Anna","Johnson","209 N White St","","Carrollton","GA","30117-3104","AFDADDDTADAFTDDATDADTFAATDTTTAFFTTTAFDFFDATADAFDTFATAFTTAATAAAFAT",366,1
"Lindsey","Winesburg","235 Johnson Ave","","Carrollton","GA","30117-3120","TFFFFFDAADFDTATAADDDDFFFFFFFFFAFTAFFDAADFTFADFTDFADDAFTDTTDADAAAF",367,1
"Amanda","Holloway","322 College St","","Carrollton","GA","30117-3128","DTTFAFFTFDTFDTFTDTDTTTFAFTTTAFADTTTFFFTAADFTDFTTTDTTTTDAFTDDADATA",368,1
"Joe","Britt","214 W Ward St","","Carrollton","GA","30117-3133","ATDTTTFFTFTDFDFDFAATATFDATTDTTDDADTADDDTTFFFTTAAFTFFTTDFFAAFFDDDD",369,1
"Michael","Harris","123 E Reese St","","Carrollton","GA","30117-3144","DFFAFDDFFFFTTFDTAFDDDFATTDAFFATAFADAFAADDAADDDADAFATFFATAATTAATDD",370,1
"Angelica","Lethbridge","126 E Reese St","","Carrollton","GA","30117-3145","AFTTTADADFADFDADAFTFAFFADDADATAFTFFTADFDDDFDATFFDADFTFTDADFADADAT",371,1
"Tonya","Estes","105 N White St","","Carrollton","GA","30117-3152","TFTDTTDTADADATADFFFAFAAFDFATFDTAAFAAFDFDDDTTAAAADFDAFATDADTFDATDT",372,1
"Ann","Parham","201 N White St","","Carrollton","GA","30117-3154","TDADTTDFTTFDAATFFDTAAFFFTDFADTTFDDTAATATFFTTTADAAFDATFDFTFTTFFATF",373,1
"Judy","Hinman","402 Adamson Sq","","Carrollton","GA","30117-3214","AAADDFFFFATTTDDTATFDDTTDTAAFFAFDFTTFAADFTTTFFTTDFTADDTATFDTDTTDFT",374,1
"Jennifer","Jarrett","323 Maple St","","Carrollton","GA","30117-3234","DTDTFFAFDFDTTDDTDAFTDFTDFTAATADTFATDTDTAADAADAFTFTTDTTDAAAFTADAFF",375,1
"Marlene","Uglum","338 Maple St","","Carrollton","GA","30117-3235","AFFDDTTAFFFAAADDTFTTFTTFDDDTADFFAFAFFFFDDADATDDFDFTAAAFTDTDAFAFAF",376,1
"Eric","Nolen","301 Bradley St","","Carrollton","GA","30117-3238","AFATFFTFFTAFDTAAADTATDDTTFTTAATFTTADAAADDFDFFFATAFTTDFTDFFDFTAFAD",377,1
"Lissa","Denney","301 Bradley St","","Carrollton","GA","30117-3238","ATFFDDADADDFTAFAFAATDFATDTTFAFADFTTTTFDTTTFDFFDDFDDTTTTAAFFDTDDDT",378,1
"Stephanie","Norton","301 Bradley St","","Carrollton","GA","30117-3238","TTTATAFATDTTFADDDTTDFAFDATATDDDDDFDFDADAATTAATTFDDAFTTDFTTADDDAFA",379,1
"Erin","McGinnis","301 Bradley St","","Carrollton","GA","30117-3238","DTTFFTFAAADDFFTFDTFFFFDFFTDDDTATDFFTDTTAAAFTTAFADTFFTDAATTFAFDADD",380,1
"Cory","Wheeler","301 Bradley St","","Carrollton","GA","30117-3238","FTFAAFADTATATFATFADADATATTFAAADTFTAFTTTTTAAFDDADFTTTADFFAFAAADDFF",381,1
"Alisha","Hall","301 Bradley St","","Carrollton","GA","30117-3238","FFADTDTFDFFADDFTADFTTTFADFFDAFFAATTAATFDDDTDDDDTAADTDAFTFATTAAFTA",382,1
"Mitzi","Gragg","207 Adamson Sq","","Carrollton","GA","30117-3260","AAADDFFDFTTDTAFTTADTTADTFTFDAATDFAATTTDDATFFFFATDTATDTTTTTDAATFTA",383,1
"Shelly","Arrowood","109 E Center St","","Carrollton","GA","30117-3302","AAATAAATTATFAFFFDTTTAFDAFADDATDDTFFTTFDFTDDTTAAFATAFFTFDADDTATTAT",384,1
"Gloria","Vandiver","201 Dixie St","","Carrollton","GA","30117-3308","TTTATTFDDFTTAAADFTDTAADFFTTFTDADDFATAADTTFATTDTAADAAATFFAFDTFDTFT",385,1
"Janice","Ivester","205 Dixie St","","Carrollton","GA","30117-3308","TTFDADATAFDFDDAADAATTFDADADDAADDDTFDAFTATFFDFATDTTDDATDFTTTFDDDTT",386,1
"Susan","Berry","215 Dixie St","","Carrollton","GA","30117-3308","DDATATTTTTAAATDFDDFDFDTATDAAFTAADFFAADAADDADTAFADAAFFADFDAFDAFFAF",387,1
"Bob","Lovvorn","219 Dixie St","","Carrollton","GA","30117-3308","TTDFATFFDADTATDFFTAAFAFFATTTTDDDFFTTDDDTADFTAFFAATTAFTAFAATTDDADF",388,1
"Kenneth","Adams","224 Dixie St","","Carrollton","GA","30117-3309","ADTFTDTDADAFTDFADFADTDAADFAATFAAATFAAAAADFTDFFFDAFDDFAAFFTFDAFDFD",389,1
"Carolyn","Aycock","309 Dixie St","","Carrollton","GA","30117-3310","TDADDTTTDTAAADADDFTFADTAFFDFADFAFFFAFAAAFADDTDAATADAFFTAFDAAFFDDD",390,1
"D","Adams","302 Dixie St","","Carrollton","GA","30117-3311","DDTTDFTDADFFTTFTTFDDTTFTFFAFAAFFTTDADAAAFFADDDATAAFDTADFFTTDTFAAA",391,1
"Paula","Hovey","312 Dixie St","","Carrollton","GA","30117-3311","FATAATAADDDAADFDDTDDFFFTFTATADADDDDADADFAFFDTTAAATDFADTDAFAADTTDF",392,1
"Kim","Thomas","201 Hill Dr","","Carrollton","GA","30117-3312","TFAADADTFFATATDFAFDAFTTDAFAFDTAADDDTFAAFFATAATTFDAFFTFDTFDADTAATT",393,1
"Sue","Staples","209 Hill Dr","","Carrollton","GA","30117-3312","FFDAATTFAAAFFDDDDDAAFTTAAFFAATDADDTAADADDTFDTFFFAFAATATTDDFFAADDT",394,1
"Brenda","Thomas","108 Tillman Dr","","Carrollton","GA","30117-3323","DDAFFTDTDAFDFTDDDDTDFTAAFDDFTDFFTDTAATAADAFTAFAFTFAFFFFAFAAATFTDA",395,1
"Frankie","Roddenberry","109B West Ave","","Carrollton","GA","30117-3324","TATTTAATAFDAFAAFFAFFAFDAAAFTATATDDADATTDTTTATFFAATAAADDDTTDTATFTA",396,1
"Bobby","Daniel","114 Tillman Dr","","Carrollton","GA","30117-3334","TTDFDTAAFFTAATFDFTTFFFTFFADTFDADDFFTDADATFDFADAFDTDATDFATDTFDDFTD",397,1
"Brian","Hammond","230 West Ave","","Carrollton","GA","30117-3347","FDDAAADDFAFAFAAFADDTFTFAAFAFFDDATFFFTFATFTADAATFTAAATAFFFTDDTFFTD",398,1
"Angeli","Adams","230 West Ave","","Carrollton","GA","30117-3347","DDAFFDTADAADTATTTFFDDDAFDFTTTFAAATATDAAADTDAFDDDAADDTAAADATDDFAAF",399,1
"Diane","Hanvey","230 West Ave","","Carrollton","GA","30117-3347","AFTDFDDFTTAFTDATFFATTDATFDDTFFAFFAFTATADFDFFDTDTDFFTDATTFTATAAFFF",400,1
"Roderick","Baker","115 Adamson Ave","","Carrollton","GA","30117-3401","TFFFATDAAAATAFTDADFTFTTAFDFADTTFTDATDFFDDDAAAADFAFTAAAATDADFDAFDF",401,1
"Leonel","Cruz","119 Adamson Ave","","Carrollton","GA","30117-3401","ADFFDFDFDDFDDFDTFFDDTTATDFADTADAAATTDTFTFAFADTADFFFTDFAADDAFDFDAT",402,1
"Sarah","Banegas","125 Adamson Ave","","Carrollton","GA","30117-3401","DDDTDFTTTFFFTFTTDFDDDDDFDDADAADFDTFDDAFADTTDFDTTTFTDTFFAFFFFDFATA",403,1
"Raymond","Henson","135 Adamson Ave","","Carrollton","GA","30117-3401","DTFDDTFADFDDFFADATDAFFTAATDADDTDAFADFTDTADFAAAFAFDFADTFFTDFFDDFAF",404,1
"James","Brown","143 Adamson Ave","","Carrollton","GA","30117-3401","FFTFFTTTFDAFFDTFDDAAATTFTDDTFTFFAFDFATAFDDAFTDFADFTFAFADFFFDTATFA",405,1
"Betty","Chambers","106 Adamson Ave","","Carrollton","GA","30117-3402","FFDDAFDFDFAATDTTTFTTDDDTFDDTFFFFFATFTDADDDFDDDADFFTDTAATFATTFADTF",406,1
"Reba","Washington","114 Adamson Ave","","Carrollton","GA","30117-3402","AFTFFTDDTAFAFAFFTDTFFTFAADADATFAADTTFTADFTDFATDFFFDFDATTFDATFADFD",407,1
"Marie","Simmons","118 Adamson Ave","","Carrollton","GA","30117-3402","FATDAFFTTATFTAFADTDFTATTFADFFATDFATTDTTDTFDDDATTADFDFDDTADADATFDT",408,1
"Pat","Adams","122 Adamson Ave","","Carrollton","GA","30117-3402","DDTTFDDDDDAFDFTATFFTDTTTTFFAAATFFATTTAFTDTDDFFATFFADDFTAFTFTDFFAA",409,1
"Chris","Duffey","130 Adamson Ave","","Carrollton","GA","30117-3402","DDAADTTFTTATAADDFDAFFTAFFFAFDDTFTDFATAFADFAAATTFTADATAFADFFFAFTDT",410,1
"Patrick","Healey","138 Adamson Ave","","Carrollton","GA","30117-3402","AFDATFDTFDFFDDTADDADDTFADFTFFADAFTTADFFDFDDFFAFDFFTDDADTFTAATAFFT",411,1
"Kneale","Farrell","142 Adamson Ave","","Carrollton","GA","30117-3402","FTTTDTFDAFTAAADDTATFAAFAFATDFDFTTFAFDTTTAFDDTDAFFTAFADFAAFDAADDFF",412,1
"Cathy","Ashworth","205 Adamson Ave","","Carrollton","GA","30117-3403","FDDTTADAFDAAFTAFTDATFTTDFFTADDTAFDTFDTFTFDTFATAFAAFAAFDFDFTTTFTAA",413,1
"Julio","Mendoza Sr","215 Adamson Ave","","Carrollton","GA","30117-3403","DATDDFFAATDATTFADTATDAADAAAFTFTDDTTAATDDTTAFDTFDFTATDTDTTFFTDTTAA",414,1
"Kim","Wigley","204 Adamson Ave","","Carrollton","GA","30117-3404","FAATATADAFTDADDFAAAAAFTDTTFDDDTTTDTTFDDFAAATTADFDDFAFTDDAAATDTTDF",415,1
"Marvin","Marshall","110 Austin Cir","","Carrollton","GA","30117-3407","FFDTTADAFFFFATFDTDAAATFTFDFTFDFAFDFDFTFDFTFFATTFFAFAAADTFAFTAAFTF",416,1
"Mary","Cooley","125 Bennett Cir","","Carrollton","GA","30117-3408","ADTAFTDFAFAFAADDDDAFFTAAFDTDFTFFADTTTTAAFATDTDDFAFFAAFDFFDTTAFDFD",417,1
"Andrelle","Jones","120 Bennett Cir","","Carrollton","GA","30117-3409","TFDTTDDAADFTTDAADDAATDTFAFADDATFTATAATFDDDAFFADTAFATTFTTDDFTTAFTF",418,1
"Ceisha","Dix","122 Bennett Cir","","Carrollton","GA","30117-3409","FAFFTTAADTTFFTAFATTAAFFADAATATADFFDTFADFTFATATFFTDAFDDATADTFTTTFF",419,1
"Vickie","Stanle","130 Bennett Cir","","Carrollton","GA","30117-3409","AAFATTAFTDTFFDADFTDFFFTAFATFADTTDFDDFTDFAAFAATDFDDAFDTDTAFTTDTATA",420,1
"Laura","Lanier","211 Bennett Cir","","Carrollton","GA","30117-3410","TFDTDDDTDFFADDAATDTADTTATDTAFFAFAADTTFFFFDDDDDTDAFFTFFTDDFFDFADAA",421,1
"Larenzo","Boykin","204 Bennett Cir","","Carrollton","GA","30117-3411","AAFFDDADAADATTAAATAATAATAAFDTAATDAFAADTFAFTFDTTDDTADFTADAATFATAFT",422,1
"Skeeter","Nalley","601 Azalea Pl","","Carrollton","GA","30117-3419","TTTTFDFDFFDFTFATATADDFDFFATADADDDAADFADTAAFTDFFDFTATTDDATFAATDTTT",423,1
"Wandris","Evans","301 Azalea Pl","","Carrollton","GA","30117-3420","TTATADFFFDDTTDAAFTTFDAAFTTTFDATDDAFTFATTAAAAFFATTTFTATDATFDTDDTAD",424,1
"Jimmy","Levett","427 West Ave","","Carrollton","GA","30117-3423","FFATAADFFTFTAFDFFFDTFDAFFDFDTTAFTDTFTTFDFFFAAADADAFFDFADDDFATAAAD",425,1
"Tammy","Long","408 West Ave","","Carrollton","GA","30117-3424","DFFDFDTFFDFADTTADDADDDFADFFFFFDAFAFAATAFDTTDDTATTADDFATDFTAFFAAAF",426,1
"Keela","Wilson","201 Bass St","","Carrollton","GA","30117-3432","FTDAAAATFFTDADFFTTFAAFDAFTFADDTDTDDFDTTTTATATDTAATAFTDDAAFTAADFTA",427,1
"Brittany","Ellis","206 Bass St","","Carrollton","GA","30117-3433","ATTADDFFATDDTFDTTTTADAAATTDTTAADFADTTATATFTTFFFDDDATADAFATFATDFFD",428,1
"Sheila","Noles","216 Bass St","","Carrollton","GA","30117-3433","DAFDAFAAAADADFDAAAFTTFFDATAAAATTFAADDTTDTDFFDTATFTDDTDTDTAAAFTTTD",429,1
"Holland","Folds","519 West Ave","","Carrollton","GA","30117-3434","TFFAAFDAADATTTDADFFATDDFFDTDTAAFATDDAFAFFAFAFFFDAAFTDAADFATFAADFD",430,1
"Tunya","Ackey","616 West Ave","","Carrollton","GA","30117-3437","FDFFFDDFADADDAATDFTDDTTDDFAATADFAAFDTFFAFDDDDFATFFDTDFAAFDDADFTAD",431,1
"Elliott","McHan","127 Belva St","","Carrollton","GA","30117-3438","TTDTTTFAATDDADADDTATAAAAFTAFTTFDFDFDTFDTADAAAADFTDAFTDFAADFAFDDDA",432,1
"Mark","Muse","109 Melody Dr","","Carrollton","GA","30117-3440","FDTFAFDDFTFTTAAATFDFDTAAAFATDADFTAFTAFFAFAFTFFTDAFATDADFDAAAAFFAF",433,1
"Dena","Eddleman","129 Melody Dr","","Carrollton","GA","30117-3440","DADTDDFDTADDTDAATTTDTFTTTAFADADTFADDTTTFTADTDTTTFTFTDDADTFDTDTFFT",434,1
"Rebecca","Williamson","110 Melody Dr","","Carrollton","GA","30117-3441","TTDADAFATATDFTADDTADFATDFAFTFTFTDFFFTDTAAFFTTTTFADAADTTAADFDFDFTA",435,1
"S","Rodes","120 Melody Dr","","Carrollton","GA","30117-3441","AAAFAFAFTADFTDATFTAFDADDTAFDFAATTTFFDDDDTDADDTFTDDDDTTDDTAATFTAFA",436,1
"Robert","Rosendale","122 Melody Dr","","Carrollton","GA","30117-3441","DAFAAFAAATDADTATAATADFDDTTFFAAFDATFFDTDDAFFDFAATTTADTTTTTTFFDTTDD",437,1
"Gwendolyn","Busch","124 Melody Dr","","Carrollton","GA","30117-3441","DFDDDTDATAFDFFFDTDDFATDAADDTTDAAFDAFATAFDFFTAADAAFTAFADTFADTDAFTA",438,1
"Kourtney","Richeson","123 S Coleman St","","Carrollton","GA","30117-3444","DADDATFFDDTAFTDDTTTFAFFDFATFTTTTFFDDDTDFAAATAATAFDFAFTTTAATFATDTT",439,1
"Andrew","Owensby","125 S Coleman St","","Carrollton","GA","30117-3444","FTDTAAFATTTFAFAFDAAAAFADDTAFDTADFDFTDDTATFFATFDFADFATTDAAAFTFDDTT",440,1
"Brock","Eady","122 S Coleman St","","Carrollton","GA","30117-3445","ATDTTTFFATDDFAFDTADTAATTATAFDTATADAATTTATDAATFTFFTFFDTTATATDTDDDT",441,1
"Lynnelle","Terry","136 S Coleman St","","Carrollton","GA","30117-3445","TFFFADTDTTAFDFTAFDTATDDATFATTATFTTATTTFDDDDAFFTTDFTDTATTDDFATAFDA",442,1
"Rosalyn","Farmer","115 Mandeville Ave","","Carrollton","GA","30117-3446","DDAFTFTTAFFATAFAADFDTTFFAFTFFAAAFATDAAFADDTFDAATTFDTTFDFFDFFAFAFD",443,1
"Joe","Long","203 Mandeville Ave","","Carrollton","GA","30117-3448","AADTDDFAFTDDTDFTTTTADFDATATTTADDFAAAFATDTDAAFFTDADDDFDDDATTDATFFD",444,1
"Aislinn","Bierley","235 Mandeville Ave","","Carrollton","GA","30117-3448","TATFAFFAATTDDDTATAATTFDAFTFDTATTDTATFDTDTFTTFFDDATFDADDDAFTTATDDF",445,1
"Timothy","Wallace Sr","228 Mandeville Ave","","Carrollton","GA","30117-3449","AADTFAFFDATFFDTFDAAAAADFATTFTDTDADDDDTDFTFDDAATFATTATDFTAAFFATTFF",446,1
"Michael","Church","302 Mandeville Ave","","Carrollton","GA","30117-3451","FFAFDTDDDTAAFDFFADATFTFTFFDFATAADFTDDAADFDFFTDTAAFAADFTTFAFADAAAF",447,1
"Jack","Brooks","219 Bass St","","Carrollton","GA","30117-3454","TTFADAFTFTTTAFADFTFAFAAATAFTTDATAFFDFFTATDTDATAAFTAADTFFAFADTDATA",448,1
"Jennifer","Daniel","209 Newnan Rd","","Carrollton","GA","30117-3457","DFAADFDTFAAATTATAFATTTATDDAAFFTAFTFAAAADDFDFFDDTTAADFFDTDTFTFAADA",449,1
"Travia","Mabry","209 Newnan Rd","","Carrollton","GA","30117-3457","DTFDFDFAAFDADAFTFTTADADTTAADFAATTTDFTFDTTTFDFDADDTFDTTDFTTDAFDAAF",450,1
"Erica","Sumlin","209 Newnan Rd","","Carrollton","GA","30117-3457","FTTTAAADTFTDAADFDAAFFFTDFATATTDTAFTTDADAATTAAAFFFTTATTTAAATAADFTD",451,1
"Crissie","Dunlap","209 Newnan Rd","","Carrollton","GA","30117-3457","ATDDADAFTDDDDFDADTDFDFDFAADDTAFDTATDDDDAATATDAATFDDTATAFAATFTDFAD",452,1
"Patsy","Ellis","209 Newnan Rd","","Carrollton","GA","30117-3457","TTATFAFTADTAAFFDFAFAFATADAFAFTTDADDATTDTTTDFTDFFDDAFATFATTDFDDTTF",453,1
"Delores","Brown","209 Newnan Rd","","Carrollton","GA","30117-3457","TFFFDTDAFTFAFDADADDTATFATDFDFDAFDDFFADADDFDDTDTFTFFFFFFDDDFDDATFA",454,1
"Felisha","Hardy","209 Newnan Rd","","Carrollton","GA","30117-3457","AFTATFTDDTADTDTATFFDTDAFFDDATFDFFAATFTAFFFAADADTAFTTDFATFFADTADDT",455,1
"Tandelyn","Sims","209 Newnan Rd","","Carrollton","GA","30117-3457","DDATTFDTTAAFTAAAFFATDDATDFTAFFDAATFTTAATDAAFFFDTDAADAFTADTTTFFTTT",456,1
"Shawn","Calhoun","209 Newnan Rd","","Carrollton","GA","30117-3457","FDDDDTTFAAFTFATDDDTDFTFDAFADTDAATFAFDFAAFADTATTAFADAAFDFFFDTAFFAA",457,1
"Miranda","Weldon","209 Newnan Rd","","Carrollton","GA","30117-3457","FATAFAADFFTTATDDTAAFAATDFTAATTTTFFTAFFDFADDAATFAATTADTDTAAFAATFDF",458,1
"Nefretiri","Boykin","209 Newnan Rd","","Carrollton","GA","30117-3457","DAFFADFADFDFDTFAATTATFDTTTTDFAFTDTDDAADDTDADFFADTTFDFTTDTTAAFTAFD",459,1
"Cynthia","Coats","209 Newnan Rd","","Carrollton","GA","30117-3457","TAFADFFAFTTADDATATFTTAFADTFTFFTDDTFAATTDTFFFDDDDTDADDDFTTDFDDTADA",460,1
"Lola","Sanders","323 Newnan Rd","","Carrollton","GA","30117-3458","AATFTFADTADTDTATTAFFDATDAAADTFDTTATAAADFAAFAFAFTFTTTTDFTAFDATTFAF",461,1
"Arturo","Nunez","203 Azalea Pl","","Carrollton","GA","30117-3460","FFDDDFTTDAATTFFTTDTTDDTFADFDDAAFFTFAATADFDDADTDTAFATFATDFFTDDAFFT",462,1
"Heidi","Holliday","152 Bennett Cir","","Carrollton","GA","30117-3463","TAAAFAADDDDTFTFFTAADFFTDATDTTTDDAFAAAFDDTTDFTFTATDDFTTFTTFATDTDTT",463,1
"Peggy","Barber","162 Bennett Cir","","Carrollton","GA","30117-3463","FAFTADADFADTTDDADTTTTAFFTAADDFDDTATTDDDDAFDFFTDTTTTDTDDDTFDDFTFDF",464,1
"Omie","Williams","501 Azalea Pl","","Carrollton","GA","30117-3465","DADDDAFFFDDFFTADATFFFAFATATADDADTFDAADTFATDFTTFAATTATDDTAFFAFTAAF",465,1
"Debbie","Adams","505 Azalea Pl","","Carrollton","GA","30117-3465","DFFFTTTTTAATFFFDTDTTFDDDDDDAFTTAFFAFFTADFAAATDFADAFFAADDDTFAFAFFA",466,1
"Minisha","Gray","604 Azalea Pl","","Carrollton","GA","30117-3466","FFAATFTFAFAFTDDAADTTDDTAFDDDFFAFATTDDDADFDTFDTADFFADTATDFFAFTATAA",467,1
"Audrey","Darden","606 Azalea Pl","","Carrollton","GA","30117-3466","DTDTDAFDTDTTATAFDTFFAFDFFTDDTDATTDDTTDDAATDAAATATTTATTFFTDFDADFAF",468,1
"Jolenda","Kates","106 Azalea Pl","","Carrollton","GA","30117-3491","DTTTTFAADDDDTADAAAFDDAFTAAATTATDATATFDDATTFAFAADFTDTATAAAAAADDDDD",469,1
"Tabitha","Lynn","302 Azalea Pl","","Carrollton","GA","30117-3493","ATDADDAADFDATTFTAADFTAAFFTDFTAFTAADAFATAAAATDTTDFDFTATFAATADTDDTA",470,1
"Zane","Glenn","402 Azalea Pl","","Carrollton","GA","30117-3495","ATDADFAADDDTTFATAAATDATDFADDAFFTTTFADFTATAADFFTDFTTTFDTFADFDTDTAT",471,1
"Eric","Joyce","105 Hickory Chase","","Carrollton","GA","30117-3500","AFAFATTDTFFTAFTFTDDAFTADADAAFTTFFDDDFTFFFADTADTAAADAFADTFFFATAFFD",472,1
"James","Griffin","109 Brandywine Trl","","Carrollton","GA","30117-3501","FDDAAADAFFATFTFDFFATATTTTDDFTTAATFAATFAAFADATADFDADADFAFFADATFFTD",473,1
"Hart","Morgan","123 Brandywine Trl","","Carrollton","GA","30117-3501","DDDATTDAFDFFFFTFAFATADFTAFTAATDADDTTTDATDFDTAATATAAFDADADTAFAFATD",474,1
"Jill","Duncan","104 Brandywine Trl","","Carrollton","GA","30117-3502","ADTTAFDDTFFTDTAAFDAADTATDDTATATFAAFATTATFDFADATTDAFTTFAFFAFFFFFAD",475,1
"Susan","Hamrick","106 Brandywine Trl","","Carrollton","GA","30117-3502","TTDAAFFTATDDDADAFATTTFAATTDATFADDTFAAADTTTFTFAFDDDTTFTDFAFTDFDDDD",476,1
"Norman","Carter II","105 Cumberland Dr","","Carrollton","GA","30117-3504","TDATDATDDTFAAFADDDFAFDFDDDAFADTADFFDFAATFTFFADTAFFTAAADFFFAADFTTT",477,1
"George","Hamil Sr","107 Cumberland Dr","","Carrollton","GA","30117-3504","FTFTTTAFTDTFATDDDAFDAFFFTAAFFDDTDDFTDATTTFFDTFFAATTATDFFAFATDDAAA",478,1
"Rachel","Price","6 Forrest Dr","","Carrollton","GA","30117-3506","FDTDFFDFDFADDFDTFDAADTTTDFTDTFDFFTDFTTATFADADDTTDAADAFDADTDFTFFFA",479,1
"Georgeann","Watson","44 Forrest Dr","","Carrollton","GA","30117-3506","TFFDTFTTATFATTDATFDTDTFDFDTTFAFFDTFTAAAFFTTADFTTAADTFFADFTADDAATF",480,1
"Amanda","Redman","52 Forrest Dr","","Carrollton","GA","30117-3506","ATFTTFAAFTDADATATADFDFDFFAATFFFDDAFAFFTAAFFTFDTTFDTTFTFFATATADTDD",481,1
"Robin","Smith","64 Forrest Dr","","Carrollton","GA","30117-3506","AFDDFFDDTAFTDTDTFFDTDDDTAFATDATFFATADDADDTTDDTTTTAFDAFATDAAFTAFAF",482,1
"Charles","Stuckey","70 Forrest Dr","","Carrollton","GA","30117-3506","AADAFAFFTFTTAAAFAATDFAATAADADTADADADFTDDTFFFATDFTDAFTTTTTDFATTDDF",483,1
"Cher","McDonald","76 Forrest Dr","","Carrollton","GA","30117-3506","TTDTDTFFAFTDFFDFATAAAAATFTDFTTADFDAADFDTAFAFTDDADTFFTTDATAFADDFAA",484,1
"Beth","Berzsenyi","84 Forrest Dr","","Carrollton","GA","30117-3506","TTFTFAAATFDAAAADTADAAFDFATAFADDDAFFAFTDATDDTTATFADAAFDAFATDFADTFT",485,1
"James","Robinson","23 Lynda Cir","","Carrollton","GA","30117-3507","TAFDFTAADADAFDFDDADAFATDFTTTATATFFFFTTTFTTFDAAFAFTFADDTDTDAFDTADF",486,1
"Elizabeth","Mathews","27 Lynda Cir","","Carrollton","GA","30117-3507","AAFFADADDFDFDDTTDAFDTFADFTAAFFDTFTDTDFDFAAAFDTATADTTATFTTTTFFTTDT",487,1
"Jesse","Williamson III","33 Lynda Cir","","Carrollton","GA","30117-3507","DAAADTADTTDAFATFDTTAFADDTTATADDDADDDTDDFADTFAAAAFTDADTDDTDFDATTTF",488,1
"Ray","Stedwell","39 Lynda Cir","","Carrollton","GA","30117-3507","TDFADDTFAFFFDAATDDADDDTDDDFFFFFFTTDTFFAADFAFDFADAFATAATFDAFTTFTFD",489,1
"Caleb","Butler","26 Lynda Cir","","Carrollton","GA","30117-3508","AFDTAFDATTFTTDAAFDATDDDAADADAFAFDAADFDFDFTATDADDTAADFFTTDTTDFAFAA",490,1
"Pierce","Waldrep","104 N Ole Hickory Trl","","Carrollton","GA","30117-3509","FAFTTFAFFADFDFFADATTDAAFATDDFAADATFAFFDDTTTFDTTDDTFDFTADATDTDTTFD",491,1
"Marie","Ward","106 N Ole Hickory Trl","","Carrollton","GA","30117-3509","TTADTTATTTTAFADDTTDTAFADDADDATATAFFFFFDTTADFAADFTDFFTTAAAAFDFDADT",492,1
"Laura","Hill","102 S Ole Hickory Trl","","Carrollton","GA","30117-3511","DDDDFADDATFDADTDADADFDATFDTADTDAFFFAAAATDAFATAFAAFAATFTFDAAFDFFDD",493,1
"Barry","Ward","106 S Ole Hickory Trl","","Carrollton","GA","30117-3511","FDFADATFFFAFATADDFTDADDDDFTTATAFDFAFFDAAFDFFTFTATFDFDADFFDTDTFAAT",494,1
"Charles","Griffin","128 S Ole Hickory Trl","","Carrollton","GA","30117-3511","AFDAFFTFATFFTFDADFDFTDFDTFDDFFDAATFTDDAFFTDAFFATAFDTTFFTFFDDAAFDA",495,1
"Robert","Stone","130 S Ole Hickory Trl","","Carrollton","GA","30117-3511","AAFFTDFTADDTDADTAAFTDATTFTFADAADAAATAFTDTATFDTDDDTTDTTFTTTDADTAAA",496,1
"Kara","Boles","210 S Ole Hickory Trl","","Carrollton","GA","30117-3513","FADATTAAATTFFTADDAFFAFDFTAADDDADTDDFTFTFAFFDATAAATAAATDTAADDFTDFD",497,1
"Zachary","Steed","103 Stonewall Dr","","Carrollton","GA","30117-3514","FDAAFTTDAAAFAFAFTDATADDFTFFDADFAADDTFFFADATFTTDFTAFAAFAFFTFDTFTAT",498,1
"Jeanne","Swindle","109 Stonewall Dr","","Carrollton","GA","30117-3514","DADDAFFDAFTDTAATFTTFDFDTDATFTFDTDTTAATTDTTTTFTTTATTDTDATTFATFTFFT",499,1
"Linda","Parmer","115 Stonewall Dr","","Carrollton","GA","30117-3514","DFATDDTATFFFTATTDFAFDTTDFDTDAFDADTFFTAAFDTTFFDFDTAATFFTTFDTFDATAF",500,1
"Paul","Campbell","108 Stonewall Dr","","Carrollton","GA","30117-3515","DTDFATATFFTAAAFDDATFAADDTAAFFTDDDFFDFFDAAADDAFDFFDAAADDFADDDADTTA",501,1
"Christine","Swanson","115 N Ole Hickory Trl","","Carrollton","GA","30117-3516","TAFFDAATTTTDFTDDFTFFAATTATTFFDATADDAAADFTTAAAADFFTAAATADADTFDTDDA",502,1
"Ginger","Harper","116 N Ole Hickory Trl","","Carrollton","GA","30117-3517","ADAFFFDAFAAADFFATDTATDDTAFFAFFAATADAFFFTFTADFAFDAFTDFAAFDAAAAFTDF",503,1
"Elizabeth","Smith","101 Amhurst Way","","Carrollton","GA","30117-3518","TTDDAAFDFFDAADADTADFAAAFDTFTADADTFTAAFTTAATAAFFADTAFDDTFTDFTDDATT",504,1
"Emily","Goodson","103 Amhurst Way","","Carrollton","GA","30117-3518","TDFDAATAADFDFAFDADAAFTDTDFFADTFADFDDFFFADATDTFAAFFDATATAFDADAFFDD",505,1
"Sandra","Redding","218 N Ole Hickory Trl","","Carrollton","GA","30117-3520","TDTATATADDFDAFDDAFADATDDFDTDDTAADFTFDDAAFADAADDATFDFTFAFDAFAAFFTA",506,1
"Ryan","Gorey","201 Hickory Chase","","Carrollton","GA","30117-3522","TTADFFFDDFDATFDADTDFTFTTFAFAFAFTDAAFFFTATFAFDDFDATDTATAFAAFDADTAF",507,1
"Shann","Hillin","205 Hickory Chase","","Carrollton","GA","30117-3522","AADDTAAFDATTAFAFATTDAADDTAADTDDTFFDAFTDDTFFATFDFDTAFFTDTTTDATTFTD",508,1
"Jamie","Lucas","207 Hickory Chase","","Carrollton","GA","30117-3522","FDATTFDADDFFDDDADFFFDDATFFATFAAFFAAFFAAADDTFDTFTFAATTFTAFTTADFATT",509,1
"R","Miles","102 Melrose Park","","Carrollton","GA","30117-3523","TFDDADDATAADDADTDDFFTTDFTFFATFAAAATATTADDFTDDTFTTAADFFDDDATTFAFTF",510,1
"Austin","Jewell","106 Melrose Park","","Carrollton","GA","30117-3523","ATFTFFADDATADAAAATTTDAFTDTTFFFATFTFFAFDATFATFFDTATDTDDAAADTFTDTFA",511,1
"Julie","Cain","105 Hickory Walk","","Carrollton","GA","30117-3525","TFFFFDTATTAADTAAFFFTDTTADFDTDAAFFTDDAAAFFTDDFADDFFATFAFDFATTTAAAD",512,1
"Eric","Heine","105 Melrose Park","","Carrollton","GA","30117-3526","ATFFDAFTFFTFFTFFDAFTFFDDAADDDTFDADADTTDTTDDAAFAFTDAFFTFFTAFTFDATA",513,1
"Gregory","Shilling","107 Melrose Park","","Carrollton","GA","30117-3526","FAFDDFFTDTTFTFDADAAFTFTFDADTTAFDDTTFTFDDADDADATDDDTDDTTTTATAFTAAD",514,1
"Mary","Lamb","117 S Ole Hickory Trl","","Carrollton","GA","30117-3527","AADTTFATFTTDTTTTFATFTAFFFAFTTFTTFTFTDFDDATATFADDATDTATTDTTDDTTDDT",515,1
"Laura","Mann","119 S Ole Hickory Trl","","Carrollton","GA","30117-3527","ATFTDFFAFFTFDFFADADFDFATTTAFAATDTTATFDDAADFDDTTTDTADATDAAATAFDTDD",516,1
"Amy","Stone","202 Hickory Chase","","Carrollton","GA","30117-3529","ADTFFATDTTADADAFAFTTFTFFADFATDDFDFTTAAFTDTDTTDAFFAAATAFAFDDDFFDTT",517,1
"Susan","Helton","206 Hickory Chase","","Carrollton","GA","30117-3529","AFAAAADFDTFAFDFDTFTFFDDTDDTFATTATFFDATFFDAAFTADATFDFAADTDDDATATDF",518,1
"Tito","Olvera","115 Broad St","","Carrollton","GA","30117-3601","ADFDDATAAAFTFTFDADTAFDDATFAADDAAFDFTDTATFDAATDDAFAFAAFAFDADDAFDTT",519,1
"Keith","Akridge","119 Broad St","","Carrollton","GA","30117-3601","FAFDDAATATTDFAFFAADTFAAAFAFDDTDDAFFTFFDDADFATDTAATDAFDADTDATATDFA",520,1
"Brittany","Ward","106 Broad St","","Carrollton","GA","30117-3602","AFDTTTTATAFAFFTDFFFTADDFAFAAFTTFDFFFFFFFFATAATAADFTADFDTFFATDADAA",521,1
"Jerome","Sheppard","209 Broad St","","Carrollton","GA","30117-3603","DAFDDTAADDTTATDDAAFDAFFTDTATTTDDAFTTADTDTDDAATAAFTTAFTTTATTFTTFAT",522,1
"Cesar","Meza","223 Broad St","","Carrollton","GA","30117-3603","TTATADFDAATDTFAADAADTADATADDFFDDFTADFTDTAADTFFATFDDDATDFTDFAFDTDD",523,1
"David","Stroud","202 Broad St","","Carrollton","GA","30117-3604","DFFDFDDADFADTAATTFDFTTAATFDFFFTATTADAAFDDTATDAADAFADAFDDDAFFTAAAD",524,1
"Jose","Caballero","230 Broad St","","Carrollton","GA","30117-3604","TTDFFFAAFFDADDAATTTFTATDTADFAATTFAFADDTTTFTDFFADATFDATDAAADFDDTTF",525,1
"Camilo","Perez","234 Broad St","","Carrollton","GA","30117-3604","DFDDFTTTTAAFATFDDFDFATTDTFTFADAAFFDFDDFDFAAFATFFAATFDATDFDFTAATAF",526,1
"Tamatha","Times","238 Broad St","","Carrollton","GA","30117-3604","AATTTFATFFDFDTDADTDFDFADTAFDFAADDADDADDDTFFFFFFTFDTDFDATADFTATTFT",527,1
"Steven","Beasley","302 Burson Ave","","Carrollton","GA","30117-3606","DTFTAFFFDTDDTDATFTTDTFDTDTAATADDTTDDADDTTTAADTFDDDFTTTTATFDFTDDFD",528,1
"Raymond","Smith","310 Burson Ave","","Carrollton","GA","30117-3606","DAATADFFFDTDTFDTATAFTATATADDDATDATDFDADDTTAADDADDDDTDDFTTTTTTTFTF",529,1
"Betty","Truitt","405 Burson Ave","","Carrollton","GA","30117-3607","DTDTDAFADATTFTFFFAFTAFDTFTDFDDTTADTFTTTTADTFTFFFATAFTDDFTAFFDDTDA",530,1
"Anita","Jones","411 Burson Ave","","Carrollton","GA","30117-3607","TTFFFAADFTTFAATDTADFAFFFDAFAADDTFFDTAFDAAAATTDTADDAADTFFAFDFFDDAD",531,1
"Yvonne","Zachery","408 Burson Ave","","Carrollton","GA","30117-3608","TFFFFDDFDFFTTTTAFFFFTDFAFDADTADFFATTTFADDTATFFFTDADTDAFTFDADTADFA",532,1
"Whitney","McCoy","642 Burson Ave","","Carrollton","GA","30117-3612","ADDFAADFTFFFFAADDFTTADAATFFAADAFTDFFAFAADTDDTDAFAADFDFFFDAFDAFAFF",533,1
"Melissa","Driver","112 Foster St","","Carrollton","GA","30117-3614","DATDATADTTDDATFDTTFFAAFTTTADATADDDDDADTFTAFATTAFDDFFADTTAAFDTTTDF",534,1
"Ana","Brewer","127 Lovvorn Rd","","Carrollton","GA","30117-3615","DFATDADDFDFTAFFDFDFDFTDFTDTATDAATFFADDFFDTTTTAAAAFTFFFFDDDTDAATTD",535,1
"Jacqueline","Johnson","202 Lovvorn Rd","","Carrollton","GA","30117-3618","DDATAADAFDFFFTADADFTFTTDFFFFTTDFFFTTAAATDTTFTADADFAATAAFFAATAFFDT",536,1
"Robert","Kelly","210 Lovvorn Rd","","Carrollton","GA","30117-3618","FATFAAFFFADTFTTDAAAAAFTFTTAFADTTADDFTFDFADDATAAFFTAFATTTTADDTTTFA",537,1
"Osman","Hernandez","214 Lovvorn Rd","","Carrollton","GA","30117-3618","FDFFTFTFTAAFTATATFDTDTFADDATDFAADATDAAATDAFDFFDDDADTFFFAFDDTAFDFF",538,1
"Evonne","Paige","222 Lovvorn Rd","","Carrollton","GA","30117-3618","DDDTDTDATTADADDFADFFADDDTDTFFTDFFDDDAAFAFDFATADFAFFFAFAFDAAAAFTFA",539,1
"Roxanne","Brock","110 Broad St","","Carrollton","GA","30117-3624","AFAADTDDTFATFFTDDFTFADDFTDTDFDFATFFTAAAFFDTATATAAAFFFAATDTFTDAAFD",540,1
"Bill","Prothro","110 Broad St","","Carrollton","GA","30117-3624","TFDFTFTAAFFFTFAAFDAATTTAFDAATFTAATAFFFADDDFDDDDDTATTDAFDFAATTAFDF",541,1
"Niesa","Storace","509 South St","","Carrollton","GA","30117-3633","FTTDDDFDADDATTTADTFDTFDFTAADDFATFADFAFDAATTTDADDATFDADTATTFFDDDTT",542,1
"Penny","Nicholson","515 South St","","Carrollton","GA","30117-3633","ATTFADFAAFDFDATATADFTAADDTATTFFDFADFDFTATAFADADDADTDFDAATATFADDFT",543,1
"Antonio","Santamaria","537 South St","","Carrollton","GA","30117-3633","FDDTAFDTDDAFTATTDDDDTTTFTDDFTADAAADFAAAADFDTFTTDFAADDFTFDAAFAFFAA",544,1
"Benjamin","Walker","547 South St","","Carrollton","GA","30117-3633","AFTTDFDDTFFFTDFATFADDDTFADAATFFFTADDTDFFDAFTFTATFAFDDFTDDDFADADFT",545,1
"Shaquita","Dunson","630 Burson Ave","","Carrollton","GA","30117-3649","TTDADTFDDFDFFFFDAAAAFADTFTFFDDTDDDDFATDAAAATTTDAFDFFADTFTFATDDDTF",546,1
"Charles","Patrick","630 Burson Ave","","Carrollton","GA","30117-3649","ATAFTFAAFFTTTFDATTTFDFTDTTDTAFFDFATTFDDTTADFDFTDDDTTTDDAADFTTDTAD",547,1
"Jerry","West","1003 Maple St","","Carrollton","GA","30117-3652","TADTDAFFDADFFAADFTFTFFFTDADAADDTTDFTFFTFAFTAAATAFDFFATDDTTDDATAAF",548,1
"Terrie","McCanless","210 Matthews Ave","","Carrollton","GA","30117-3653","TADDTAADTFDTFFFFDTTFFFDDFTDFFDDTADADAFTDTFFAADFFFTFFDTTDATAADTTAA",549,1
"Rayford","Floyd","210 Matthews Ave","","Carrollton","GA","30117-3653","TDTAATTFDAATADAFTFADADADAFDTFTFADDTTTAFTDTDTADTFAAAFTFTAFDTTDFADF",550,1
"Ciera","Pless","210 Matthews Ave","","Carrollton","GA","30117-3653","ADFFFFDTFAFFDDTTADTTTTFTDFFFTATAFADFDFFAFTAFFADTTADTTFDFDFDTTFDFD",551,1
"Yasmine","Johnson","210 Matthews Ave","","Carrollton","GA","30117-3653","DFDDFFTDATFDDAATDDDDDTFFFDAFFATFATTFADFDDDAADFDTFFFDDFFDFTFDFAAAD",552,1
"Dick","Huguley","228 South St","","Carrollton","GA","30117-3701","TAFFAAATDFDDADFDAADDAADAAATFFDATADFFFFDFATDAADAFADAFFTTDTTDDTTDTF",553,1
"Susan","Colgate","110 Carroll St","","Carrollton","GA","30117-3702","TFTDTFDAAAAFTDDTDFTDTTFFAFDDTFTFTATFDDADDATFDTTTDAATDAATFTFFAAATA",554,1
"Victoria","Davitz","219 Carroll St","","Carrollton","GA","30117-3703","ADATAADDDDFAATAFDDDFFTTTFDTATTTADDDFDDFTDTADTAAAFFTFAFFFDADFFFFTD",555,1
"Randy","Malone","214 Carroll St","","Carrollton","GA","30117-3704","TDDATTDFFTAAATDDTFFTFTDDAFTAFTDAAFTFFAATDFTTAAAATFAAFFAAFFDADFTDT",556,1
"Randall","Hanson","222 Carroll St","","Carrollton","GA","30117-3704","AFAFAATTTTFDFDTDFDADFDFTDFATTDDADDFFFAFFDFTFTTDFFFAFTAFTDFDFTAFTF",557,1
"Heather","Russell","215 Kramer St","","Carrollton","GA","30117-3705","FAFTFAFFAFTAATFDTTDDFFDADAAFDDFDAFTFFDDFTFDDATTAADDFDDADTDDTDTFAD",558,1
"Bethany","Shackelford","228 Kramer St","","Carrollton","GA","30117-3706","TTDDTDAFFTDTDFTAFTAATAAFFADFAAATDATATDDAAFATFTTDTTFDDTFATTFATDAAT",559,1
"Celeta","Cavender","309 Kramer St","","Carrollton","GA","30117-3707","TFDTTFDDTTAADDDATDAFTTFDFDTDTAAFAATDTDFDFFFTDFADDFDTTFATFADTFAFAF",560,1
"John","Robinson","315 Kramer St","","Carrollton","GA","30117-3707","FDAAFFTTTFFTDFTAAFAATDFADFDDFADATTFFAAAAFFTDFDATAADDAADFDFDFTFTTA",561,1
"Juliana","Horvath","331 Kramer St","","Carrollton","GA","30117-3707","DFDFFDDDAAAADTFADDAFDDFDTFTFDFDFAATAATADFAAADDFDDFDTAADDFAAAAADFA",562,1
"Mike","Couch","304 Kramer St","","Carrollton","GA","30117-3708","AATFTFADATDTTADTATTATFFFFTFAAADTTTFDTTTDTDTADATTDDFDATDDTFDFATADA",563,1
"Alesia","Simpson","330 Kramer St","","Carrollton","GA","30117-3708","FAADDDFAATDATAFADTAFDFAADTFDDAFTFATFDDDFTADFFFFTFTATATDDATDAATFAD",564,1
"Tameka","Wilkerson","350 Kramer St","","Carrollton","GA","30117-3708","DADDDTAFTDTTFAAFATTAFFTDDTFTATADADDDDFTDADDTAFDFDDFFTTDDTFDDFTAFT",565,1
"Brittany","Dixon","431 Longview St","","Carrollton","GA","30117-3709","FTDADDFTDDDTTTFTTATTTADFDTFADAADAATDAFDTTFDDFTDDTTFTTTFFADFAADDAT",566,1
"Denise","Watts","402B Longview St","","Carrollton","GA","30117-3710","FTDDFAATAADTAADDATAFFAADFAAFADTTFDTAFTDTAFTAADTATDDFFTAAAAAADDATA",567,1
"Thomas","Park","422 Longview St","","Carrollton","GA","30117-3710","DDDFTFDTDDADDTFATFAATTFFDFDAAAAFATTFAFFTDTDTFTFTDFATTFAAFTTTTFFAF",568,1
"Myrl","Driver","438 Longview St","","Carrollton","GA","30117-3710","FTDTFTFTATTDFFDFTTTFAAFDAADDATTTADTTTFDTTFATATTATDAAADFFADATFDDDD",569,1
"Julia","Houser","502 Longview St","","Carrollton","GA","30117-3712","AATATFAAFATDDFATATATDFFTDADDAADDFADAAFDFTFFFDADDADDDTDFTTFTDDTDAD",570,1
"Thomas","Smith","615 Longview St","","Carrollton","GA","30117-3713","FDTAFATFDFADAFAFADAAFDFFFDFAFTTFDDDTFDFTFATATATAFFFATADADTAFTFATF",571,1
"Valerie","Woods","639 Longview St","","Carrollton","GA","30117-3713","FAADTTFDAFDFAATFTTFDFAAADATTTTFDDDTFTADFTDAFTTAFTDFFATDTADDFDTFTA",572,1
"Hilda","Johnson","602 Longview St","","Carrollton","GA","30117-3714","AAFFFDFAATTTDFATTAFATFFDDTAADFTTTTTDDATDTDFFDATTTDDTDDDDADDDDTTFT",573,1
"Gail","Sears","616 Longview St","","Carrollton","GA","30117-3714","ADATADDFDFATDAATDFDTTDDDTFTTDFFFFTAFDTFTDAFFFFTDTAFTFFTFFAAAAFTDT",574,1
"Dudley","Kemp","620 Longview St","","Carrollton","GA","30117-3714","FFTATFTTDTAFDTATADFTDDAAFFDFFFFATADDDFAFDFATFDFTFFFDTFTTDDFDTADDA",575,1
"Rebecca","Spivey","626 Longview St","","Carrollton","GA","30117-3714","DAADADFTDDDDTDDTTADATFAFDAFFDFDTDTAAFFDDTTDFDFDTDDDTFDDTAFAFDTTFD",576,1
"Brandi","Brown","630 Longview St","","Carrollton","GA","30117-3714","DFAAAFDATDFADAFTDDFFTTAADFFDDAAFDADAAAAFDDDDDFTTDAADAFADDFTFDAFAF",577,1
"Carrie","Tarpley","708 Longview St","","Carrollton","GA","30117-3716","TAAADTAAADTFFADDDAFDAADTAATADDDTFDDTDATDTAFFATTAFTTFDDTTADADFTDTT",578,1
"Tammy","Entrekin","720 Longview St","","Carrollton","GA","30117-3716","FDADFTTDFDFFFFFFTDFAFTDAFFTTDTTAADFDFAATDDTFAFTAAADFDAFFFDFTFFFTA",579,1
"Derek","Pasley","114 Oak Ave","","Carrollton","GA","30117-3723","ATADATADATDDADFDDAFDFAFATTDDFDTTAFAADDTATFDTTTTATTTFFTDAAAAFTDTAD",580,1
"Rebecca","McGee","121 Oak Ave","","Carrollton","GA","30117-3723","ATDAFTFTTFTFFDADATAAAFTDDTAATTTTFDDFTFDTTAADAFTFFTAAFDTFTAFAADDAF",581,1
"Rhoda","Wehrle","124 Oak Ave","","Carrollton","GA","30117-3723","DDDDFADTDDAFFADDAFDDATTFDDDATTFAFFFTDDATFAAFTDDFAAAATFDFDAFFDFDFD",582,1
"Mike","Miller","125 Oak Ave","","Carrollton","GA","30117-3723","DTFDDFAAADTDDADTDTTDDFTTATDAAFTTDTATDDDATFTADDDDDDTDFDFAAFTTADTFD",583,1
"Gabriel","McGee","129 Oak Ave","","Carrollton","GA","30117-3723","AFFDDFTTFTADTAFADDTTDDATTDDTFAFFDTAAADAFDDFTFDATDATDAADDFTDDFAAAF",584,1
"Amy","Ware","130 Oak Ave","","Carrollton","GA","30117-3723","AADFTFFFDATATAATFATTTFTFTAATTADDFAFDDFTDADAFDDADFDDTATFTTTDDFTDTT",585,1
"Jeanette","Waites","133 Oak Ave","","Carrollton","GA","30117-3723","FTDDATFATDTFADFDAADTFFFDATATDDATFFFAADDTAAADTTDFFTFATDFATATFTDDFD",586,1
"Jonathan","Lanier","134 Oak Ave","","Carrollton","GA","30117-3723","TDDTDTDAAAAAFAAFAFADATDDTDTDDTTFDDFTAFATDTTFAFDAAFAAFFFFDDADAFDTT",587,1
"Tuesdee","Lambert","141 Oak Ave","","Carrollton","GA","30117-3723","AATFDFADATDFDFDADTAFDADTDADTFAFDFATAATTDAADTFTTDATATADADATAADTDAA",588,1
"Jeff","Wadlington","213 Oak Ave","","Carrollton","GA","30117-3725","FTDAFTADAATTFAFDDTFAFADTFTDFFTFDFFTFTTDTATFFTDDAFTTAFTDAADDATDDFA",589,1
"L","Richards","217 Oak Ave","","Carrollton","GA","30117-3725","DFFDFADFFTFFFTADFDATFTAFDFFFDDTAFDFDTDAFFFTATFAADFDFTATDDDTFTAAFD",590,1
"Hosmer","Freeman","206 Oak Ave","","Carrollton","GA","30117-3726","DDFAATTTDAATADFFDFADFTATTFTFADFFFDDTFFFAFTFATTTAAFTAAFFFDDDFDFTDD",591,1
"Amy","Skinner","417 Oak Ave","","Carrollton","GA","30117-3729","DATAADFTTFDFDFATFTFFDAADDTADDATTFTTAAADFADFDFAATTTDDFDDTTTDDFTFTF",592,1
"Brandie","Cook","419 Oak Ave","","Carrollton","GA","30117-3729","DATDTFFATDTATDTTFTAADFTDFTTADFDTDTTFAATFATAFDTDDTTADDTTDTTDFFTFTF",593,1
"Jaime","Castleberry","105 Richards St","","Carrollton","GA","30117-3733","DFDTTADDDDFFAAFDADTFFTTFDDTTTTAFTDTDDAFFFFADTDFFDAFADFFDFFAATAFDT",594,1
"John","Garland","104 Richards St","","Carrollton","GA","30117-3734","AFADDATFTDATAFTFDFTDATTTFDFTTTTFDFTFTAFDDTAFTFDAFADAFATDFFTDDADTT",595,1
"Karen","Kilbourne","114 Richards St","","Carrollton","GA","30117-3734","TTAFTTATFTDDADFFTTDDFFFTFTTTADDTADTDTTTTTDATATTAFDAFADAAATTADDAAT",596,1
"Traci","Hostager","206 Richards St","","Carrollton","GA","30117-3736","FFATAADDDDFTATFFTDTTFDAAAFAFATTFAFDDTDFFFAFAADTADADATFTDDDAAFATAA",597,1
"Young","Woodard","208 Richards St","","Carrollton","GA","30117-3736","TDFDFFDFTFFTDTATTDATDDATADDTFFFFAAFDFDAADFFADDTDTFDTDFFADFTATFTDT",598,1
"Gregory","George","202 South St","","Carrollton","GA","30117-3738","FDTFTDTTDTAADADAAFATDTAFFFAATFDADTFFFAATDDDDFFADFADDTATADTFDDFFDA",599,1
"Maggie","Serritella","101 South Blvd","","Carrollton","GA","30117-3739","FTAADAFDFDTDFDFFTTDFFFFAAAFDFDFDDFDDFADTTDTATADADDFAADFAAFDDFDAAF",600,1
"Angela","Aldridge","219 South Blvd","","Carrollton","GA","30117-3741","AATATTAFATDAFFTFFTTFAADDTADADTFTFFFTTFDDTADFTDFFFTFAADATAAFAATDDD",601,1
"Kayla","Thompson","218 South Blvd","","Carrollton","GA","30117-3742","AFFFTDDDDFADTATTTFTDDDFDDFDTAATFATDFAFFFFDDDDDADDAFDFAADDFFTDATDD",602,1
"David","Miller","123 Tuggle St","","Carrollton","GA","30117-3747","DTAADFFAAADTTTFTTTTDDFTTFATTAFFTTAFADDDTTADAFDTDATDTFTAFTAFDDDAAA",603,1
"Tommy","Smith","118 Tuggle St","","Carrollton","GA","30117-3748","DADTFTFTFTDFFADFTTFFAFTFTATDADDTDFFFATTFAAAAADFADTFFTTTDTDFAATFDT",604,1
"Mary","Lankford","130 Tuggle St","","Carrollton","GA","30117-3748","DTFATDAFTTDTTAFTFTFTTAAAFTFFDFFDATAFAFDTTFFFFTDDADFTTDTFATDTTDAAD",605,1
"Daniel","Rhodes","202 Tuggle St","","Carrollton","GA","30117-3750","DFFADTTTFAATAFTDFDDDFDDTDFAFATTFFFADFDADFFATATTAFFFAFFATFDTATATAF",606,1
"Christy","Haynes","627 Longview St","","Carrollton","GA","30117-3751","TFAADDDTTDADTDDTFDTFTDTAFFDDAADFDTDDFDAFFAFAFTFDDFTDDFFTDFFAAAFTF",607,1
"Stephen","Rivas","415 Matthews Ave","","Carrollton","GA","30117-3753","TFAAAADFFTATATTFADFFADAAFFDFDDDFTDFAADAFDTFDTDTATFTFTFFTDTDFAAFFD",608,1
"Mae","Hart","648 Longview St","","Carrollton","GA","30117-3763","TATTDFFFDDTFDFTTAATATFDTTATFAFTDATDDTFDFTFTTDAFDDDTDTDFTTTTADTDAT",609,1
"Katherine","Martin","301 Oak Ave","","Carrollton","GA","30117-3767","TTDAADFATDTADFTTTAAADATDATFADFTDATADFADTATTFFFFTADADDDFFAFDTFDFTA",610,1
"Travis","Mason","205 Croft St","","Carrollton","GA","30117-3801","FFTDDFDTATFFDTDAADAATDTDDDADFAFFATFDAAAFDADADDTTAAFTAADDDDDDFAADF",611,1
"Steven","Armstrong","234 Croft St","","Carrollton","GA","30117-3803","DDDAADDDTTFDTAAADDDFTDDADDAFAFFFATFTDAAAFAFADFFDTAATFFAFDDFDFFDAD",612,1
"Tonia","Burk","119 South St","","Carrollton","GA","30117-3814","FTFTAFAATFDADTFTAAAFTFFTDTADDATDTTATFTTTTATTFFDDDDADFDAFAAFDADAFA",613,1
"Barbara","Haynes","127 South St","","Carrollton","GA","30117-3814","FAATTTATFDTAAAAFFTFTFFFTFTDADTATTFATAFDDTTDATTDFTDTFFTATATADATTDF",614,1
"Evelyn","Williams","102 South St","","Carrollton","GA","30117-3815","FFATAATAADFFADDFFFAFFDFDAFDTTDTFAFADDTAFFDTFAATADFAFTFDTFTDDFAATA",615,1
"Paul","Seiler","102 South St","","Carrollton","GA","30117-3815","TDTAAADFFFFDAAFFTFFAADFATDTAFDTADDFDAAATDTTATFTAAATADFFADAFTTFFDA",616,1
"Donna","Lindley","109 South St","","Carrollton","GA","30117-3864","FDTDAFDFDFFFDDATFDFATDAADDTTDATAATDDAAFTFAAFDATTAADDDFFAFTDDTFADD",617,1
"Allison","Barr","598 S Park St","","Carrollton","GA","30117-3873","TAFADAFDAATFFFTFAAAAAFTFATDAFTFDFDADAFDDAFATTAFFDDTADTTTATTDDTDDA",618,1
"Betty","Hudson","598 S Park St","","Carrollton","GA","30117-3873","AATFTDAATADTTFATTTTFTADADTFDTATDDAFAFADFTFDFDDADFDFDDTDDTFDDTTAFT",619,1
"David","Gossett","622 S Park St","","Carrollton","GA","30117-3875","FDDAFATTTFFTFTTDTFTDFDTTAFADTTTADFAATDAADFAFAATFAFAFFADAFDFTAFTFF",620,1
"Donna","Driver","620 S Park St","","Carrollton","GA","30117-3876","FAFTFDAATDTADTATTTFDTADTDTADAAADAAFATATDATDADTDDTDFTFDDTTAAADTFAT",621,1
"Barbara","Gilstrap","620 S Park St","","Carrollton","GA","30117-3876","FDAFDFTTDTFATAFTDFDFDTATTFAAAFTFDADFAFFTFFFTDTATDFATAADFDATTDFDDD",622,1
"Susan","Lovvorn","620 S Park St","","Carrollton","GA","30117-3876","DDDATTDFFTADFADFFDFAFDFDFFTDDDFFFDTTFAFADFTFTFFAFFDFAATAFDDTTFAFF",623,1
"Tina","Hyatt","620 S Park St","","Carrollton","GA","30117-3876","AFFTTTTAAAAFFDFFTDAFADFADDDDADFATFDTTDFDFAAAAAFFTAFAFAATDAFDFADAF",624,1
"Jean","Adams","618 S Park St","","Carrollton","GA","30117-3877","FAAATDFFFTTATAAAAAFADADDTATTFAFTTTTAFATFATAADTTTDDFTTDTDTATTATFDA",625,1
"Ellen","Olson","618 S Park St","","Carrollton","GA","30117-3877","FDFDAFDDADFADTFAFDDTTTADDDTFFFDAFTAFDAFAFFATDTFDTFATFATADFAAAFDAF",626,1
"Lori","Squires","614 S Park St","","Carrollton","GA","30117-3879","ATADATFADTDTFDTDTTFTAFDFFTDDTDATTFTFATDATFDAAFAFADTFDDAAAATFTDFDF",627,1
"Jonathan","Jones","614 S Park St","","Carrollton","GA","30117-3879","ATTAAFAATTTADFTTFTDTDFDAAADTAFTTDADATTDTTAFDFFFTDDDTTDAFTAAFTDAAF",628,1
"Donna","Ragsdale","614 S Park St","","Carrollton","GA","30117-3879","TTFFFTFDATDDAFAFDAFDFATFDAFFDDFTFDTDDTDAAAAAATAFFDAFADFAADFFDDDTD",629,1
"Michael","Wells","610 S Park St","","Carrollton","GA","30117-3881","FFFDTDDTTFATTTAADDTTTTADTFDDFAFFFTTDFDAFDDDADFADFADDDFADFTDTTAAFD",630,1
"Mary","Gunn","608 S Park St","","Carrollton","GA","30117-3882","DADTADAFATDFTTTAAATDTADTDTDFFATDDAFAFTDDTDDADFADDDFTATDTTFDAATDDT",631,1
"Wayne","Watson","608 S Park St","","Carrollton","GA","30117-3882","ATFAADFAFADDTFAADADTDADFFATFTATTTTAATADAATDFFAADATDDFTFAATFFDDATT",632,1
"Gabrielle","Wilson","608 S Park St","","Carrollton","GA","30117-3882","TTTFFAADDATAFFTDFTFDFFTATAATFTFTAFFDDFDTTTATADFATTAAFTAFTAAFTDDAA",633,1
"Rebecca","Dakkak","606 S Park St","","Carrollton","GA","30117-3883","AATADFFFTTDTDTDATTDADFFTFATFTADTATFATDTDTAFFDDADTDTDDDFTAAFDATTTD",634,1
"Elizabeth","Merryman","606 S Park St","","Carrollton","GA","30117-3883","TAFFTTATATTFATFDAAFFFAADTAATFTATTFADDTTFAATTTAFFADFADDADTDADFTFAF",635,1
"Gregory","Patterson","602 S Park St","","Carrollton","GA","30117-3885","DDDFDDDADTFDDTTATFTATDDAFFDATAAFATDTDFFAFATFDAFTAFDTDFTADAADFFTAT",636,1
"Michael","Brown","115 Austin Ave","","Carrollton","GA","30117-3903","DTTDFAFDDADDADAFATDFFAAAFTTADDATDDTDATDAAAFDTDTFATDFADAFADTFFDDDA",637,1
"J","Yarbrough","119 Austin Ave","","Carrollton","GA","30117-3903","FADFADFFFADDTDAAATFDDADATAAATFFTDAATTATFTDFDDFADADADFDTTADATFTDAA",638,1
"Dixie","Griffin","123 Austin Ave","","Carrollton","GA","30117-3903","DTFTTDAFTDDFDFFADADFDFAFAAAAFAATDAFTFDDTAATTDFTTTDDTATDFTAFTDDAFF",639,1
"Carol","Crowder","110 Austin Ave","","Carrollton","GA","30117-3904","ATDTAAAFFFTDATFFTAATFFFFDAAFTDADFDDAAATTTTFFTATAADTADTAFAAADFDAFT",640,1
"Leslie","Snider","128 Austin Ave","","Carrollton","GA","30117-3904","TTFDATFDADDFATFDAADAFADAATTAFDFDAFADTTTAADATTTTFTDAFADAFTTDADDDTA",641,1
"Gary","Bennett","227 Austin Ave","","Carrollton","GA","30117-3905","FFFDTDDDFDFFDATAFFFTTDAAADTAAATFFTFADFFDFADAFFTDTAATAFATFATFTADFF",642,1
"Timothy","Ackey","220 Austin Ave","","Carrollton","GA","30117-3906","TTTDADFFADDDTFATFADDTATADTFFFFTDTTTFAATATDDFDTFTADADFTAAATTATDAAT",643,1
"Sue","Lee","226 Austin Ave","","Carrollton","GA","30117-3906","DTTAFFFTDFTTDFTAAADFTADAATTTAADTTTATFATAAFTFDAATFTADFTAAATAFTDATF",644,1
"Janet","Johnson","406 Austin Ave","","Carrollton","GA","30117-3910","DFADDTDAAFATADTDDFDAADDTAFATFDFAADADFDFFDFFAAATFAFDFAATTFATFFADDF",645,1
"Dustin","Watson","119 Clifton Ter","","Carrollton","GA","30117-3911","AATATTAAFFTFAAADFATAFATFFAATFTDDTDFTADDDAATTAFTATDAADTTDTFTTTTATT",646,1
"Anthony","Anderson","123 1/2 Clifton Ter","","Carrollton","GA","30117-3911","DDAFFFDDDDFTTADADFFTDTDTDDDTDFTATTTTTAFAFAFDFDATFADDFAAFFDFFFFDAA",647,1
"Adele","Billman","118 Clifton Ter","","Carrollton","GA","30117-3912","DDFDTATDFFAFFTAFAFDTADDTFFDAATFFTDAAFTFAFDFAAFAFFADFDAAFDFATFFDFD",648,1
"Dennis","Yarbrough","209 Clifton Ter","","Carrollton","GA","30117-3913","FFDFDFTFTDATTTTAAFDATDFDTDTDFFAFTAFDFFFDFDFDFDDTDFFTFAATDTTAAAAAF",649,1
"Jackie","Harper","219 Clifton Ter","","Carrollton","GA","30117-3913","DFAAADDFTFFADAATDDTDDDTATDFDTAAATTTDFTAFDDAADAFTFAFDFFDTFTTFTAFAA",650,1
"Bill","Blackwood","216 Clifton Ter","","Carrollton","GA","30117-3914","AFDFTFDFDFFDTFFADFAFDTDFADATTADFAAADDDFFFATDFTDDDFFDTFFDDFAFDATDT",651,1
"Paul","Smith","319 Clifton Ter","","Carrollton","GA","30117-3915","FFATAATATFAAFFADAFAFADAATDDDATAADFADFDFFDTTTATAAFADATADDFTTFAAFFT",652,1
"Lemma","Helton","306 Clifton Ter","","Carrollton","GA","30117-3916","FDTFFDTTATATTTTAADAFDDFDDFATTFTFFAFDTDATFDTFFADDDAATDFAFDDDAAFDFF",653,1
"Ronald","Jiles","405 Clifton Ter","","Carrollton","GA","30117-3917","FFFTADTATFFFDTDAFFTTTDFAAFDFAFAFDADTAAFDDTFAFDATTFTDTADTFAATTAFAD",654,1
"Mary","Tate","415 Clifton Ter","","Carrollton","GA","30117-3917","ADADATTDAFFAADDFAFAAFDFAAFDAADFFFDDFTAATDTTTAFAATFTFFATAFTFADFDTA",655,1
"Tomeka","Walker","416B Clifton Ter","","Carrollton","GA","30117-3918","TTFADAAATFDAATTDAADAFFAFATTTDDDTFDFDFFDTTATTTATFDTDAATTFTADFDDATT",656,1
"Sherry","Phillips","416A Clifton Ter","","Carrollton","GA","30117-3918","ATTFTDFDAFTDDTAATTFFDAFADTAFAFATDAAAAFDAAADFDDDTFTADTTDAATTFTDFAA",657,1
"Josie","Bond","111 Southside Ave","","Carrollton","GA","30117-3920","FFFADFDAFTFATFTADFDFDDDFADDAFFAFDAATTDFDFTAAFDTTAFADDAADDTAFAAFTA",658,1
"Mark","Weldon","428 Dixie St","","Carrollton","GA","30117-3922","DATTFDATFADTTDTTAADDDFTTTTTDTATDAADATDTFADFDDAFDTTFDTDFTTTFFFTTFD",659,1
"Ruby","Crowder","150 Sinclair St","","Carrollton","GA","30117-3926","AATTATFDDFDDAAFDDAAFFFDTATADADFTDDDDFATDAFAFTTTFTDTADDADTATAATFAA",660,1
"Zariah","Luna","128B N Garrett St","","Carrollton","GA","30117-3930","DTFTTAFAFTDFATDFTATFFFFDAAFAFDFDTFATFTTAAATTAADFTDAFDDAATFTFADFAA",661,1
"Audrey","Smith","130 N Garrett St","","Carrollton","GA","30117-3930","FDFAFFDTDFFFDFFADFADTDFFTDTDFFAATATTDFAAFAATFAFTDFDDAATADATDTFFAD",662,1
"Johnnie","Overstreet","211 Harmon Ave","","Carrollton","GA","30117-3933","DDTDAATDTFFTATFDFFDFFDAFTFTTFDDFTFAFTTFAFAAFAFFFAFDFDATFFFAAAFATA",663,1
"Johnny","Truitt","217 Harmon Ave","","Carrollton","GA","30117-3933","AFTTFATTAFFTAAAFFDFFADAAFFDDDDDAAFDATAADDDAFAADFAFAFDFADDDTADAATF",664,1
"Duria","Lowe","216 Harmon Ave","","Carrollton","GA","30117-3934","DFAATDDAFTFTDTTTTFFATDFAAFFFTFDFTADDDTFDFDADDFFDDFFTTFFDDFDFDADAF",665,1
"Tyrone","Rogers","320 Harmon Ave","","Carrollton","GA","30117-3935","TTDADAFTAFDDATTFFATTFAATFATTTDDTDDFAFFDAATTDTTFFDDTADDFFTATFDDATA",666,1
"Leedonia","McClure","402 Harmon Ave","","Carrollton","GA","30117-3937","TFTDAADTDFFTFTTDAFFDATATAFFTTDTFADTFTAAFDFDDAADFTATATAADFDADTATFA",667,1
"Temetirce","McPherson","410 Harmon Ave","","Carrollton","GA","30117-3937","ATDDDAFTFADTFDTDFAAAFFDAFTFADTFTTFTTTADAADFDTTFFDDAATDTFAFDDFDTTF",668,1
"Jennifer","Parker","105 Mara St","","Carrollton","GA","30117-3944","FDATDADTAAFAAAAFFDTAFTFTADATDTFAFFDADDFTDFFTTFDADAAAFATADTTTTFTFD",669,1
"Katie","Hall","102 Mara St","","Carrollton","GA","30117-3945","DDATFTTFAAAAAATDTFDTADTFAFTTATAFDDTFFAFADFDAATDFTADFTADAFFDAFFFTF",670,1
"Shonda","Smith","118 Mara St","","Carrollton","GA","30117-3945","FFTTFADFFTATFADFFFTTADFADDFDTTDADFDTDDADDTADADTFAFFADAATDFDFFATAF",671,1
"Carrie","Fuller","124 Mara St","","Carrollton","GA","30117-3945","FFAAAFTFTDAFTFDTDDTDDTDDAFFTAFDAAATTDAAFFTTTDFTTTFTDAFTDFDDTTADTT",672,1
"Joyce","Gray","210 Mara St","","Carrollton","GA","30117-3947","AFFTDTDDFFAFAFADTDTTFDTADDADATTFTDTDDDADFTATAFDFAFFFDFTTFTDDFAFDA",673,1
"Tara","Nesby","809 Fertilla St","","Carrollton","GA","30117-3948","TFFDAFDDFTFADDFATDAFDDDTTFAFAAFAFTFDTTFDDTATFAFTFFFDFFADDTFTFAFFF",674,1
"Melissa","Bell","110A Ridgecrest Ave","","Carrollton","GA","30117-3949","AAATFDAFDFTDDDATFAFTTFTADTTATFATFATTFFDFAFDDFDFTFDTDATTDADAFDTDDF",675,1
"Amanda","Samples","111 Austin Ave","","Carrollton","GA","30117-3954","FATTATADFADTATAFFTAFAFAFDTTATTFTFFATFDDFTFAFADDAFDDADDADTADFATADT",676,1
"Betty","Brewer","111 Austin Ave","","Carrollton","GA","30117-3954","DAFDFFFADATFDTTTDATATAFAATADFATTDTFFATDDAFDTFATDDDADFDFTATTFFTFFA",677,1
"Bruce","Hawkins","110 Southside Ave","","Carrollton","GA","30117-3955","DDTFFATTATFDATTFFDAFFDTFDFFADTAAADTTAFAADFTFAAFAAFFATFAFDFADDFAFA",678,1
"Arnetta","Turner","118 Southside Ave","","Carrollton","GA","30117-3955","TDAFFFDDATFATFTTDDTTTDFADFTAFAFATTFFDTATFDFTFTDDDATDDFTAFDDFFFDFA",679,1
"Marlon","Frederick","701 Fertilla St","","Carrollton","GA","30117-3960","ADFDFATDAAATAAAFDFDDADTTAFDTTTTAFDFAATAADFDDATDADFFAAFFAFAAFFFAAA",680,1
"Jason","McCutcheon","709 Fertilla St","","Carrollton","GA","30117-3960","TFFFDFTFTFFDDDDADFTFTTDTFDTDTFDAFTFDAAAFFTDDFAFTTATTAFTTFDDFDATFA",681,1
"James","Clark","806 Fertilla St","","Carrollton","GA","30117-3962","FDFTADDATDATDFTAFFADDDAFFDFTFATADAAAATAADTATFFFDDFFDFFAAFTAFDFAAD",682,1
"Martha","Stapler","327 Adamson Ave","","Carrollton","GA","30117-4001","TTTTFAFFTDDFFDTDTAADAFFDDADAATFDTFAADDTATFAATFDAFDFFFTFATAFTDDDTT",683,1
"Brenda","Shipley","316 Adamson Ave","","Carrollton","GA","30117-4002","ATDAAFFADDDDTFFATADTDFDAATAFAAADTAFTDADTTADFDFTDFDFTFTAFTAFAADAFF",684,1
"Clifford","Witcher","322 Adamson Ave","","Carrollton","GA","30117-4002","FDDDTDDFATFTDFDTDDFATDDATFTAAFFFTTDADTATFFADFTTTAFFTAATADDAFTFTTA",685,1
"Brandy","Ackey","407 Adamson Ave","","Carrollton","GA","30117-4003","TDAATATTAFATADFFFFFAFDAADDDTTDAAADAFDFFAFADDADAADATFTFDADFFTAFATF",686,1
"Barbara","Montgomery","435 Adamson Ave","","Carrollton","GA","30117-4003","FFTDFFDDFFFATFTATDDADTAAFDDTTAAFFTFTDDADDAATFAFTFFTTTAADDFDAAAFAT",687,1
"Mollie","Martin","443 Adamson Ave","","Carrollton","GA","30117-4003","FATFDTFDAFTAAFDDDTFFAAFTTTFDTTTDDDFATDTDAFFTTAFFADAADDDTTTADTTFFA",688,1
"Albert","McGee","451 Adamson Ave","","Carrollton","GA","30117-4003","TFFTDATFFTATFDFFFFFFADADDDFDADAATDTFDAAFDAADTAFFDAAFFFTTFDAFTATAA",689,1
"Willis","Moten","406 Adamson Ave","","Carrollton","GA","30117-4004","DFDADADFADAFFDADTFFTADAFDDFFFDTFTDAFAAFFDDFTTAFFFAFATFATFDATDADAD",690,1
"Brandy","Walker","422 Adamson Ave","","Carrollton","GA","30117-4004","DTDFFFFADTTFDDDTDTTDDAFFDATDAFTDDTTFFFDAAFTTDFFDFDDTADAAATFDDDFFT",691,1
"Wayman","Flynn III","438 Adamson Ave","","Carrollton","GA","30117-4004","TDTDAFDTTTAFDFFADDFFDTADFFAAAAFFDATFFFAAFFAADAATAFATAADFFADATFDDD",692,1
"Douglas","Aultman","458 Adamson Ave","","Carrollton","GA","30117-4004","FATTDFFTDFDATTFTDTDTDADFFAFAFADTTTTFDDTFTDTTFDFDFTFTDDTDADTDFTDFF",693,1
"Eddie","Satterwhite","507 Adamson Ave","","Carrollton","GA","30117-4005","TFATATTTATFAAATDAFDTFTTFDDDFATAFFDATFAFFFDFATFTATFAFDADTFAAFAAADF",694,1
"Tammy","Parks","502 Adamson Ave","","Carrollton","GA","30117-4006","FADADTFDATTAFTDDTATTFADDAAFAFTTTAFFTTADDAFTTTFTFDDDFTDADATTTDTFTA",695,1
"Ismael","Orozco","120 Adamson Dr","","Carrollton","GA","30117-4008","ATATTAATFFDDAFDFTTFTFFDDFTTTATATFFTTATDAATAFTATADTDFADFAATFDDDFFF",696,1
"Alan","Strickland","150 Adamson Dr","","Carrollton","GA","30117-4008","FTAAADATDFDTTTTTTTTADFDDDADAAAFTFATDFTTATFTDFAATTTTDADFAAFFADDDAD",697,1
"Cassandra","Goldin","616 Adamson Ave","","Carrollton","GA","30117-4010","ATDFDFFTDATADAFADAAFDAFDATAADFTTATFTFDDTAFDTDDFTFTDTATTATTTDTDTTA",698,1
"Bryant","Brown","618 Adamson Ave","","Carrollton","GA","30117-4010","FTDDTDFDFDTATAAADTDATAADATTTTFDDFTDAAADTTDFTDTADFTFTTTDATTDFTDADF",699,1
"Brenda","Stegall","307 Bledsoe St","","Carrollton","GA","30117-4015","FTFTDAFFFTTTAFTFAATAAFADATAADDTTTDAFFTDAAFFDTAFFATFAADDFATDTDDADA",700,1
"Adrian","Almon","313 Bledsoe St","","Carrollton","GA","30117-4015","DDAAFDDDTTATTDAAFFFTTTDDAFDDTFDFATATTAAADDTDFFTTAATTTFDAFFAAAFATT",701,1
"Caroline","Johnson","315 Bledsoe St","","Carrollton","GA","30117-4015","DDTATATDAFFFFFTDTFADADFATDFDADFFDDFDFTFTFTTTATFFTATFTATADTAFDFFAD",702,1
"Stuart","Harborne","115 Canterbury Dr","","Carrollton","GA","30117-4017","ATFATAFDAFTFFADFFADDFAFFAATFATTTDFTATFTTTADTTDFFDTDFDDTFAFTAFDTTD",703,1
"Robert","Adams","117 Canterbury Dr","","Carrollton","GA","30117-4017","DFFTFADTDFAFADTFFDFDFDTFDFFAFTDFFFATFAFDDATTAAFFDADFTFFTFATAAAADT",704,1
"Charles","Todd","135 Canterbury Dr","","Carrollton","GA","30117-4017","AFFFATDFDTFFFADDFDDTFDADADDTADFFAFTDADFDFFATAATATATFAFATFTDTTAAFD",705,1
"Cyndy","Hunter","143 Canterbury Dr","","Carrollton","GA","30117-4017","DTDFAAAFADDDATDDTATTAFFATATDDDTDADDDTDDATDTFATAAADFAADFATAADFDFFA",706,1
"Trent","North","118 Canterbury Dr","","Carrollton","GA","30117-4018","ADFTDTTFDTAFFTDDDFADFTFADFFTTTTFTFFAFTFTFFTDAAFATADFFFTFDFADDFATD",707,1
"Jill","Hampton","122 Canterbury Dr","","Carrollton","GA","30117-4018","DTTADTFFFFTTAATFFTTAAFADDAFDADADDFADTTDAATFTADDFFTDAADFFAFDFADDFT",708,1
"John","Durian","144 Canterbury Dr","","Carrollton","GA","30117-4018","FFADTFTDDFFFDDTTTFDDDDDAAFTTTFAFTAFAFAFDDDTDFAATDAFDFFTTDDAADATTF",709,1
"Lurleen","Holland","102 Mallard Ln","","Carrollton","GA","30117-4020","ATDATAFDTATDAFDFFATDAFTDTTAFTDDDDFAAFADAADDDADDAADFAFDTAATTDADFFA",710,1
"Amanda","Riggins","104 Mallard Ln","","Carrollton","GA","30117-4020","AFDFDDDAFFFTDATTFDDATDFFFFFFTFFADATFDAFFDAFDDTTTFATTTADDFDAADAFAD",711,1
"Curtis","Buice","103 Mallard Ln","","Carrollton","GA","30117-4021","TTFDATFFFTTAFFTDFADTAFADTTFAFTDTTDAFFADAADATAADADDAFADFFTDADTDTFA",712,1
"Jennifer","Hooks","107 Mallard Ln","","Carrollton","GA","30117-4021","AAFAADFTDATADDFTAAFDTADDATFTFFADAAAATDDFATFTFDDTTDADTDADTADADTAAF",713,1
"Kristy","Daniel","109 Mallard Ln","","Carrollton","GA","30117-4021","DFTTAFTFAAATDDDTDFFATTTATDDFDADADTFAFFFDDFFDDTDTFFATFFTDFFFTTADDD",714,1
"Ryant","Russell","111 Mallard Ln","","Carrollton","GA","30117-4021","TDFATDDAATAADDAAADTFTTDFAFTFFFFFAAAADAFAFADTDFDTDADDTFTADDFAAFAFF",715,1
"Dianne","Daniel","210 Bledsoe St","","Carrollton","GA","30117-4022","TDFFDATDTTFAFTDDDFAFFTFTADAADTAAFDFDDAATDADTAADATFAFAFDADFTFFFDFD",716,1
"Belinda","Napue","210 Bledsoe St","","Carrollton","GA","30117-4022","ADTATDDAATADTTFAFDTADDADDDTDAADADAAATFAAFAAFFDTDAFDTTFTFFDDFAFTDF",717,1
"Denise","Vaughn","210 Bledsoe St","","Carrollton","GA","30117-4022","AADDAFFTFDDDDAAAAAATTFDDTATAAFFTTATFAFDFADADFDFDFDTTDTTTATFDATTAA",718,1
"Natasia","Means","210 Bledsoe St","","Carrollton","GA","30117-4022","TAATFTAFDDTAAATDTTTDAATTFAADDDTTADDTFADDTDDAAAAFDDFFDTDDTFADFTFTT",719,1
"Niesha","Harris","210 Bledsoe St","","Carrollton","GA","30117-4022","FTTAFTFATFTTADADFTDTFATFDTFDADTDFFTTTTDAATDFTFAFATDAATFFATTTTDADT",720,1
"Catherine","Cousin","210 Bledsoe St","","Carrollton","GA","30117-4022","DTFFAFADAFDFDDTADAFDDFDAATDADFFDDTDFDDDTTTATDTFTTTADTTAATADTDDFFA",721,1
"Miranda","Scott","210 Bledsoe St","","Carrollton","GA","30117-4022","DFATTDTFFAAFTFDATDDFTDAAFFDDDADFATFAFTADDFAADTTTDAFDDFADDFFADAFTF",722,1
"Darrius","Wilkerson","210 Bledsoe St","","Carrollton","GA","30117-4022","FFDDDADTDAFTFFFDAFFAATFFTFFAATAFTFADADAFFFDDTFDFFATADFFTFDAATATAD",723,1
"Ayeshia","Roberts","210 Bledsoe St","","Carrollton","GA","30117-4022","FFFADDTTTAAADDFTDFDADTFADDFFTATFDAFTTDADFADADFTDTADDTFFDDTTATAFDD",724,1
"Josette","Joiner","210 Bledsoe St","","Carrollton","GA","30117-4022","DFTFTADFAAFDADDFFDFFFDAFADDTFTFFFDAFDTAFDAADTTDFAAAATFATFADADAAFF",725,1
"Keila","Owensby","210 Bledsoe St","","Carrollton","GA","30117-4022","DTDTATFDFFTDFFTFAADDAFDFFADFFDDDTDTAFDDATDTFTTAAFTFAFTAFAAFTDDATA",726,1
"Raymond","Duru","210 Bledsoe St","","Carrollton","GA","30117-4022","FTADFFAADFDATFATTTFTTATATAFTTFADAADDADDTADDTDFFTDTTDDTFATDATTDFAT",727,1
"Porche","Dawson","210 Bledsoe St","","Carrollton","GA","30117-4022","TATFFFFFTDDTTTTTFTADDATDATATFFATFTTDDFDFTTDDFAFTADATATDTAATDFTAFT",728,1
"Shanta","Strickland","210 Bledsoe St","","Carrollton","GA","30117-4022","AAFAATATADTFFTAFDATTFFDTDTTFTDDTDFDATADDATAAADAFTDDFTTTDTTDDATFDA",729,1
"Marquetta","Richardson","210 Bledsoe St","","Carrollton","GA","30117-4022","ADADTATAFTFFAAFFTDAAADATTFTTTTFAAFFFAFATFFTTADDFDFTFDFTADTFFAFFAF",730,1
"Lateshia","Wilkerson","210 Bledsoe St","","Carrollton","GA","30117-4022","TDDTDDDDDTATDADTAFTFTTFDFFAFFATATTATFAAADFFFFATTFFFTFFDFFAAFFFATD",731,1
"Martha","Lowe","210 Bledsoe St","","Carrollton","GA","30117-4022","DDDDAFDDFFFDDFTAAFFDTDDFAFDAFFFFTTTFFTFADDTDDTFDFAATFAAAFFFTDFTAA",732,1
"Christy","Wyatt","210 Bledsoe St","","Carrollton","GA","30117-4022","FDATFTTADFAAAFADTDDTATTADFFDTDTFAFDTADFTFDFATFAADADFDAFFDDATTFDTT",733,1
"Gloria","Crane","200 Bledsoe St","","Carrollton","GA","30117-4024","TADDATFTTATAFFDDFATDAFTFFTFAFTTTADATFFTFAFDTTFTFADAAADATAATTATTDA",734,1
"Gabriela","Ramos","200 Bledsoe St","","Carrollton","GA","30117-4024","AAATFFAFAADDTFFADTATTADATTDDTAFTTAFFAATDTFAFDTDTTDDDADFDTTDTFTFFT",735,1
"Donna","Sanfratello","200 Bledsoe St","","Carrollton","GA","30117-4024","DTTAFFFAFTDFTTDAATFDDADDAATDFAFDDTAFDTTAAAAAFDDTFTFTFDDFAFFDTDTAT",736,1
"Janna","Ashley","200 Bledsoe St","","Carrollton","GA","30117-4024","FTFFATADDTTTFTFDTADTFFTTDAAATTTDFFFTTDTTTADDAATADTTFFDTATDADDDDTA",737,1
"Lucinda","Vaughn","200 Bledsoe St","","Carrollton","GA","30117-4024","FFATTATFTDFTAAADDDFAADFTTDADTDAFTFDDATFDDDFFAAFFTADFTATDDDTFDADFF",738,1
"Conzuelus","Armstrong","200 Bledsoe St","","Carrollton","GA","30117-4024","DFDDDDDTADAFDATAFFDFTTADFDTAFFDFATTAFTFFFDATFDADAAATAADTFADFTATDD",739,1
"Maurice","Dixon","200 Bledsoe St","","Carrollton","GA","30117-4024","TADFFDFTFATFDDDAAATDDATFFADAFADTFTAADATFAAATDDTDFDATDDFTAFFTATTTT",740,1
"Mattie","Watts","200 Bledsoe St","","Carrollton","GA","30117-4024","AAAAAAAFDADTADFDTTATFFDATAFDTTATDFFDTFTDTADFTADADDDFFDADTDATFTDAA",741,1
"Angenette","Haynes","200 Bledsoe St","","Carrollton","GA","30117-4024","ADFDTTTDTFATFFADDFTAADAADDFATDTAAFDTAAFTDDFDTAAATFTFAAAADDTAFFDDF",742,1
"Brittanee","Keith","200 Bledsoe St","","Carrollton","GA","30117-4024","TDTTDFDAAFFFTFTAFDAFTTFFADDDFFFATTTFFFFAFDTADDFDAFFTTAFFFFDAAFTFD",743,1
"Eunice","Houston","300 Bledsoe St","","Carrollton","GA","30117-4026","FDAADATFDAAAADAFFFFAFDTFDDDDATDATDDTDFATDFDTTATAFFAFFFFADDFFAFTAD",744,1
"James","Richardson","300 Bledsoe St","","Carrollton","GA","30117-4026","DDDFTDDTFAFDDDTTDDDFDTDAADFADAAAAATFTAAAFFAFDDDTDFDTFFAFFFAFFFDTF",745,1
"Betty","Lindsey","300 Bledsoe St","","Carrollton","GA","30117-4026","DATTAFFAAFTDTFDTTAFDTAAAFAFDDFTTDAAAAFDFATTDDDADTDTTTTATAFTDFTDFA",746,1
"Charlotte","Thomaston","300 Bledsoe St","","Carrollton","GA","30117-4026","FAFDFTADTFDAFFFFATDTAFFFTADAADFTFDFDFADDTTDATAFFADFFATFDTDDDATTDT",747,1
"Sydnee","Grant","300 Bledsoe St","","Carrollton","GA","30117-4026","AAFTTAADATTFFAADATAAAADDDAAFATTDDDDAFDTDTAATATTFATAFADTTTTTATTTFF",748,1
"Annie","Chandler","300 Bledsoe St","","Carrollton","GA","30117-4026","TATDDDFATTDTTATATATFTFTTAATTDAFDFATDATTFAADFFFDTTTDTADDDAADADTFDD",749,1
"Ida","Jones","300 Bledsoe St","","Carrollton","GA","30117-4026","TDDAFFDTDDATDTDADDADDDFTFDTFDFDFTAATTDFAFDFDFFADDATTDADAFAFTDFFAT",750,1
"James","Gilmer","300 Bledsoe St","","Carrollton","GA","30117-4026","ADAFATTFFDFFATFDFFTTFTADTDATADAFADFFDTFTDDTAATFFFAFFDATFDTATTFATA",751,1
"J","Smith","316 Bledsoe St","","Carrollton","GA","30117-4034","ATFFTDADTATFTATTFAADTATAATATTADTTAFDADTTAATTFTATTDTDTDDFTFATFDAAF",752,1
"Linda","Hall","316 Bledsoe St","","Carrollton","GA","30117-4034","TTTADAFAAADTFAAFDTTTAFDFDTTFFTATADAAFTTATAFFAFFFADFATDTAADFTADDTD",753,1
"Mary","Cochran","316 Bledsoe St","","Carrollton","GA","30117-4034","TFDDFTDTFFATATFFTFAAFDAFTFTTFDTADDTFDDFFDDDDAFTFFFAADATDFTDAAAFFT",754,1
"Catherine","Williams","316 Bledsoe St","","Carrollton","GA","30117-4034","AFATAFTFDFFFDTDTADTFDTFAFFAFTFFADADTTDFDFDAAFTDDDFDDFADTDATAFATDA",755,1
"Evelyn","Thigpen","316 Bledsoe St","","Carrollton","GA","30117-4034","AFTFATDFTFADFADDDDAFATFFADAAADDATFTDADFFFTADATTFAFTATADDFFAAFADAA",756,1
"Joan","Argo","316 Bledsoe St","","Carrollton","GA","30117-4034","TFFAFFTTAFFATAFAFFTATDAADDTFDFAATTDAFTFDDTDAFFDTTFFDTATTDDFAAAATT",757,1
"Annie","Cochran","316 Bledsoe St","","Carrollton","GA","30117-4034","TTADDDAAFATADTAAATATDFDATATTDATTFTFFDDTTTFFTFFADDDADDDTFTDDTADTFD",758,1
"Benita","Young","316 Bledsoe St","","Carrollton","GA","30117-4034","ATDTTAFDDADDATTDTATDFADFFAADATFTDFATTTTAAFTFATFAFDDADDDAAFTTFDFDF",759,1
"Louise","Brown","316 Bledsoe St","","Carrollton","GA","30117-4034","DAFATAATTTDFAFADFADTAADTDTFDDTFDTDFTFATDTATATDFATTFFADFTTTADTTATF",760,1
"Jean","Parker","316 Bledsoe St","","Carrollton","GA","30117-4034","FATFDDFFATTTTFTADAFDTFDDATDAAATDAAAFAFTFAAFDDAADATTTTDADAAFDDTDAD",761,1
"Charolette","Brown","316 Bledsoe St","","Carrollton","GA","30117-4034","FDDTFFDDFDFTDDDATDDFDDADFFDDAFAFDATATAFAFDDFDADDFADTDAAAFFDFDFFDT",762,1
"Elisa","Hernandez","519 Adamson Ave","","Carrollton","GA","30117-4036","AFTFAFTTFAFTTDFADDTDDDTDAFTDDFTAAAADTFAFFAFDDTFTDFATDFTDFDADTAFAF",763,1
"Shonell","Ackey","594 Adamson Ave","","Carrollton","GA","30117-4038","DDAAATDAFAAFFAFFFFDTFDFTAFDAFDAFTDAFTFFAFTATTDDAFFTFDFTFDDTFTFTAT",764,1
"Donnette","Barnes","362 Strickland Rd","","Carrollton","GA","30117-4045","TTTTFFADADDDTFATFAADDAATDTTTDADTFAFDFADATFTFDDDDTTDTDTTATDDADDFDD",765,1
"Terrence","Beavers","110 Mitchell Cir","","Carrollton","GA","30117-4047","FFDDATTADDADFFFDADFTFTFTFDFFTDAFDFTAFAFFFFFDADTFDADAAFADFADTTADFT",766,1
"Rita","Gibson","112 Mitchell Cir","","Carrollton","GA","30117-4047","TTTFDTADATDDFATFATTFAAFAAAFDDTATAFAAFTDAATTDTADADTTATTTAAFTTTDFTF",767,1
"Larry","Shoemake","101 Mitchell Cir","","Carrollton","GA","30117-4048","TTFTTAAADADTFDTFFADTAADFDTADDDTDFDATDATAAAAFADFAFTDATDAAAFTTTDDFT",768,1
"Brandy","Shoemake","103 Mitchell Cir","","Carrollton","GA","30117-4048","AADDFTFFDDTAFTFFDTATFFATAADFFTDDAFDFDDTDADTTAFTATDDFFTDTTAFFDTADT",769,1
"Bobby","Stewart","2010 Maple St","","Carrollton","GA","30117-4102","DDFAADTTFFFTTFTTFFAFDDTDFFDDTADATTTDDTFAFTTFDDDTFFTDFAFFDDTFAFFTA",770,1
"Shea","Swindle","2014 Maple St","","Carrollton","GA","30117-4102","DTTTFAFDDTTAFAADTTFTAFDAAADTFDTDDFDATDDTTFDATTFATTDAADAAATTFADATF",771,1
"Christy","Williams","2018 Maple St","","Carrollton","GA","30117-4102","AFAFFTTTTFATATTDADFAATAFFFFFDDFFTFTAATFFFTFDAAAFFADFFADDDTTFAAFAA",772,1
"Lori","Blackmon","103 Briarwood Dr","","Carrollton","GA","30117-4104","AAATDTATADDTFDDDAAADAFADDTDDFTDTDDADFTDFTDADAAAFATDFDTTDTDAFFTTAD",773,1
"Gerald","Pilgrim","105 Briarwood Dr","","Carrollton","GA","30117-4104","ADDTATDTDAAAADTFDFADFTFTDDTFDTDFADDTTAFTDDAATDTFTATATFDAFFDTAFDFF",774,1
"Susan","Wood","113 Briarwood Dr","","Carrollton","GA","30117-4104","ADTDTDDATAAADDDTTFDATDFATFATTFFFAAFFAFFTDATTDFTDTFATFAAFFAAATFDFT",775,1
"Leigh","Jordan","119 Briarwood Dr","","Carrollton","GA","30117-4104","FAATDTAAFTTTADTDATFAFFFDDATTATDDTFTTTFDFAATFTDFAFDAFATTTTTFDATAAT",776,1
"Mary","Covington","123 Briarwood Dr","","Carrollton","GA","30117-4104","TATAADFDTDDFTATADAATDFAAATAFTADDDADTTTTDADATFFFDTDTTFTDDATADTTDTF",777,1
"Jane","Taylor","125 Briarwood Dr","","Carrollton","GA","30117-4104","DDFTTDTATFFDTAFTAFDATDADFFTDFFAAFAATTAAAFAFFFFFDAFFDFFFADAAAAFAAD",778,1
"Sally","Smith","110 Briarwood Dr","","Carrollton","GA","30117-4105","FFFTFADATFAAADFDDFFFFDTFTFDDDTAAFFFAFDFDDFDATAAFDAFFAFFDFDDFDADFF",779,1
"Judy","Duke","120 Briarwood Dr","","Carrollton","GA","30117-4105","ADTAFFTFTTFTDTFTAFDDDDFDAFTAFAFAFTAATAFADATDFAFDAFFDDFTADFTTAFDTT",780,1
"John","Godard","100 E Club Dr","","Carrollton","GA","30117-4107","DADDFAFAFDDAFDDFATDDAADTFTFATTFDDDFAADTDTFTAAFFFDTAATDADAFDAATTTT",781,1
"Mary","Maxwell","114 E Club Dr","","Carrollton","GA","30117-4107","ADTAFADDFDFAATFFADFDFTFTFFDDTDTFFDDAFTFTFDFATATFDATATFDFFATFAFAAA",782,1
"Leland","Gustafson","109 W Dunwoody Dr","","Carrollton","GA","30117-4112","DFADADDDFDADDAAAAFFTTDADTDFDTFFADAATTFAFFATFDFTTTADDDFTDDDAFTAFAA",783,1
"William","Smith","107 Dunwoody Dr","","Carrollton","GA","30117-4114","TATADDADATDFTFATDAATTFFTAADTDFADTTDTDDTDAAFADTFDFTATTDTTAATDATDTT",784,1
"T","Lovvorn","117 Dunwoody Dr","","Carrollton","GA","30117-4114","TFADADTAFFATTFFADDFADDAAADAAAAAATATAFFAFDDDFFTDTAFFTAFADDDFATATFF",785,1
"Lawrence","Anderson","122 Dunwoody Dr","","Carrollton","GA","30117-4115","DTTFFTFTADTTFDAFFTAAFAAFFTDDADFDDFAFDDTATTDDTTAFTDDFTDDATFFDADFAT",786,1
"Katherine","Middleton","107 Point O Woods St","","Carrollton","GA","30117-4124","FDDDDTTAADFTADDDTDDAATFADFFFADDAFFTDFAFADTADATTFTAAFAFTADTFTFFDDD",787,1
"Valerie","McEnery","104 Point O Woods St","","Carrollton","GA","30117-4125","ATAAAFFDTDDTTTFTATDTDADDTTDFAFADFTTDDADAATTFFDDTADATFTFATAADTDAAA",788,1
"Joseph","Cousins","106 Point O Woods St","","Carrollton","GA","30117-4125","AAAFDAFDTTTDFAADATDAAFADAAAAATFTDDTFAFDFTATDAFDAFDAAFDDTTAADDTATT",789,1
"Joseph","Garrett","110 Point O Woods St","","Carrollton","GA","30117-4125","FFADATDFATADAADDFFDDATADDFTFFTDAFFTTAFFFFAAFTDTFFFDAFFDTDADAAATDD",790,1
"Mandy","Maierhofer","206 Sunset Blvd","","Carrollton","GA","30117-4129","TTDTATAFAFDTADDFTATDFFAFATTTATADTFTDFDTATTFDTDAFDTFAADDATDAAFDDFD",791,1
"Kristen","Vance","210 Sunset Blvd","","Carrollton","GA","30117-4129","AFTAFATTAFFDADDDDDDFFTADTFDFATDAFFATADFFDTFDTDFADAFATAFTDTFTTAFTA",792,1
"Randy","Turner","218 Sunset Blvd","","Carrollton","GA","30117-4129","FDDDAFTFDAFDDTDTTFATDTAFDDTDFFAAFTAFAAAAFDFDFFFTTFFTAFAADADFDFFAT",793,1
"Debra","McDonald","222 Sunset Blvd","","Carrollton","GA","30117-4129","TATTAFAFTDTTTFTATTAADFDFDTATFATTTATDTATFTFDFDDATDDDTATADTDTTDTFFA",794,1
"Bill","Parrish","305 Sunset Blvd","","Carrollton","GA","30117-4130","TFADAFDDFAFTDTFTADFTTDATTFTAAATFTTADDTFFDTTFFTDDFAFTDFTTDDAAFAFTD",795,1
"Patricia","Gibbons","309 Sunset Blvd","","Carrollton","GA","30117-4130","DATDDTAFTDDFFTFDTTFFFAAFDAFFDTTTFDFFAFTDAFATATTFTDFFDDDDAFAFDTTDT",796,1
"Karen","Terry","315 Sunset Blvd","","Carrollton","GA","30117-4130","ATFFDAFTDTDTFFTFFTDDAADTDAAAFDDDDDATAATATFAFAFDFADDAFTAFTDAAFDDDD",797,1
"Louise","Martin","319 Sunset Blvd","","Carrollton","GA","30117-4130","AADDAAAFDADAFFFFDTTAFATFDTTFDTDDAFFDFATDTTTATDTFTTDFATDTAADTTTATF",798,1
"Ben","Butler","327 Sunset Blvd","","Carrollton","GA","30117-4130","DDAAFDDDFFADDDFAADDATTATAFDDAATFATTDTTAADFFDDTFDAFFTTAFFDFDTTFDDF",799,1
"Shelia","Butler","315 Briarwood Dr","","Carrollton","GA","30117-4132","DFADFATAAAFTFDFDADADFTAFADFDATAAAFTTFTAFFTTFAFFFFATADATTDAAFAAFTA",800,1
"Kelly","Skinner","308 Briarwood Dr","","Carrollton","GA","30117-4133","AAATDDAAAATTDFDTTAAADFFADADDAFDTFTAAAFDFTFTFFTFTDDATFDDTTDDAATDTF",801,1
"Justin","Neal","109 Fairway Dr","","Carrollton","GA","30117-4134","FFFFDDDFTDFTDFDTAFAFTDFDTFADFAFFTTTFDTFDDDFDDATDAAATAAADDADTFADFT",802,1
"Wylene","Daniel","111 Fairway Dr","","Carrollton","GA","30117-4134","DDDTFFTATDAFDAAATDTDDDTATFDADFFFDTDTDDAADDDTFAADTATDAATAFDTADFTTA",803,1
"Steve","Penley","119 Fairway Dr","","Carrollton","GA","30117-4134","ATTADAATTDTAFTTDDTTTAFTTAAFDTDTDAFDTADDAAAAATADADTAFTTAFADDDADTTD",804,1
"Lila","Rowell","127 Fairway Dr","","Carrollton","GA","30117-4134","FFTTADTTATFFDAFATDATTTDTDDADTAFFFADFFAFFDTDTFATTDADDFATDFFTFTATTD",805,1
"Michael","Hairston","133 Fairway Dr","","Carrollton","GA","30117-4134","DFTTAFTDATAFTFFADFAFDDDAAFTDTFTFTADTTDAFDFTAFFFDTAADTAFTFTDFFAATF",806,1
"Angela","Slappey","139 Fairway Dr","","Carrollton","GA","30117-4134","DDTADDTDTAFATTDTDDDATTDTFFATTFAFAAFDDFFAFFFADFFTTAFDDAAAFADFAFAAT",807,1
"Abigail","Curvino","124 Fairway Dr","","Carrollton","GA","30117-4135","TDFTDTDATDFTFTTDAFFAFTADFDDATDFFDFFTTTFTDDATTDTAFAAFAAAFFDTAFFTDD",808,1
"Kathy","Strickland","128 Fairway Dr","","Carrollton","GA","30117-4135","TFFADDDTAAFTDATTFFDADTDFDDATTATAFAFFTDFDFTATFDFTFAADDFTTFADDTAAFT",809,1
"Barney","Britton","134 Fairway Dr","","Carrollton","GA","30117-4135","DTTDDTATTTTFFAFDDTAFAAFADAATADTTTFADTADAAAFFTTDADTTAFTAFTDTDDDDAF",810,1
"Andrew","Mills","136 Fairway Dr","","Carrollton","GA","30117-4135","ADAFFADAADADATADAFDTATAFADTDTTDADDFATTATFTTAAFTFFADFAFAAFTFTAFADA",811,1
"Joe","Parrish","140 Fairway Dr","","Carrollton","GA","30117-4135","DDTFDATDFFFFATDDDFFDATTTDDFAADAFFFTATFAADFDDTDFATFDAAFDADADFTFDTD",812,1
"Todd","Young","125 Shady Ln","","Carrollton","GA","30117-4136","ADFTTTDFFDFTFADDFDADFDFFDDTTFTTATFTFTFATFTDDTDFATFDFAATFDDTFFFFFA",813,1
"Lindsey","Roenigk","427 Sunset Blvd","","Carrollton","GA","30117-4138","ATDFTFFATDDTTAAAATFFDATDDTFAAFTTATDDATDTATAADTDDFTDDFTDFADFTDDTFF",814,1
"Stacy","Martin","404 Sunset Blvd","","Carrollton","GA","30117-4139","TDADTFDTDTFDDDDTADTADTDDTDFFAAFATADDFTFTFDDFDDDTDFFTFAAFDDAAAFDFF",815,1
"William","Johnson","416 Sunset Blvd","","Carrollton","GA","30117-4139","DTFADAFADDDDFFTFFAAFFAAFFADTADATFDDAFDTTAFDDTDFFDDDADDFATDDFADDAA",816,1
"Gary","Cottrell","104 W Club Dr","","Carrollton","GA","30117-4140","ADDDADDADTFTDFDTFFDFDDDFFFATTAAFFADDDAFTDFDFFFFTAAADFADAFDTFFFTAD",817,1
"Dalenie","Jones","110 W Club Dr","","Carrollton","GA","30117-4140","FDAFAFTATDFFDFDTDFAADTTTFDTDAFFFDATTFTAAFADADDFDTADTDAAADADTFFFFF",818,1
"Genevieve","Reid","310 E Club Dr","","Carrollton","GA","30117-4142","TFADTTDFATFTFFTFDFTTADDFFFFDDDFAAFDFDFADFDTTAFFFAATFAATTFADTTADFT",819,1
"Swede","Sullivan","320 E Club Dr","","Carrollton","GA","30117-4142","DFDFTDDFDDFADAAATDFFTDFAFFATDFDFFTFTDDAFFTTTDTFTDFDDAFADDAFDAAAFD",820,1
"Ned","Harman","326 E Club Dr","","Carrollton","GA","30117-4142","FAATTAADAFTDAFADFTAFFFTDFTFAFDFDADTFADTDTFDFAATFADFATDDTAADDTTFAA",821,1
"William","Carter II","366 E Club Dr","","Carrollton","GA","30117-4142","ATDADAFFDFTAAADFTAADFFTTATTADDTDFDFTFFDATDDTATFFTTDFDDDATATAFDAAT",822,1
"Monica","Bekken","202 E Club Dr","","Carrollton","GA","30117-4143","DATFAAATTDTFAAAFFATFFADTAADFTDATTDADTADFADDDATFADDDAADDDTDFTDTDTT",823,1
"Raleigh","Mecklin","2030 Maple St","","Carrollton","GA","30117-4144","AFAFDDTFAFADTADTFDFFDDADADFTAFFFFTFADFADFFAFDFTTFFDTDAATDATDTAFTD",824,1
"Joseph","New","368 W Club Dr","","Carrollton","GA","30117-4145","TFFTTTTFADFDFFTDFDDDFTAFFDTAFDAFADTDTTFDFDDDATTFTFAFFAATFFDAFADAA",825,1
"George","Specht","316 Briarwood Dr","","Carrollton","GA","30117-4146","DDTDAFDAAFFFDTDATDTFDDTTDDATTATATTFTTTFAFDFADFTTAATTFFAADAAFFFADA",826,1
"Sarah","Duffey","320 Briarwood Dr","","Carrollton","GA","30117-4146","TTTATFFDATTATDDTDAADDFFTDADFDAATTTDTDTTAAAFAFDFTATATTTDATADFADAFT",827,1
"Martha","Goodson","102 Bon Air Ln","","Carrollton","GA","30117-4149","FTDDFTFADFTFATDFTATAAFAATTDFDDATFDTTFTTAADATATTFFTFFTDFATTTFADAAT",828,1
"Blake","Collins","110 Habersham Pl","","Carrollton","GA","30117-4151","FTFTAAFDTTDTFDFFAATFFADAFAAAFDDDFDADAFTTAFDFTTDFADFFDTFFTTAAADDDD",829,1
"Alan","Talley","112 Habersham Pl","","Carrollton","GA","30117-4151","FTADDTFAADTDFFDFAAFAAADTTTDAATDTDDAFFFDTTATDADTFATFFDDFATFDAADDFT",830,1
"Jim","Cooley","114 Habersham Pl","","Carrollton","GA","30117-4151","DFTADTTDADAAATFDDDTDFDDDAFFFDTAFDDFADFFFDTAAADDATAAADAFTFTFDAAAFF",831,1
"Newton","Jennings","116 Habersham Pl","","Carrollton","GA","30117-4151","TTDFFDAFFTDFTAFTDATATAFFTADTDFDDFAFDFFDAAFTADFADTTTTDDAAATATDDAFD",832,1
"L","Windom","202 Habersham Pl","","Carrollton","GA","30117-4152","DTDTFFAFAADADTDADAFTTFFDDAATDFTTTTFADFDAAFDTDTATTDDDDTFATDADFDATT",833,1
"Michelle","Hagan","208 Habersham Pl","","Carrollton","GA","30117-4152","TTADTDFFDFTTDAFTAAAFTFDATATAAAADATTAAATTTAFDFDTTATFTDTDAADTATDDAA",834,1
"Sally","Bobick","201 Habersham Pl","","Carrollton","GA","30117-4153","FATFTAAATTDAFDFDDTDFFFFFFTFATTTTFFTAFFDFADTFTADATTTAADADTFFTATDFT",835,1
"Daniel","McKinney","207 Habersham Pl","","Carrollton","GA","30117-4153","DFDFDTTDAAAAFTFDDDDDATFDFDTFTDFFFFAFTAAFDAAFADTFTFDADFTTDADAFAFFD",836,1
"Johnny","Eady","114 Shady Ln","","Carrollton","GA","30117-4156","TFTFTADAADADADFDAFDAADTTTFTTATFFADDATDADFDDTTFDAAFFFDFATFADTTAFDD",837,1
"Frances","Robinson","103 Habersham Pl","","Carrollton","GA","30117-4160","TDFFFFTTDTAFTFAATDTTTDADTFDTTADAAATTTAFADADAFDTTTAFTAAFADDTADFFFA",838,1
"C","Perry","111 Habersham Pl","","Carrollton","GA","30117-4160","DFFTFFTTDFAATDATDFDADTDFFDDTDFTFDAAATAAFDDDTDATTTAATTFATDDDFAAFTD",839,1
"Thomas","Reeve","344 W Club Dr","","Carrollton","GA","30117-4163","TFFADFDAFAATTDFATFDFTTTAAFTADFDAFADAFAFDFFTFFADDFFDDAFDTFDDAFADFD",840,1
"Susan","Fleck","354 W Club Dr","","Carrollton","GA","30117-4163","DFTTTADFADFAFFFFTDTTATFDTDFDDTAFDDTADDAFDTTTTDTADATFTFADDTFTTAADD",841,1
"Page","Colpini","103 Sunset Ct","","Carrollton","GA","30117-4165","FTFDADFFTTTDTDATTAFDDAAAFTFFFATTATFTAATTAADDDAFDATTDDTFAADATFDADT",842,1
"David","Rooks","104 Sunset Ct","","Carrollton","GA","30117-4165","DFFTFDDFFDATDFTATFDFTDTAFFDDFFDAAADTFFADFFFDFFTDAFADTFTTFADADATTD",843,1
"Laura","Smith","107 Sunset Ct","","Carrollton","GA","30117-4165","TDFTFADAAAADFFADTFFAADFATDDDADDAFFDAATATFTTFTDAFAATFDADAFAATTFAAA",844,1
"John","Engel Jr","109 Sunset Ct","","Carrollton","GA","30117-4165","TDDFTFTFDTFFDAAAADFFDDADAFDADADFAATAFTFADTFAFDADTAFTDFDFDATTFFFFA",845,1
"Elizabeth","Ayers","110 Sunset Ct","","Carrollton","GA","30117-4165","DFAFTDDFAFATDDATDDFDTDFAFDFFFATAATFATDADDDDDDAADFFTDTADDFDAFTATTA",846,1
"M","Head","111 Sunset Ct","","Carrollton","GA","30117-4165","DDTDADTDDDFADADTFFAATDTFDFDADFTADATTTFFAFADADTTTDAATDATADTTDTFFDD",847,1
"David","Mecklin","403 Briarwood Dr","","Carrollton","GA","30117-4167","TDAATTDTAAADFDTFTFDTATAFFFADFTTFTDTDFFFTDADFTDTAAAFFAAAADTAAAFFDD",848,1
"Charles","Adams","102 Golfview Ct","","Carrollton","GA","30117-4203","DFDAAATTTDAFFAFFAFFFATATFFFFFDTFFDTTTFFFFFTTTFFAAAFAAATDDDDADATAD",849,1
"Deanna","Morrow","105 Golfview Ct","","Carrollton","GA","30117-4203","DFFTFTDTFAFFFTTFTFATFTFATFAADDFAFFADFDFFDFTATAAADAFFAFADDATDTATFA",850,1
"Tim","Paul","107 Golfview Ct","","Carrollton","GA","30117-4203","DTFDTTFDFDDFADTFDTFFFAAATADTDDATAFAAAATAAFAAAFDFTTDFDDTATATDDDAFD",851,1
"John","Grillo","111 Golfview Ct","","Carrollton","GA","30117-4203","FFFFDFDFAAAATTTATFDFTDDAFFFTDFFAFTATTDFFDATADFDDDAADTAFDDAADAAAAT",852,1
"Wyche","Green III","143 Griffin Dr","","Carrollton","GA","30117-4204","AFDDTATADTAFFFFFADFAATDADFADDDAATDAADDAFFAFATFAAFFFATADTDFDFTAFDD",853,1
"Laura","Lenaeus","122 Griffin Dr","","Carrollton","GA","30117-4205","ATTTADATFTDDDTTTFTDFTFAFATDFAFFTFTDTTFTTATTDFFTTDDADTTFFAAFTFDFAF",854,1
"Mandy","Anderson","142 Griffin Dr","","Carrollton","GA","30117-4205","FTDDDAAFTDTTFTFDAAAAFFTFTTDTFDTDTFDDDFDTAFFFTTDADDTFFDDFATTFFDFFA",855,1
"Kimberly","Culwell","229 Griffin Dr","","Carrollton","GA","30117-4206","TTTFDDFDAADTDDFATTTTDATFDAFAAAADDTFDAFTTADTFDTDTDDADTTFFADTTDDFDT",856,1
"Shannon","Lipham","204 Griffin Dr","","Carrollton","GA","30117-4207","DDTATADTTFATAATFADFDATDTDFATFDDATFATFTFTFFFFATTAFAAFFFTAFFTAFFFFF",857,1
"Rick","McMillan","232 Griffin Dr","","Carrollton","GA","30117-4207","AATFDTAATTDFFDTDDATAFFFFTTFATDDDADAAAFDFATTFTFTAFTAAFDTDTTFADTTFD",858,1
"Arnetta","Lankford","301 Hays Mill Rd","","Carrollton","GA","30117-4212","DATFADFTFDDDTDAATTTTDFTDTTFFAAADDTFATFDDAAAFFAATATFDATTDTATFFTFFF",859,1
"Yvonne","Brewer","301 Hays Mill Rd","","Carrollton","GA","30117-4212","TATADFFTDATTTTFTTTFADAAFDTTAAFDTDTDDTDTDATFDDTDTADADADFTTFDTDTDDT",860,1
"Michelle","Couvillon","301 Hays Mill Rd","","Carrollton","GA","30117-4212","AAFFTTAFFADFFTDFAADFFFFAATADDDATFFTADTTFTTTATFTATDDAADADADTTTTTFA",861,1
"Jeremy","Reid","301 Hays Mill Rd","","Carrollton","GA","30117-4212","ADATAATDAFAFAATFFDFDADTAFFAADTTATFAFFDFADFATTFFFDFTADAAAFDAATFTTF",862,1
"Willie","Smith","301 Hays Mill Rd","","Carrollton","GA","30117-4212","TDDDFDDATFFTDAATDFDTTTDFTFTDAAFAATFTATFTFFDFDTATFFFDDAFFDFFADFFAD",863,1
"Joy","Lindsay","301 Hays Mill Rd","","Carrollton","GA","30117-4212","FFFFFDTFDDFADDTTAFTDDTDTADDDDAFFDAATDFFFDAFAFDADTADTTADDFTDFAATFD",864,1
"Davis","Wright","308 Hays Mill Rd","","Carrollton","GA","30117-4215","FFADATTFTTAAFFDDADADATTAFDFDDTFFDFADFTAFFDFATDTADFDFTFFTDFDFDAATT",865,1
"Kasin","Parian","112 Hillcrest Rd","","Carrollton","GA","30117-4219","FTTDDAADFTDAFFFFTTFDFAAAATDFTDDTTFAFTFDAAATDTADADDAFADDATDDAADDFT",866,1
"Adam","Morris","114 Hillcrest Rd","","Carrollton","GA","30117-4219","FATFATAFAFTFATTFDTAAAAFATTFDTTTDTFTTAFTFTTTDTFTADTDFDTFDTFDDTTFTF",867,1
"John","Jackson","132 Hillcrest Rd","","Carrollton","GA","30117-4219","DTTTTTADTFDAAAAFDTTDAADTDTTFDTTTDFADAATAADFDAFFFDTFFFDDFTTDDTDDFD",868,1
"Sarah","Napper","120 Howell Rd","","Carrollton","GA","30117-4221","TFATTTDDTDADFFFFFFFTFTADFDTTFDAFFDTADTFDDTAFAFTATFAFTFADFFDFAATDD",869,1
"Amanda","Liston","138 Jewell St","","Carrollton","GA","30117-4223","AATATAADATDFATFDTTTFAAAAFTFFTDTTFDTADADFTFDAAAFFATFAFTADATDTDTFDF",870,1
"Megan","Bain","1205 Maple St","","Carrollton","GA","30117-4226","AATATFFFATTTTDTTFTTFDFTFAATTFADDFTFFFDTDTDTDDDTDADDTDTDDAFTTATTAT",871,1
"Stephanie","Tullis","1205 Maple St","","Carrollton","GA","30117-4226","DTATTFAAFATATAATTTDATFTTTTDTTADTAAAFTFTAATATFTTTDTFDTTFFTTADDDFFT",872,1
"Christopher","Herrington","1205 Maple St","","Carrollton","GA","30117-4226","FTDDDTFDDADDFATFAAFFAADDFTFFFTATTDFTDATTTTDFAFDFFTTAATAAAAFDTDADA",873,1
"James","Daniell","115 Pinecrest Pl","","Carrollton","GA","30117-4234","FDDADTTFFDAFFFTDTDTAATFFDDDFATTAFDTTDDAADDTAATFFTFAFDAAFDTFAFFTDA",874,1
"Susan","Whiten","102 Pinecrest Pl","","Carrollton","GA","30117-4235","TAAFDDFTTTDDDDTTDTTTTAADTAAAFFFTAATADATDAADFDDATADDDATDTADADATTDF",875,1
"Leslie","Carter","114 Pinecrest Pl","","Carrollton","GA","30117-4235","AATAAFFDFTDATTFTDTTFTADATTFTDFTDDTATATDFTDTDFTFDTTFDFTDTTFFFDTAAA",876,1
"Alton","Trammell","1126 Maple St","","Carrollton","GA","30117-4236","DAFTTDAADTTTTTTTFTDATAAFFAAADFTTFTFATFDDTDFDDFADATATDDTTATFTFTFFD",877,1
"Ernest","Jeffries","1126 Maple St","","Carrollton","GA","30117-4236","DDAFAFTTTDFTDADTAFFTDTDFADADDAAATTDFAAATDADFDFDDFAFTTATFFTDAFFFTT",878,1
"Jayashree","Shingade","101 Bluebird Ln","","Carrollton","GA","30117-4239","DFATFADAAFATFDADFFTDFDDDADTTFTTFDDDTFFADDTFAAFAFTAFATFADFFAFTADAT",879,1
"Rodney","Arnold","75 Old Mill Ct","","Carrollton","GA","30117-4247","DFDAFTTAAAFFFDADDFTDFTTTFDDAADFFFDATAAFFDDTATFTAAATAAATDFFADAATDD",880,1
"Teddy","Cantrell","79 Old Mill Ct","","Carrollton","GA","30117-4247","TTDTAAADAATAFFFDTATAFAFTDAAFFDDDDDTAADDAADFAAAAAADTATTDAATFADDAFT",881,1
"David","Fincher","81 Old Mill Ct","","Carrollton","GA","30117-4247","DTADADFFAFDTDTTTFATATFFDATFDTFTDDADFADDTAAAFFDTDTDDDFDAFTTDTADDFT",882,1
"Page","Goodson","87 Old Mill Ct","","Carrollton","GA","30117-4247","ATTDDAAFTTTAATFDDTDDAAFTATTTFDDDAFADFTTATFDTTDTAATFAATAFATFDFDADA",883,1
"Randy","Jones","74 Old Mill Ct","","Carrollton","GA","30117-4248","AFFDDATFTAFFFAFFTFTTFDFTTDDFADTAADAFDDFFDFDTTTDATFFATFTTFTFFAATFA",884,1
"Bob","Wortmann","96 Old Mill Ct","","Carrollton","GA","30117-4248","FADAAAFDAADDFAFFATATFFTFDADTDDATDDFDFADDTFTDTTTAFDTFADADTDTTATFAF",885,1
"Charlotte","Born","120 Bowen St","","Carrollton","GA","30117-4254","FTADTDFFFTDTDTTATTDFTFAFDTDTTAFTFATFFADTTDTFFDDTFDDDTDAAAFTADDFTT",886,1
"Darlene","Davis","144 Bowen St","","Carrollton","GA","30117-4254","DFFTATDFTDADFDDDTFFFFDDFFDATDTAADFTAAAFDDTFDADAAFAFFDADTFDDFFAFAF",887,1
"Zehavit","Levy","135 Bowen St","","Carrollton","GA","30117-4255","DAADATAADDTTFDDFFADAFFFDTTFAATADAFDTFTDDTTDAADDFATAFDTTTTFTFATDAF",888,1
"Kelly","Gowens","106 Rejen Dr","","Carrollton","GA","30117-4269","DDTDFFDFFAFATFFAFFFATTADFDATTADATTAFTFFADDTTFDDDTATTTFFFDTADDFATF",889,1
"Donna","Cook","233 Hays Mill Rd","","Carrollton","GA","30117-4272","AAAFFAATDFTFFDAFDTATFAFADAADADDDTFAFFDTFAFTAAFFAFTFFTDTDAFTTTTFAA",890,1
"Felton","Smith Jr","233 Hays Mill Rd","","Carrollton","GA","30117-4272","TADAADFFFFDTTDTTFATDDFAFAATADFADATFTATTDTFFDFTADDTTTTDDTTDDTDTTTT",891,1
"Matt","Grieshober","233 Hays Mill Rd","","Carrollton","GA","30117-4272","DADFDFFFDTTDTTDAFAFFDATDFAFFDADTATDFAADDTDAFDADDDDDTTTADTTTFFTAAF",892,1
"Cindy","Prus","201 Hays Mill Rd","","Carrollton","GA","30117-4273","TFTFATDAFDFAFADDAFDAFDTATDAADDAATFFDDDAFDDADADAFTATFTAFDDDTTFADTF",893,1
"Bobby","Boykin","201 Hays Mill Rd","","Carrollton","GA","30117-4273","TTDTTAFTATTAATTDFTFTAFFADAADDTTTFFDTFTDATATFADDFDTDFDDFATTAAFDFFA",894,1
"Erin","Carlisle","201 Hays Mill Rd","","Carrollton","GA","30117-4273","ATADDDAFTTDDDTAADADDTAAFAATTAAFTFTTFADDTAAFTFATDFTATFDAFAAFAADTDT",895,1
"Elyse","Summerville","201 Hays Mill Rd","","Carrollton","GA","30117-4273","DATFDDFADADFDFTAAATTDAATTTDTDAFDAADFDFDFTFFDDFTDTDTDTDTDTDDFDTDTT",896,1
"Jennifer","Gaddie","201 Hays Mill Rd","","Carrollton","GA","30117-4273","FAFATAADFATTAFADTTADFFFDFTFFATTDTDTTTADDAFTATTDFADFATDDTAATFTTAAA",897,1
"William","Leslie","201 Hays Mill Rd","","Carrollton","GA","30117-4273","FDADATTFAFFTFDFDDDTFADDDAFFAADAFFDADAFATFTATTTAFFFAADADFFAADTFTDF",898,1
"Jaidah","Wynn","201 Hays Mill Rd","","Carrollton","GA","30117-4273","DDDTFFDTTFAFTDDAFFAATTTTDFDDDFDFDAFAFAAADTDFDFFDDFDDDATADDFDDFFFD",899,1
"Alison","Hibbard","201 Hays Mill Rd","","Carrollton","GA","30117-4273","DADAAFFTFFTATFDTAAAADFTTDTFDDFTDTAFTDATFTDTFDDFDTDDDATDTTTTDDTFAF",900,1
"Doretha","Hegwood","201 Hays Mill Rd","","Carrollton","GA","30117-4273","FAAFFTAFDFDDFFFFTTTFFADDATDAADFDADAFTFTDADDTTAAFADAAATTDAADDTTTTD",901,1
"Melissa","Floyd","201 Hays Mill Rd","","Carrollton","GA","30117-4273","FDFTDATDTAADADAFDFADATADFFDDATDFDDTAAAFTFAFATADAFFFAFFTAFAFFTFAFT",902,1
"Zack","Fraser","201 Hays Mill Rd","","Carrollton","GA","30117-4273","DDTDTDDAAAFADDTTFDTTTDFTTFFADAAFFADDFFFADATDDDTTDFTDFFDFDDAFDFDDA",903,1
"Douglas","Wright","106 Millstream Ct","","Carrollton","GA","30117-4275","DTTDFFFADTTTDTFTAADFDFTFATTFFFADFTTTTDTTTTFAFTFTDTFTDDTAADDATDTAF",904,1
"Whitney","Walker","112 Millstream Ct","","Carrollton","GA","30117-4275","DDFTTFTDADAFDAATDFFTTTATFDFTTFDFFTFADDFADFAFDTADAADDAATADAADTFDTD",905,1
"Kelly","Wilson","114 Millstream Ct","","Carrollton","GA","30117-4275","ATFFFTAAFTDAFDFFDADTAFDTDAAATTATDFDDADTATDDFTAFAFDAFDDAFTTAFDDFDA",906,1
"Patrick","Brunson","103 Millstream Ct","","Carrollton","GA","30117-4276","TFDFTTDADFAAAATDFDDAATDATFDAADAAFDFAFFAFFATFAFAFTAAATFADFATFTAAFT",907,1
"Patrick","Attaway","117 Millstream Ct","","Carrollton","GA","30117-4276","TDFDFFTAAAFDTTDTDFTADDDFFFATTFDAFAAAATATDTATDTDDFAFDFFAFDAFFFFDAD",908,1
"Jamie","Heward","117 Old Mill Ct","","Carrollton","GA","30117-4281","ADDFDDTADAAADFTADFDDTTDTTFFTAADADAATDFATFTFADFTTDFATAADADTDFFFTDT",909,1
"Ronald","Farmer","127 Old Mill Ct","","Carrollton","GA","30117-4281","FDFTDTDFADFFATDFFFFDATFFDDTFATAATFTFADFAFDDDAFAAFAFFAFAADDDADFDFD",910,1
"Karen","Linsey","155 Bowen St","","Carrollton","GA","30117-4284","TTTAFTAFTFTDAAFFTTADAFFTTTDDTTTTTFDDATTTADFATTTATTAFATFFTADFFDADA",911,1
"Eric","Brewer","460 Hays Mill Rd","","Carrollton","GA","30117-4285","FAAATAFDDADAAFDDAAFFAFAFDTTTFTFTAFDAFFTFTTTATTAAFTFFFDADAFFDTTTDA",912,1
"Jennifer","Heflin","460 Hays Mill Rd","","Carrollton","GA","30117-4285","DADFDDAAFATDDFFATTDATAFAATAFTATTTTTDAATDATFDDFFTDTTTFDFTTDADDTDFT",913,1
"Lawanda","Crowder","460 Hays Mill Rd","","Carrollton","GA","30117-4285","DDTTFFTTAFFDTDAADFFTDTTAFFATTFAAFTATTFFTFFDFDFTDTADTTAFFDDTFDFDTD",914,1
"Aliyah","Burr","460 Hays Mill Rd","","Carrollton","GA","30117-4285","FDFDATDFTFAAFDTDFDDDFDDFTFTFFDDADFFFDAFADFATTTDAAAAFTAAAFFDFTFAAF",915,1
"Willar","Shackelford","460 Hays Mill Rd","","Carrollton","GA","30117-4285","FDDAAFTFDFFTDFTTTDFDTDDADDTADFFATAAAFAFTDATFDTTDDAFTFAAFDFFFTFDDF",916,1
"Catherine","Mitchell","460 Hays Mill Rd","","Carrollton","GA","30117-4285","DDAFFTDTFFAFAFAFAFDTATTFADADADTAADFDAFFAFAFTTFDAFATFDAFAFDAFDFTFD",917,1
"Carol","Mullen","460 Hays Mill Rd","","Carrollton","GA","30117-4285","DAFTDAFAAADFFDFFFTFAFAFFFAAAATATDDDTTATFADDATFAFATDFTDFDADTDDTATT",918,1
"Dria","Henson","460 Hays Mill Rd","","Carrollton","GA","30117-4285","FATDTDADTATTTDDTDADFDFAATATDDADTFATFDFTDTDADDTFDTTATTDATTADDTTDAA",919,1
"Jeffrey","Young","460 Hays Mill Rd","","Carrollton","GA","30117-4285","TTAFTDFTDTTATAFTAATATFADATDFAADDTTDFATTAATTTFDFTFDTDFDTAADFTFDAFA",920,1
"Evelene","Crapp","460 Hays Mill Rd","","Carrollton","GA","30117-4285","ATDADAAFFTDDFADFTTAFAAFTDTFTDTADAFTTFDTTTTFFAAAADDFAFDDFTAATADDDT",921,1
"Delphine","Shines","460 Hays Mill Rd","","Carrollton","GA","30117-4285","AFTDFTTDADADATTFDFTDFTTTTFFFDDTFDFADDTFDDFDDAADFTFAAAADTDATAAAFAD",922,1
"Mortisha","Long","460 Hays Mill Rd","","Carrollton","GA","30117-4285","TFFTAFDATDFADTATFDATDDDDFFDTAFFFFTFATDFFFFAAFDTTAFDDTATDFTDAFAATF",923,1
"Georgia","Jackson","460 Hays Mill Rd","","Carrollton","GA","30117-4285","DFFDDDDAAAAFDDFAFDDADTFFAFADAATAFTDDTFAFFDDTDFFDAATDAFFTFTTDDATAT",924,1
"Angela","Green","460 Hays Mill Rd","","Carrollton","GA","30117-4285","FFTTTATDTAFTADDDDFFFFDAADFTADTFADFTADAADDDAFTTAATAFAAFADDADDTAFTA",925,1
"Annette","Myrick","460 Hays Mill Rd","","Carrollton","GA","30117-4285","FTDFATAFDFTTFFTDTTDDAFDATTTDDDDTAFAFFFDTTATDTTDFDTAADTAATAFFTDFFF",926,1
"Mark","Perry","460 Hays Mill Rd","","Carrollton","GA","30117-4285","DTAAFFFTFFDFTFAAAAFTTATFFTAAAFATTTFTAADAAAFADFTDFTDDDTFFATAFDDADD",927,1
"Linda","Henson","460 Hays Mill Rd","","Carrollton","GA","30117-4285","AATTFFADADDDTTTADAADDATTDAFADFADDAATDTDDTFFFFATDTDFTTTDDTFTAATDTD",928,1
"Patricia","Caldwell","460 Hays Mill Rd","","Carrollton","GA","30117-4285","TAFDATFATDTAFTADFTTTFFDDAADDADDDFDFFTDDFAFTTADDAADTFTTTTADDAFTAAF",929,1
"Jovita","Johnson","460 Hays Mill Rd","","Carrollton","GA","30117-4285","TDAATADTDTFAAAFDAFAAADADFDDAATFFTDDAADAAFTTAADAAFFDFDFTFFDFTFFADA",930,1
"Terri","Githens","460 Hays Mill Rd","","Carrollton","GA","30117-4285","ADDFDDTFFTADDADATDTFTTFTTDFDDATFAATDFTATDTFDFAFDDFATDFDADFATAFDFT",931,1
"Katie","Jones","460 Hays Mill Rd","","Carrollton","GA","30117-4285","FTDDFDAFAFTDDDTADTDDDADATAADDFTTFAADDADTTFFDDADDTTATTTFATATFTDFAD",932,1
"Tomeka","Baker","460 Hays Mill Rd","","Carrollton","GA","30117-4285","DTATAAFTTFDAADADFAFTFFTFFATAADFTDDFATFDAAFTATDTFATDFTTAFATDFDDATF",933,1
"Mark","Dubois","460 Hays Mill Rd","","Carrollton","GA","30117-4285","DFFFTTDADAAAFFFDADDAADFFADTDATDAADDFAAAFFTATTDFAFATFFFATFTFDDAAFA",934,1
"Erica","Jackson","460 Hays Mill Rd","","Carrollton","GA","30117-4285","FFTADFTDFAFDTFDATFFFTTAADDAADAAATATTFFADDTDFDAADDAFTFFFDDAADTADDT",935,1
"Jennifer","Puckett","460 Hays Mill Rd","","Carrollton","GA","30117-4285","TDATDFDTATFFTTFAFFAADTADFFFAAAAFDTDTTDAAFDFAFFATAFDDTFDFFTTTFFATT",936,1
"Arlynda","Schmitt","309 Old Mill Dr","","Carrollton","GA","30117-4288","DTDDAFADADDTDDTATATATAFADATTDAFDATTADFTATFFAFDFTFTTTDDAATATFTDAFT",937,1
"Winston","Horton","105 Alice Ln","","Carrollton","GA","30117-4301","AFADAFTATAAADDDAAFFATTFFDDATFADFDAFFDFFFDTFDDTFDDFFDFADDFTFAAADDA",938,1
"Jonathan","Gresham","131 Alice Ln","","Carrollton","GA","30117-4301","ATTTFTFDTTDTFTADTTTFAFTTTADATDTDDFADTATTTTAATDTAFDFAFTFATAFTTDAAF",939,1
"Christy","Johnson","106 Alice Ln","","Carrollton","GA","30117-4302","TFTTAFDDAFAATAFTDDDDTDTFDFTAAFAFFTDAAFFFDAFDDTFTAATDDAFDFAADFAFDD",940,1
"Erin","Brown","110 Alice Ln","","Carrollton","GA","30117-4302","FTFDDFATTTTDDTAAFAADDFDTDATATFADATATTDDTTDDAFFDDDDTTDTDATTAAFDTFF",941,1
"Beverly","Noell","114 Beaver St","","Carrollton","GA","30117-4305","TFFFFADTAAAAFFAFFFAAADAATFAFATAADFFDTFFFFAFTTTFFFAAFFADDFAAFTADTA",942,1
"Eleanor","Harden","116 Beaver St","","Carrollton","GA","30117-4305","FAAAAFFDTTTFTFTTFTDADATATAFDFADTDAFFAFTFADFADFFDFDFDTTFDADAADTFFA",943,1
"Sarah","Worley","105 Carter Ave","","Carrollton","GA","30117-4308","TDDDAATAAAADAAADDDDTFTDFDFTTTDFFFDTTFDATDFFTADTFTFTFFFFFDATFDFTTT",944,1
"Raquel","Adams","109 Carter Ave","","Carrollton","GA","30117-4308","TAATTTFDDTDAADADFTDFAFDATTFTFTDTAFFATDTFTDDFAFFAFDFATDATAFFAATFAA",945,1
"William","Perry","102 Carter Ave","","Carrollton","GA","30117-4309","AFDFTDTADFATDADTTDAFDDDDTDDADAAFATATFAFDDDFADFTDDFDTTFTTDTDATADDF",946,1
"Jeremiah","Granden","106 Carter Ave","","Carrollton","GA","30117-4309","TTFFTDFTFFDADFDAFADTDATATADDAFTTFAFFTDDATDADDTTDADTDDDAFATFAFDADF",947,1
"Lauren","Ballard","126 Carter Ave","","Carrollton","GA","30117-4309","FAFTTTFAFFDAATFDFAFFAFDATTADFDFTAFDTTATFTDFDTATADDAFADATAADTFTFFA",948,1
"Gary","Oneal","130 Carter Ave","","Carrollton","GA","30117-4309","TTTDDAADAFTDFFADTATTFFFFFTAFDDFDADTFAFDTTFFTAAFAFDTAADDATTTDDDTAF",949,1
"E","Turner","202 Ferndale Rd","","Carrollton","GA","30117-4314","DDAFFTTFFDFDFFTFFDDFADTFTFDDADDATFFTFTAAFAFFTTTAAADFFATAFTFATFFTD",950,1
"Bradley","Smith","112 Highland Ave","","Carrollton","GA","30117-4317","TTTADAFFTATTADADDTFAFADAATFTADFTAFTFATDTADATAAFADTFATDDFTAFDFDAFA",951,1
"Lisa","Cook","116 Highland Ave","","Carrollton","GA","30117-4317","FDAATATDFTAFAFFDFFAFFTAFFFDFDDAAFDFTFAFAFTTDADDAAFAFDATFFFAFTFFFD",952,1
"Demetric","Taylor","103 N Nixon St","","Carrollton","GA","30117-4319","DAAFDTATAADAATTFFTADAFTFFATFATADFFDTDTTFADFDAFAFFTAFATDDATATDTTFF",953,1
"Lorelei","Rutherford","105 N Nixon St","","Carrollton","GA","30117-4319","ADTDFTTTFTFTATADFFFDATFTFDFTDDFFADAFDTFTFATATAFFFFTAFAFADTAADFTTA",954,1
"Lydia","McLendon","103 S Nixon St","","Carrollton","GA","30117-4321","FDFTTTTFFDFTFTDFDFTAFDAAFFTFTDFFDFATTDAADTDTTTAFTAAAFFAFDTATAFTDT",955,1
"Rachael","Robinson","104 S Nixon St","","Carrollton","GA","30117-4322","ATFFATFFTDTTFTAFATAFFFFDTAFDFDTTFFDAFADAAFDFAFTFDDAFATDAADDTFDDFD",956,1
"Kelly","Summey","109 Ridley Dr","","Carrollton","GA","30117-4323","TTFDDTATTTDTFTAFDTTTAAAAFATDDTATTFFATTDTADDTAFAATTAAFDFATDDDFDADA",957,1
"Paul","Knowles","116 Ridley Dr","","Carrollton","GA","30117-4324","DTFATFATFFDDTAFADTTDTADAATATDADTFATTFADTATDADADDDDTTDDDAAATATDAAT",958,1
"Aubrey","Gilbert","118 Ridley Dr","","Carrollton","GA","30117-4324","ADAFADTTFTFTTTDTTFTFDTATADTDTFTADATTDDFTFTFTFTDDTATTFFTAFATTFFTAD",959,1
"Mike","Hagen","117 Allison Cir","","Carrollton","GA","30117-4325","DDATFTDDAFFFAAFDADFDADDFAFTDTTFFTFDDTFFADAFDAFAFDAFFDFAFFAAATFFAA",960,1
"Lori","Skillings","119 Allison Cir","","Carrollton","GA","30117-4325","DDTFATTDAFFTFDTFTDADADAATDADFDAFTDATAAATFFFTTADAAFDAAFDADFAAAFAFA",961,1
"Lisa","Jiles","121 Allison Cir","","Carrollton","GA","30117-4325","TDDAFDTTTFFDDAATDFTTTTFTFDTAFFTFTAAFTDFTDATADATDFFDTFFTADATDAFTTA",962,1
"Mitchell","Johnson","125 Allison Cir","","Carrollton","GA","30117-4325","AATFADADTDTDTAATDTDDDFDTTTDFAAFDFATFTFDDADTADADTADFTFTTDTTTADTTDD",963,1
"James","Black","129 Allison Cir","","Carrollton","GA","30117-4325","FAATTFFADFTFTDDTATFATFFFTATDDADTFTFTTATFATTFDAATDTDDATATAFDAFTDDD",964,1
"Charlotte","Culwell","135 Allison Cir","","Carrollton","GA","30117-4325","TDDDFDTFATFDTTAATDAATDDTDDFFFAFAFTTDAFATDFTAFFFDFFTTFFFFDTDTDFTAA",965,1
"Bonita","Rogers","139 Allison Cir","","Carrollton","GA","30117-4325","DFDDFATAFFADFFAFDFTTADTATFTAATFFFFADFFADFFDATTTAFAAAFFATDTFTAATDT",966,1
"L","Shadrix","106 Allison Cir","","Carrollton","GA","30117-4326","DFDDTADDDTAFFDDDAFTTFDDFTFAAFTDATFFFTFFFDDDFTDTFFFDATFFTFDTDFADTF",967,1
"Andy","Musick","114 Allison Cir","","Carrollton","GA","30117-4326","TDFTTATDTDFDFFDFDFDTADTAADTFDDFATDADFFFTFTATTDFFTAAFDFTFDTDFDFAFT",968,1
"Tara","Dye","134 Allison Cir","","Carrollton","GA","30117-4326","FFDADTDAFTAFAFTDFFFDFDFFFDTTFDFAFFDTFFAFDDDDTDFAAADAAATTFDDADADTF",969,1
"Debra","Dugan","144 Allison Cir","","Carrollton","GA","30117-4326","FDTAFADFADAFAADFAFAAFDADTFTFADAADDDFDTFAFFAFAAFAFFAATFAAFTTAAFFFA",970,1
"Perry","Burson","105 Frances Pl","","Carrollton","GA","30117-4331","DDDAAATDAFADFTTDDFTAADDATDTATTTFFDTTFTATFDFAATTADAAADFDAFDAADFDTT",971,1
"Robert","Moore","119 Frances Pl","","Carrollton","GA","30117-4331","TFFFTADAADFFATFDFFDFADTDTDATADTAAFDATDFFDFFDTFFAAATFFADTDFADTATAD",972,1
"Terri","Henderson","106 Frances Pl","","Carrollton","GA","30117-4332","DDDAATTTFFFTFFFFTDTFFDDTDFATATFFADADTDATFDAAAATATFFFFFDFDDDFFFTFD",973,1
"Clay","Robinson","120 Frances Pl","","Carrollton","GA","30117-4332","FFAFFTDAAAFAAFFFADDAATAFFDAFTDDADDFADDAFDFDDTDAFFFTATFFTFTTAAAFAD",974,1
"Charlote","Dunaway","128 Frances Pl","","Carrollton","GA","30117-4332","ATDDDDATDFDDDADTDTDDDFFTFATFAAADFAAFFADAADATDTDDDTTTTDAFTFAADDTDF",975,1
"Karen","Kagiyama","101 Janice Pl","","Carrollton","GA","30117-4333","TATDFAATDTTDATTDTTDFFFDAFTAAFTDDDDTAFTTFADTTAFDFDTTATTDTTFADDTAFT",976,1
"Ethelyn","Johnson","105 Janice Pl","","Carrollton","GA","30117-4333","FFDADFTDTFAADTDADFAADDFTDFATTFTFFATADAADFFFTFATDDFDTDFATFTTDTAAAF",977,1
"Martha","Smith","109 Janice Pl","","Carrollton","GA","30117-4333","DTAADFFTATTDTFFTFADADATDATDTAATTFTDDFATATFADDTDTATFDATFATFFFADDAD",978,1
"Margie","Tucker","309 Highland Ave","","Carrollton","GA","30117-4341","FTDATDFAFTTFTAFTFAAFDAFFDTDFAFDTTTFDFDDAAADDDFTDTDADFTTAAAAAADDAT",979,1
"D","Cofer","401 Highland Ave","","Carrollton","GA","30117-4343","DADAATDAFFATFDFDFTDTFTAFDDFDDDDDADDATATFTFATADTFADAFDDTTAFFTATADD",980,1
"Kevin","Troy","503 Elder Cir","","Carrollton","GA","30117-4428","FFFADAFATDTFAADDFDFAFFAFAAFTTTTATDADDAADFATTAFFFTFAATAFDDFDTDAATF",981,1
"Nancy","Warren","511 Elder Cir","","Carrollton","GA","30117-4441","TFDAFFFDTTDFDATTADDFDAFFFAFADFFFTADFTFFFDTFADAADTFDDTAFDFTTAAAADD",982,1
"Brittany","Boykin","513 Elder Cir","","Carrollton","GA","30117-4442","ATTAFTTTTTFAAADDFAADATDDADATFTADDFTTTTTTAFTFAADFFTTFFDAATAFDFDFTF",983,1
"Ellen","Hunsinger","514 Elder Cir","","Carrollton","GA","30117-4443","DTDDAFTDATFATDDAFAFADDDADDFAFAADFAAAFADTTFADDDDTFDATFTTFTFAADDTTD",984,1
"Tina","Houde","506 Elder Cir","","Carrollton","GA","30117-4444","TTFFTADFFFFTFFDFDTTDFTADTFADFDTTADDTDDTAAFATATTFTDAFFDDAAADFDDTAD",985,1
"Kush","Patel","901 S Park St","","Carrollton","GA","30117-4457","ADADATFTADTDAAAFTDDDAFDAFTTTDDAFADADDFATDFFTTDTFAAAFDFFFFTFATFTDF",986,1
"Dr. Lona","Bibbs","1109 S Park St","","Carrollton","GA","30117-4462","AFADDTAAFFDDAADDDDAAFFFFDTAFTDAADFADTFFFFDTTAAAADAAFTFTTFADAAAAFF",987,1
"Linda","Yates","406 Old Mill Dr","","Carrollton","GA","30117-6313","AFDATFDTTAAATFTTFTATTFAADDAAFATAATFTTAFDFTTTDFDDFFTDDADTFADATAAAD",988,1
"Christine","Creel","408 Old Mill Dr","","Carrollton","GA","30117-6313","TFDDDTDAFDFFFATDATADFFDAFFTAATTAFDFFTDADDTFTTAFAFATFDATDFTTFTATFF",989,1
"Elaine","Hobson","410 Old Mill Dr","","Carrollton","GA","30117-6313","DTFFDTAFAFDTADTDDFAFFTDFDTTTDTATDFTDAFTATFADAAFADDTATTFFTDDTDDFDD",990,1
"Erica","Tisinger","412 Old Mill Dr","","Carrollton","GA","30117-6313","DFFAAFTDTTADDDATDATATFAFDDFADADFDATTFFAFDDTFFADDTAFTAADTDFDAFADTF",991,1
"Brandon","Peterson","418 Old Mill Dr","","Carrollton","GA","30117-6313","FTADAAATDATDFTTDTFDFFTTDTTFDTDDDTFAFFATATDFDAADFTDTATDFATAFDADFTT",992,1
"Robert","Ballard","425 Old Mill Dr","","Carrollton","GA","30117-6314","TFATFFDTADADDAATFTTADFFTFFDFAFAADAAFTAAFDFDFDAFTTFATDFATFFFFTAFAD",993,1
"Susan","Newbern","429 Old Mill Dr","","Carrollton","GA","30117-6314","AADDFFFFFATADFDTDFFDDDDFTTDTAAFDTADAFDDDAFDADTFDFDFDDTDTAATTATAAA",994,1
"M","Motes","431 Old Mill Dr","","Carrollton","GA","30117-6314","TATDAAFTFTTFADFDDFAFATDDAATDADFDFFFTTADDATTAAAFAATAFADDTAFTTFTTFT",995,1
"Charles","Willis","114 Old Mill Ct","","Carrollton","GA","30117-6317","AFDDTATAADAFFDFFTAATAFTTADDFFDTFFFFDTTADDTTDATDATFFAAAFTFFADFATAD",996,1
"Nancy","Fox","124 Old Mill Ct","","Carrollton","GA","30117-6317","DFDTATTFFDAAADDDTAATFFFTDFFTFTFFDFDFTFADDDFFADDFDFTAFFADFADTTATFA",997,1
"Linda","Smith","126 Old Mill Ct","","Carrollton","GA","30117-6317","ATFTDAFTDTTDFTTDAFFDFTTDDADADTDTTFAFFDDATTFTAFAFFDFFADDATTTAFDDTA",998,1
"Lance","Hatfield","112 Orion Ter","","Carrollton","GA","30117-6318","TDFAFADATAAFFFADATAAFATDTFTTTTAFFFTTFDATDADATDAFAFAAFFTAFDFTAFDAA",999,1
"Dr. Lona","Bibbs","1741 Newnan Crossing Blvd E","","Newnan","GA","30265-1599","TFFTDDTADADTFDFFATFDTTTDAFFTDTDTAFTATFTAADFTFAFADTFAATFTTFTDTTDFT",1000,2
